{
  "type": "FeatureCollection",
  "features": [
    {
      "type": "Feature",
      "geometry": {
        "type": "LineString",
        "coordinates": [
          [
            37.634271207442,
            55.69977528231
          ],
          [
            37.634405403981,
            55.699481068732
          ]
        ]
      },
      "properties": {
        "id": "visibility_1_new_1_1",
        "variant_id": "visibility_1",
        "diameter": 125,
        "length": 33.815
      }
    },
    {
      "type": "Feature",
      "geometry": {
        "type": "LineString",
        "coordinates": [
          [
            37.634271207442,
            55.69977528231
          ],
          [
            37.634582926007,
            55.699854468118
          ]
        ]
      },
      "properties": {
        "id": "visibility_1_new_2_1",
        "variant_id": "visibility_1",
        "diameter": 100,
        "length": 21.484
      }
    },
    {
      "type": "Feature",
      "geometry": {
        "type": "LineString",
        "coordinates": [
          [
            37.632385929964,
            55.700187702084
          ],
          [
            37.632846602295,
            55.700275764475
          ]
        ]
      },
      "properties": {
        "id": "visibility_1_new_3_1",
        "variant_id": "visibility_1",
        "diameter": 125,
        "length": 30.57
      }
    },
    {
      "type": "Feature",
      "geometry": {
        "type": "LineString",
        "coordinates": [
          [
            37.634271207442,
            55.69977528231
          ],
          [
            37.635329092746,
            55.69954445221
          ],
          [
            37.636087719719,
            55.700080490891
          ],
          [
            37.636381851248,
            55.700155203293
          ]
        ]
      },
      "properties": {
        "id": "visibility_1_new_4_1",
        "variant_id": "visibility_1",
        "diameter": 150,
        "length": 167.934
      }
    },
    {
      "type": "Feature",
      "geometry": {
        "type": "LineString",
        "coordinates": [
          [
            37.635880918009,
            55.698148185245
          ],
          [
            37.635417055874,
            55.698614736028
          ]
        ]
      },
      "properties": {
        "id": "visibility_1_new_5_1",
        "variant_id": "visibility_1",
        "diameter": 125,
        "length": 59.554
      }
    },
    {
      "type": "Feature",
      "geometry": {
        "type": "LineString",
        "coordinates": [
          [
            37.632385929964,
            55.700187702084
          ],
          [
            37.632012226301,
            55.700048265534
          ]
        ]
      },
      "properties": {
        "id": "visibility_1_new_6_1",
        "variant_id": "visibility_1",
        "diameter": 100,
        "length": 28.153
      }
    },
    {
      "type": "Feature",
      "geometry": {
        "type": "LineString",
        "coordinates": [
          [
            37.637733531089,
            55.697791739991
          ],
          [
            37.638280304046,
            55.697956790567
          ]
        ]
      },
      "properties": {
        "id": "visibility_1_new_7_1",
        "variant_id": "visibility_1",
        "diameter": 125,
        "length": 38.971
      }
    },
    {
      "type": "Feature",
      "geometry": {
        "type": "LineString",
        "coordinates": [
          [
            37.632385929964,
            55.700187702084
          ],
          [
            37.632202633433,
            55.700314421709
          ]
        ]
      },
      "properties": {
        "id": "visibility_1_new_8_1",
        "variant_id": "visibility_1",
        "diameter": 100,
        "length": 18.212
      }
    },
    {
      "type": "Feature",
      "geometry": {
        "type": "LineString",
        "coordinates": [
          [
            37.633594088088,
            55.697581911977
          ],
          [
            37.633789594583,
            55.69753490301
          ],
          [
            37.634446267723,
            55.697252395986
          ]
        ]
      },
      "properties": {
        "id": "visibility_1_new_9_1",
        "variant_id": "visibility_1",
        "diameter": 125,
        "length": 65.247
      }
    },
    {
      "type": "Feature",
      "geometry": {
        "type": "LineString",
        "coordinates": [
          [
            37.637733531089,
            55.697791739991
          ],
          [
            37.637334765882,
            55.697753107473
          ],
          [
            37.636639999085,
            55.697461631591
          ],
          [
            37.636093240038,
            55.697296573769
          ]
        ]
      },
      "properties": {
        "id": "visibility_1_new_10_1",
        "variant_id": "visibility_1",
        "diameter": 125,
        "length": 118.807
      }
    },
    {
      "type": "Feature",
      "geometry": {
        "type": "LineString",
        "coordinates": [
          [
            37.633804952055,
            55.699528075535
          ],
          [
            37.633204498734,
            55.699575079394
          ]
        ]
      },
      "properties": {
        "id": "visibility_1_new_11_1",
        "variant_id": "visibility_1",
        "diameter": 65,
        "length": 38.103
      }
    },
    {
      "type": "Feature",
      "geometry": {
        "type": "LineString",
        "coordinates": [
          [
            37.633409502392,
            55.698677902412
          ],
          [
            37.633139321938,
            55.698653072531
          ]
        ]
      },
      "properties": {
        "id": "visibility_1_new_12_1",
        "variant_id": "visibility_1",
        "diameter": 125,
        "length": 17.206
      }
    },
    {
      "type": "Feature",
      "geometry": {
        "type": "LineString",
        "coordinates": [
          [
            37.633594088088,
            55.697581911977
          ],
          [
            37.633901056125,
            55.697722611511
          ]
        ]
      },
      "properties": {
        "id": "visibility_1_new_13_1",
        "variant_id": "visibility_1",
        "diameter": 100,
        "length": 24.851
      }
    },
    {
      "type": "Feature",
      "geometry": {
        "type": "LineString",
        "coordinates": [
          [
            37.633594088088,
            55.697581911977
          ],
          [
            37.63375244097,
            55.697472333488
          ]
        ]
      },
      "properties": {
        "id": "visibility_1_new_14_1",
        "variant_id": "visibility_1",
        "diameter": 100,
        "length": 15.743
      }
    },
    {
      "type": "Feature",
      "geometry": {
        "type": "LineString",
        "coordinates": [
          [
            37.632854543826,
            55.697834492251
          ],
          [
            37.632254532137,
            55.697147106346
          ],
          [
            37.632034439325,
            55.697045694109
          ]
        ]
      },
      "properties": {
        "id": "visibility_1_new_15_1",
        "variant_id": "visibility_1",
        "diameter": 125,
        "length": 103.154
      }
    },
    {
      "type": "Feature",
      "geometry": {
        "type": "LineString",
        "coordinates": [
          [
            37.639987999193,
            55.699268940294
          ],
          [
            37.640657220179,
            55.699371684154
          ],
          [
            37.641276534307,
            55.699240730864
          ],
          [
            37.641462862903,
            55.6990651945
          ],
          [
            37.641023358366,
            55.698473076723
          ],
          [
            37.640764466155,
            55.698407396101
          ]
        ]
      },
      "properties": {
        "id": "visibility_1_new_16_1",
        "variant_id": "visibility_1",
        "diameter": 200,
        "length": 197.238
      }
    },
    {
      "type": "Feature",
      "geometry": {
        "type": "LineString",
        "coordinates": [
          [
            37.638461838842,
            55.697638536901
          ],
          [
            37.638731124343,
            55.69690852538
          ],
          [
            37.639128923888,
            55.696814384602
          ],
          [
            37.639538145943,
            55.696851832917
          ]
        ]
      },
      "properties": {
        "id": "visibility_1_new_17_1",
        "variant_id": "visibility_1",
        "diameter": 100,
        "length": 136.168
      }
    },
    {
      "type": "Feature",
      "geometry": {
        "type": "LineString",
        "coordinates": [
          [
            37.638461838842,
            55.697638536901
          ],
          [
            37.637733531089,
            55.697791739991
          ]
        ]
      },
      "properties": {
        "id": "visibility_1_new_18_1",
        "variant_id": "visibility_1",
        "diameter": 300,
        "length": 48.853
      }
    },
    {
      "type": "Feature",
      "geometry": {
        "type": "LineString",
        "coordinates": [
          [
            37.637733531089,
            55.697791739991
          ],
          [
            37.635880918009,
            55.698148185245
          ]
        ]
      },
      "properties": {
        "id": "visibility_1_new_19_1",
        "variant_id": "visibility_1",
        "diameter": 300,
        "length": 123.026
      }
    },
    {
      "type": "Feature",
      "geometry": {
        "type": "LineString",
        "coordinates": [
          [
            37.635880918009,
            55.698148185245
          ],
          [
            37.633409502392,
            55.698677902412
          ]
        ]
      },
      "properties": {
        "id": "visibility_1_new_20_1",
        "variant_id": "visibility_1",
        "diameter": 300,
        "length": 166.161
      }
    },
    {
      "type": "Feature",
      "geometry": {
        "type": "LineString",
        "coordinates": [
          [
            37.633409502392,
            55.698677902412
          ],
          [
            37.632854543826,
            55.697834492251
          ]
        ]
      },
      "properties": {
        "id": "visibility_1_new_21_1",
        "variant_id": "visibility_1",
        "diameter": 200,
        "length": 100.145
      }
    },
    {
      "type": "Feature",
      "geometry": {
        "type": "LineString",
        "coordinates": [
          [
            37.632854543826,
            55.697834492251
          ],
          [
            37.633594088088,
            55.697581911977
          ]
        ]
      },
      "properties": {
        "id": "visibility_1_new_22_1",
        "variant_id": "visibility_1",
        "diameter": 200,
        "length": 54.327
      }
    },
    {
      "type": "Feature",
      "geometry": {
        "type": "LineString",
        "coordinates": [
          [
            37.633804952055,
            55.699528075535
          ],
          [
            37.634271207442,
            55.69977528231
          ]
        ]
      },
      "properties": {
        "id": "visibility_1_new_23_1",
        "variant_id": "visibility_1",
        "diameter": 200,
        "length": 40.199
      }
    },
    {
      "type": "Feature",
      "geometry": {
        "type": "LineString",
        "coordinates": [
          [
            37.633804952055,
            55.699528075535
          ],
          [
            37.632385929964,
            55.700187702084
          ]
        ]
      },
      "properties": {
        "id": "visibility_1_new_24_1",
        "variant_id": "visibility_1",
        "diameter": 150,
        "length": 115.524
      }
    },
    {
      "type": "Feature",
      "geometry": {
        "type": "LineString",
        "coordinates": [
          [
            37.633409502392,
            55.698677902412
          ],
          [
            37.633804952055,
            55.699528075535
          ]
        ]
      },
      "properties": {
        "id": "visibility_1_new_25_1",
        "variant_id": "visibility_1",
        "diameter": 250,
        "length": 97.836
      }
    }
  ]
}