{
  "type": "FeatureCollection",
  "features": [
    {
      "type": "Feature",
      "geometry": {
        "type": "Point",
        "coordinates": [
          37.639987999193,
          55.699268940294
        ]
      },
      "properties": {
        "id": "visibility_1_tie_tie_chamber_109",
        "object_type": "tie_in",
        "variant_id": "visibility_1",
        "existing_object_id": "109",
        "existing_object_type": "heat_chamber",
        "existing_diameter": 300,
        "required_diameter": 200,
        "cost": 5000000
      }
    },
    {
      "type": "Feature",
      "geometry": {
        "type": "Point",
        "coordinates": [
          37.638461838842,
          55.697638536901
        ]
      },
      "properties": {
        "id": "visibility_1_tie_tie_chamber_106",
        "object_type": "tie_in",
        "variant_id": "visibility_1",
        "existing_object_id": "106",
        "existing_object_type": "heat_chamber",
        "existing_diameter": 300,
        "required_diameter": 300,
        "cost": 5000000
      }
    },
    {
      "type": "Feature",
      "geometry": {
        "type": "Point",
        "coordinates": [
          37.635880918009,
          55.698148185245
        ]
      },
      "properties": {
        "id": "visibility_1_new_chamber_1",
        "object_type": "heat_chamber",
        "variant_id": "visibility_1",
        "diameter": 300,
        "cost": 5000000
      }
    },
    {
      "type": "Feature",
      "geometry": {
        "type": "Point",
        "coordinates": [
          37.632854543826,
          55.697834492251
        ]
      },
      "properties": {
        "id": "visibility_1_new_chamber_2",
        "object_type": "heat_chamber",
        "variant_id": "visibility_1",
        "diameter": 200,
        "cost": 3000000
      }
    },
    {
      "type": "Feature",
      "geometry": {
        "type": "Point",
        "coordinates": [
          37.634271207442,
          55.69977528231
        ]
      },
      "properties": {
        "id": "visibility_1_new_chamber_3",
        "object_type": "heat_chamber",
        "variant_id": "visibility_1",
        "diameter": 200,
        "cost": 3000000
      }
    },
    {
      "type": "Feature",
      "geometry": {
        "type": "Point",
        "coordinates": [
          37.632385929964,
          55.700187702084
        ]
      },
      "properties": {
        "id": "visibility_1_new_chamber_4",
        "object_type": "heat_chamber",
        "variant_id": "visibility_1",
        "diameter": 150,
        "cost": 3000000
      }
    },
    {
      "type": "Feature",
      "geometry": {
        "type": "Point",
        "coordinates": [
          37.633409502392,
          55.698677902412
        ]
      },
      "properties": {
        "id": "visibility_1_new_chamber_5",
        "object_type": "heat_chamber",
        "variant_id": "visibility_1",
        "diameter": 300,
        "cost": 5000000
      }
    },
    {
      "type": "Feature",
      "geometry": {
        "type": "Point",
        "coordinates": [
          37.633594088088,
          55.697581911977
        ]
      },
      "properties": {
        "id": "visibility_1_new_chamber_6",
        "object_type": "heat_chamber",
        "variant_id": "visibility_1",
        "diameter": 200,
        "cost": 3000000
      }
    },
    {
      "type": "Feature",
      "geometry": {
        "type": "Point",
        "coordinates": [
          37.633804952055,
          55.699528075535
        ]
      },
      "properties": {
        "id": "visibility_1_new_chamber_7",
        "object_type": "heat_chamber",
        "variant_id": "visibility_1",
        "diameter": 250,
        "cost": 5000000
      }
    },
    {
      "type": "Feature",
      "geometry": {
        "type": "Point",
        "coordinates": [
          37.637733531089,
          55.697791739991
        ]
      },
      "properties": {
        "id": "visibility_1_new_chamber_8",
        "object_type": "heat_chamber",
        "variant_id": "visibility_1",
        "diameter": 300,
        "cost": 5000000
      }
    },
    {
      "type": "Feature",
      "geometry": {
        "type": "Point",
        "coordinates": [
          37.639987999193,
          55.699268940294
        ]
      },
      "properties": {
        "id": "visibility_2_tie_tie_chamber_109",
        "object_type": "tie_in",
        "variant_id": "visibility_2",
        "existing_object_id": "109",
        "existing_object_type": "heat_chamber",
        "existing_diameter": 300,
        "required_diameter": 200,
        "cost": 5000000
      }
    },
    {
      "type": "Feature",
      "geometry": {
        "type": "Point",
        "coordinates": [
          37.638461838842,
          55.697638536901
        ]
      },
      "properties": {
        "id": "visibility_2_tie_tie_chamber_106",
        "object_type": "tie_in",
        "variant_id": "visibility_2",
        "existing_object_id": "106",
        "existing_object_type": "heat_chamber",
        "existing_diameter": 300,
        "required_diameter": 300,
        "cost": 5000000
      }
    },
    {
      "type": "Feature",
      "geometry": {
        "type": "Point",
        "coordinates": [
          37.637924639953,
          55.696894040045
        ]
      },
      "properties": {
        "id": "visibility_2_tie_tie_net_129_13",
        "object_type": "tie_in",
        "variant_id": "visibility_2",
        "existing_object_id": "129",
        "existing_object_type": "heat_network",
        "existing_diameter": 400,
        "required_diameter": 100,
        "cost": 5000000
      }
    },
    {
      "type": "Feature",
      "geometry": {
        "type": "Point",
        "coordinates": [
          37.637924639953,
          55.696894040045
        ]
      },
      "properties": {
        "id": "visibility_2_tie_chamber_3",
        "object_type": "heat_chamber",
        "variant_id": "visibility_2",
        "diameter": 400,
        "cost": 5000000
      }
    },
    {
      "type": "Feature",
      "geometry": {
        "type": "Point",
        "coordinates": [
          37.635880918009,
          55.698148185245
        ]
      },
      "properties": {
        "id": "visibility_2_new_chamber_1",
        "object_type": "heat_chamber",
        "variant_id": "visibility_2",
        "diameter": 300,
        "cost": 5000000
      }
    },
    {
      "type": "Feature",
      "geometry": {
        "type": "Point",
        "coordinates": [
          37.632854543826,
          55.697834492251
        ]
      },
      "properties": {
        "id": "visibility_2_new_chamber_2",
        "object_type": "heat_chamber",
        "variant_id": "visibility_2",
        "diameter": 200,
        "cost": 3000000
      }
    },
    {
      "type": "Feature",
      "geometry": {
        "type": "Point",
        "coordinates": [
          37.634271207442,
          55.69977528231
        ]
      },
      "properties": {
        "id": "visibility_2_new_chamber_3",
        "object_type": "heat_chamber",
        "variant_id": "visibility_2",
        "diameter": 200,
        "cost": 3000000
      }
    },
    {
      "type": "Feature",
      "geometry": {
        "type": "Point",
        "coordinates": [
          37.632385929964,
          55.700187702084
        ]
      },
      "properties": {
        "id": "visibility_2_new_chamber_4",
        "object_type": "heat_chamber",
        "variant_id": "visibility_2",
        "diameter": 150,
        "cost": 3000000
      }
    },
    {
      "type": "Feature",
      "geometry": {
        "type": "Point",
        "coordinates": [
          37.633409502392,
          55.698677902412
        ]
      },
      "properties": {
        "id": "visibility_2_new_chamber_5",
        "object_type": "heat_chamber",
        "variant_id": "visibility_2",
        "diameter": 300,
        "cost": 5000000
      }
    },
    {
      "type": "Feature",
      "geometry": {
        "type": "Point",
        "coordinates": [
          37.633594088088,
          55.697581911977
        ]
      },
      "properties": {
        "id": "visibility_2_new_chamber_6",
        "object_type": "heat_chamber",
        "variant_id": "visibility_2",
        "diameter": 200,
        "cost": 3000000
      }
    },
    {
      "type": "Feature",
      "geometry": {
        "type": "Point",
        "coordinates": [
          37.633804952055,
          55.699528075535
        ]
      },
      "properties": {
        "id": "visibility_2_new_chamber_7",
        "object_type": "heat_chamber",
        "variant_id": "visibility_2",
        "diameter": 250,
        "cost": 5000000
      }
    },
    {
      "type": "Feature",
      "geometry": {
        "type": "Point",
        "coordinates": [
          37.637559098281,
          55.697774885605
        ]
      },
      "properties": {
        "id": "visibility_2_new_chamber_8",
        "object_type": "heat_chamber",
        "variant_id": "visibility_2",
        "diameter": 300,
        "cost": 5000000
      }
    },
    {
      "type": "Feature",
      "geometry": {
        "type": "Point",
        "coordinates": [
          37.638461838842,
          55.697638536901
        ]
      },
      "properties": {
        "id": "visibility_3_tie_tie_chamber_106",
        "object_type": "tie_in",
        "variant_id": "visibility_3",
        "existing_object_id": "106",
        "existing_object_type": "heat_chamber",
        "existing_diameter": 300,
        "required_diameter": 300,
        "cost": 5000000
      }
    },
    {
      "type": "Feature",
      "geometry": {
        "type": "Point",
        "coordinates": [
          37.64056464347,
          55.699815105189
        ]
      },
      "properties": {
        "id": "visibility_3_tie_tie_net_121_1",
        "object_type": "tie_in",
        "variant_id": "visibility_3",
        "existing_object_id": "121",
        "existing_object_type": "heat_network",
        "existing_diameter": 300,
        "required_diameter": 200,
        "cost": 5000000
      }
    },
    {
      "type": "Feature",
      "geometry": {
        "type": "Point",
        "coordinates": [
          37.64056464347,
          55.699815105189
        ]
      },
      "properties": {
        "id": "visibility_3_tie_chamber_2",
        "object_type": "heat_chamber",
        "variant_id": "visibility_3",
        "diameter": 300,
        "cost": 5000000
      }
    },
    {
      "type": "Feature",
      "geometry": {
        "type": "Point",
        "coordinates": [
          37.635880918009,
          55.698148185245
        ]
      },
      "properties": {
        "id": "visibility_3_new_chamber_1",
        "object_type": "heat_chamber",
        "variant_id": "visibility_3",
        "diameter": 300,
        "cost": 5000000
      }
    },
    {
      "type": "Feature",
      "geometry": {
        "type": "Point",
        "coordinates": [
          37.632854543826,
          55.697834492251
        ]
      },
      "properties": {
        "id": "visibility_3_new_chamber_2",
        "object_type": "heat_chamber",
        "variant_id": "visibility_3",
        "diameter": 200,
        "cost": 3000000
      }
    },
    {
      "type": "Feature",
      "geometry": {
        "type": "Point",
        "coordinates": [
          37.634271207442,
          55.69977528231
        ]
      },
      "properties": {
        "id": "visibility_3_new_chamber_3",
        "object_type": "heat_chamber",
        "variant_id": "visibility_3",
        "diameter": 200,
        "cost": 3000000
      }
    },
    {
      "type": "Feature",
      "geometry": {
        "type": "Point",
        "coordinates": [
          37.632385929964,
          55.700187702084
        ]
      },
      "properties": {
        "id": "visibility_3_new_chamber_4",
        "object_type": "heat_chamber",
        "variant_id": "visibility_3",
        "diameter": 150,
        "cost": 3000000
      }
    },
    {
      "type": "Feature",
      "geometry": {
        "type": "Point",
        "coordinates": [
          37.633409502392,
          55.698677902412
        ]
      },
      "properties": {
        "id": "visibility_3_new_chamber_5",
        "object_type": "heat_chamber",
        "variant_id": "visibility_3",
        "diameter": 300,
        "cost": 5000000
      }
    },
    {
      "type": "Feature",
      "geometry": {
        "type": "Point",
        "coordinates": [
          37.633594088088,
          55.697581911977
        ]
      },
      "properties": {
        "id": "visibility_3_new_chamber_6",
        "object_type": "heat_chamber",
        "variant_id": "visibility_3",
        "diameter": 200,
        "cost": 3000000
      }
    },
    {
      "type": "Feature",
      "geometry": {
        "type": "Point",
        "coordinates": [
          37.633804952055,
          55.699528075535
        ]
      },
      "properties": {
        "id": "visibility_3_new_chamber_7",
        "object_type": "heat_chamber",
        "variant_id": "visibility_3",
        "diameter": 250,
        "cost": 5000000
      }
    },
    {
      "type": "Feature",
      "geometry": {
        "type": "Point",
        "coordinates": [
          37.637733531089,
          55.697791739991
        ]
      },
      "properties": {
        "id": "visibility_3_new_chamber_8",
        "object_type": "heat_chamber",
        "variant_id": "visibility_3",
        "diameter": 300,
        "cost": 5000000
      }
    }
  ]
}