{
  "type": "FeatureCollection",
  "features": [
    {
      "type": "Feature",
      "geometry": {
        "type": "Point",
        "coordinates": [
          37.639987999193,
          55.699268940294
        ]
      },
      "properties": {
        "id": "visibility_2_tie_tie_chamber_109",
        "object_type": "tie_in",
        "variant_id": "visibility_2"
      }
    },
    {
      "type": "Feature",
      "geometry": {
        "type": "Point",
        "coordinates": [
          37.638461838842,
          55.697638536901
        ]
      },
      "properties": {
        "id": "visibility_2_tie_tie_chamber_106",
        "object_type": "tie_in",
        "variant_id": "visibility_2"
      }
    },
    {
      "type": "Feature",
      "geometry": {
        "type": "Point",
        "coordinates": [
          37.637924639953,
          55.696894040045
        ]
      },
      "properties": {
        "id": "visibility_2_tie_tie_net_129_13",
        "object_type": "tie_in",
        "variant_id": "visibility_2"
      }
    },
    {
      "type": "Feature",
      "geometry": {
        "type": "Point",
        "coordinates": [
          37.637924639953,
          55.696894040045
        ]
      },
      "properties": {
        "id": "visibility_2_tie_chamber_3",
        "object_type": "heat_chamber",
        "variant_id": "visibility_2"
      }
    },
    {
      "type": "Feature",
      "geometry": {
        "type": "Point",
        "coordinates": [
          37.634928965852,
          55.698351925776
        ]
      },
      "properties": {
        "id": "visibility_2_new_chamber_1",
        "object_type": "heat_chamber",
        "variant_id": "visibility_2"
      }
    },
    {
      "type": "Feature",
      "geometry": {
        "type": "Point",
        "coordinates": [
          37.634271207442,
          55.69977528231
        ]
      },
      "properties": {
        "id": "visibility_2_new_chamber_2",
        "object_type": "heat_chamber",
        "variant_id": "visibility_2"
      }
    },
    {
      "type": "Feature",
      "geometry": {
        "type": "Point",
        "coordinates": [
          37.632899202257,
          55.70009278074
        ]
      },
      "properties": {
        "id": "visibility_2_new_chamber_3",
        "object_type": "heat_chamber",
        "variant_id": "visibility_2"
      }
    },
    {
      "type": "Feature",
      "geometry": {
        "type": "Point",
        "coordinates": [
          37.634295986883,
          55.697441182851
        ]
      },
      "properties": {
        "id": "visibility_2_new_chamber_4",
        "object_type": "heat_chamber",
        "variant_id": "visibility_2"
      }
    },
    {
      "type": "Feature",
      "geometry": {
        "type": "Point",
        "coordinates": [
          37.633475776228,
          55.699387525745
        ]
      },
      "properties": {
        "id": "visibility_2_new_chamber_5",
        "object_type": "heat_chamber",
        "variant_id": "visibility_2"
      }
    },
    {
      "type": "Feature",
      "geometry": {
        "type": "Point",
        "coordinates": [
          37.633409502392,
          55.698677902412
        ]
      },
      "properties": {
        "id": "visibility_2_new_chamber_6",
        "object_type": "heat_chamber",
        "variant_id": "visibility_2"
      }
    },
    {
      "type": "Feature",
      "geometry": {
        "type": "Point",
        "coordinates": [
          37.634080752535,
          55.697453599219
        ]
      },
      "properties": {
        "id": "visibility_2_new_chamber_7",
        "object_type": "heat_chamber",
        "variant_id": "visibility_2"
      }
    },
    {
      "type": "Feature",
      "geometry": {
        "type": "Point",
        "coordinates": [
          37.63755908701,
          55.697774867607
        ]
      },
      "properties": {
        "id": "visibility_2_new_chamber_8",
        "object_type": "heat_chamber",
        "variant_id": "visibility_2"
      }
    }
  ]
}