{
  "type": "FeatureCollection",
  "features": [
    {
      "type": "Feature",
      "geometry": {
        "type": "Point",
        "coordinates": [
          37.639987999193,
          55.699268940294
        ]
      },
      "properties": {
        "id": "visibility_2_tie_tie_chamber_109",
        "object_type": "tie_in",
        "variant_id": "visibility_2",
        "existing_object_id": "109",
        "existing_object_type": "heat_chamber",
        "existing_diameter": 300,
        "required_diameter": 200,
        "cost": 5000000
      }
    },
    {
      "type": "Feature",
      "geometry": {
        "type": "Point",
        "coordinates": [
          37.638461838842,
          55.697638536901
        ]
      },
      "properties": {
        "id": "visibility_2_tie_tie_chamber_106",
        "object_type": "tie_in",
        "variant_id": "visibility_2",
        "existing_object_id": "106",
        "existing_object_type": "heat_chamber",
        "existing_diameter": 300,
        "required_diameter": 300,
        "cost": 5000000
      }
    },
    {
      "type": "Feature",
      "geometry": {
        "type": "Point",
        "coordinates": [
          37.637924639953,
          55.696894040045
        ]
      },
      "properties": {
        "id": "visibility_2_tie_tie_net_129_13",
        "object_type": "tie_in",
        "variant_id": "visibility_2",
        "existing_object_id": "129",
        "existing_object_type": "heat_network",
        "existing_diameter": 400,
        "required_diameter": 100,
        "cost": 5000000
      }
    },
    {
      "type": "Feature",
      "geometry": {
        "type": "Point",
        "coordinates": [
          37.637924639953,
          55.696894040045
        ]
      },
      "properties": {
        "id": "visibility_2_tie_chamber_3",
        "object_type": "heat_chamber",
        "variant_id": "visibility_2",
        "diameter": 400,
        "cost": 5000000
      }
    },
    {
      "type": "Feature",
      "geometry": {
        "type": "Point",
        "coordinates": [
          37.634928965852,
          55.698351925776
        ]
      },
      "properties": {
        "id": "visibility_2_new_chamber_1",
        "object_type": "heat_chamber",
        "variant_id": "visibility_2",
        "diameter": 300,
        "cost": 5000000
      }
    },
    {
      "type": "Feature",
      "geometry": {
        "type": "Point",
        "coordinates": [
          37.634271207442,
          55.69977528231
        ]
      },
      "properties": {
        "id": "visibility_2_new_chamber_2",
        "object_type": "heat_chamber",
        "variant_id": "visibility_2",
        "diameter": 200,
        "cost": 3000000
      }
    },
    {
      "type": "Feature",
      "geometry": {
        "type": "Point",
        "coordinates": [
          37.632899202257,
          55.70009278074
        ]
      },
      "properties": {
        "id": "visibility_2_new_chamber_3",
        "object_type": "heat_chamber",
        "variant_id": "visibility_2",
        "diameter": 150,
        "cost": 3000000
      }
    },
    {
      "type": "Feature",
      "geometry": {
        "type": "Point",
        "coordinates": [
          37.634295986883,
          55.697441182851
        ]
      },
      "properties": {
        "id": "visibility_2_new_chamber_4",
        "object_type": "heat_chamber",
        "variant_id": "visibility_2",
        "diameter": 200,
        "cost": 3000000
      }
    },
    {
      "type": "Feature",
      "geometry": {
        "type": "Point",
        "coordinates": [
          37.633475776228,
          55.699387525745
        ]
      },
      "properties": {
        "id": "visibility_2_new_chamber_5",
        "object_type": "heat_chamber",
        "variant_id": "visibility_2",
        "diameter": 200,
        "cost": 3000000
      }
    },
    {
      "type": "Feature",
      "geometry": {
        "type": "Point",
        "coordinates": [
          37.633409502392,
          55.698677902412
        ]
      },
      "properties": {
        "id": "visibility_2_new_chamber_6",
        "object_type": "heat_chamber",
        "variant_id": "visibility_2",
        "diameter": 250,
        "cost": 5000000
      }
    },
    {
      "type": "Feature",
      "geometry": {
        "type": "Point",
        "coordinates": [
          37.634080752535,
          55.697453599219
        ]
      },
      "properties": {
        "id": "visibility_2_new_chamber_7",
        "object_type": "heat_chamber",
        "variant_id": "visibility_2",
        "diameter": 150,
        "cost": 3000000
      }
    },
    {
      "type": "Feature",
      "geometry": {
        "type": "Point",
        "coordinates": [
          37.63755908701,
          55.697774867607
        ]
      },
      "properties": {
        "id": "visibility_2_new_chamber_8",
        "object_type": "heat_chamber",
        "variant_id": "visibility_2",
        "diameter": 300,
        "cost": 5000000
      }
    },
    {
      "type": "Feature",
      "geometry": {
        "type": "Point",
        "coordinates": [
          37.639987999193,
          55.699268940294
        ]
      },
      "properties": {
        "id": "visibility_1_tie_tie_chamber_109",
        "object_type": "tie_in",
        "variant_id": "visibility_1",
        "existing_object_id": "109",
        "existing_object_type": "heat_chamber",
        "existing_diameter": 300,
        "required_diameter": 200,
        "cost": 5000000
      }
    },
    {
      "type": "Feature",
      "geometry": {
        "type": "Point",
        "coordinates": [
          37.638461838842,
          55.697638536901
        ]
      },
      "properties": {
        "id": "visibility_1_tie_tie_chamber_106",
        "object_type": "tie_in",
        "variant_id": "visibility_1",
        "existing_object_id": "106",
        "existing_object_type": "heat_chamber",
        "existing_diameter": 300,
        "required_diameter": 300,
        "cost": 5000000
      }
    },
    {
      "type": "Feature",
      "geometry": {
        "type": "Point",
        "coordinates": [
          37.634928965852,
          55.698351925776
        ]
      },
      "properties": {
        "id": "visibility_1_new_chamber_1",
        "object_type": "heat_chamber",
        "variant_id": "visibility_1",
        "diameter": 300,
        "cost": 5000000
      }
    },
    {
      "type": "Feature",
      "geometry": {
        "type": "Point",
        "coordinates": [
          37.634271207442,
          55.69977528231
        ]
      },
      "properties": {
        "id": "visibility_1_new_chamber_2",
        "object_type": "heat_chamber",
        "variant_id": "visibility_1",
        "diameter": 200,
        "cost": 3000000
      }
    },
    {
      "type": "Feature",
      "geometry": {
        "type": "Point",
        "coordinates": [
          37.632899202257,
          55.70009278074
        ]
      },
      "properties": {
        "id": "visibility_1_new_chamber_3",
        "object_type": "heat_chamber",
        "variant_id": "visibility_1",
        "diameter": 150,
        "cost": 3000000
      }
    },
    {
      "type": "Feature",
      "geometry": {
        "type": "Point",
        "coordinates": [
          37.634295986883,
          55.697441182851
        ]
      },
      "properties": {
        "id": "visibility_1_new_chamber_4",
        "object_type": "heat_chamber",
        "variant_id": "visibility_1",
        "diameter": 200,
        "cost": 3000000
      }
    },
    {
      "type": "Feature",
      "geometry": {
        "type": "Point",
        "coordinates": [
          37.633475776228,
          55.699387525745
        ]
      },
      "properties": {
        "id": "visibility_1_new_chamber_5",
        "object_type": "heat_chamber",
        "variant_id": "visibility_1",
        "diameter": 200,
        "cost": 3000000
      }
    },
    {
      "type": "Feature",
      "geometry": {
        "type": "Point",
        "coordinates": [
          37.633409502392,
          55.698677902412
        ]
      },
      "properties": {
        "id": "visibility_1_new_chamber_6",
        "object_type": "heat_chamber",
        "variant_id": "visibility_1",
        "diameter": 250,
        "cost": 5000000
      }
    },
    {
      "type": "Feature",
      "geometry": {
        "type": "Point",
        "coordinates": [
          37.637619634531,
          55.697809121016
        ]
      },
      "properties": {
        "id": "visibility_1_new_chamber_7",
        "object_type": "heat_chamber",
        "variant_id": "visibility_1",
        "diameter": 300,
        "cost": 5000000
      }
    },
    {
      "type": "Feature",
      "geometry": {
        "type": "Point",
        "coordinates": [
          37.639987999193,
          55.699268940294
        ]
      },
      "properties": {
        "id": "visibility_3_tie_tie_chamber_109",
        "object_type": "tie_in",
        "variant_id": "visibility_3",
        "existing_object_id": "109",
        "existing_object_type": "heat_chamber",
        "existing_diameter": 300,
        "required_diameter": 200,
        "cost": 5000000
      }
    },
    {
      "type": "Feature",
      "geometry": {
        "type": "Point",
        "coordinates": [
          37.638461838842,
          55.697638536901
        ]
      },
      "properties": {
        "id": "visibility_3_tie_tie_chamber_106",
        "object_type": "tie_in",
        "variant_id": "visibility_3",
        "existing_object_id": "106",
        "existing_object_type": "heat_chamber",
        "existing_diameter": 300,
        "required_diameter": 300,
        "cost": 5000000
      }
    },
    {
      "type": "Feature",
      "geometry": {
        "type": "Point",
        "coordinates": [
          37.634928965852,
          55.698351925776
        ]
      },
      "properties": {
        "id": "visibility_3_new_chamber_1",
        "object_type": "heat_chamber",
        "variant_id": "visibility_3",
        "diameter": 300,
        "cost": 5000000
      }
    },
    {
      "type": "Feature",
      "geometry": {
        "type": "Point",
        "coordinates": [
          37.634271207442,
          55.69977528231
        ]
      },
      "properties": {
        "id": "visibility_3_new_chamber_2",
        "object_type": "heat_chamber",
        "variant_id": "visibility_3",
        "diameter": 200,
        "cost": 3000000
      }
    },
    {
      "type": "Feature",
      "geometry": {
        "type": "Point",
        "coordinates": [
          37.632899202257,
          55.70009278074
        ]
      },
      "properties": {
        "id": "visibility_3_new_chamber_3",
        "object_type": "heat_chamber",
        "variant_id": "visibility_3",
        "diameter": 150,
        "cost": 3000000
      }
    },
    {
      "type": "Feature",
      "geometry": {
        "type": "Point",
        "coordinates": [
          37.634295986883,
          55.697441182851
        ]
      },
      "properties": {
        "id": "visibility_3_new_chamber_4",
        "object_type": "heat_chamber",
        "variant_id": "visibility_3",
        "diameter": 200,
        "cost": 3000000
      }
    },
    {
      "type": "Feature",
      "geometry": {
        "type": "Point",
        "coordinates": [
          37.63349291511,
          55.699455721451
        ]
      },
      "properties": {
        "id": "visibility_3_new_chamber_5",
        "object_type": "heat_chamber",
        "variant_id": "visibility_3",
        "diameter": 200,
        "cost": 3000000
      }
    },
    {
      "type": "Feature",
      "geometry": {
        "type": "Point",
        "coordinates": [
          37.63348777299,
          55.699459690361
        ]
      },
      "properties": {
        "id": "visibility_3_new_chamber_6",
        "object_type": "heat_chamber",
        "variant_id": "visibility_3",
        "diameter": 150,
        "cost": 3000000
      }
    },
    {
      "type": "Feature",
      "geometry": {
        "type": "Point",
        "coordinates": [
          37.633409502392,
          55.698677902412
        ]
      },
      "properties": {
        "id": "visibility_3_new_chamber_7",
        "object_type": "heat_chamber",
        "variant_id": "visibility_3",
        "diameter": 250,
        "cost": 5000000
      }
    },
    {
      "type": "Feature",
      "geometry": {
        "type": "Point",
        "coordinates": [
          37.637619634531,
          55.697809121016
        ]
      },
      "properties": {
        "id": "visibility_3_new_chamber_8",
        "object_type": "heat_chamber",
        "variant_id": "visibility_3",
        "diameter": 300,
        "cost": 5000000
      }
    }
  ]
}