{
  "type": "FeatureCollection",
  "features": [
    {
      "type": "Feature",
      "geometry": {
        "type": "LineString",
        "coordinates": [
          [
            37.634112638199,
            55.699543811886
          ],
          [
            37.634405403981,
            55.699481068732
          ]
        ]
      },
      "properties": {
        "id": "cost_demand_new_1",
        "variant_id": "cost_demand",
        "diameter": 125,
        "length": 19.683
      }
    },
    {
      "type": "Feature",
      "geometry": {
        "type": "LineString",
        "coordinates": [
          [
            37.633719199371,
            55.699464768687
          ],
          [
            37.634016683945,
            55.69940101519
          ],
          [
            37.634112638199,
            55.699543811886
          ]
        ]
      },
      "properties": {
        "id": "cost_demand_new_2",
        "variant_id": "cost_demand",
        "diameter": 150,
        "length": 36.999
      }
    },
    {
      "type": "Feature",
      "geometry": {
        "type": "LineString",
        "coordinates": [
          [
            37.634112638199,
            55.699543811886
          ],
          [
            37.634354313725,
            55.699903462394
          ],
          [
            37.634582926007,
            55.699854468118
          ]
        ]
      },
      "properties": {
        "id": "cost_demand_new_3",
        "variant_id": "cost_demand",
        "diameter": 100,
        "length": 58.185
      }
    },
    {
      "type": "Feature",
      "geometry": {
        "type": "LineString",
        "coordinates": [
          [
            37.632734086895,
            55.700108315636
          ],
          [
            37.632846602295,
            55.700275764475
          ]
        ]
      },
      "properties": {
        "id": "cost_demand_new_4",
        "variant_id": "cost_demand",
        "diameter": 125,
        "length": 19.934
      }
    },
    {
      "type": "Feature",
      "geometry": {
        "type": "LineString",
        "coordinates": [
          [
            37.632734086895,
            55.700108315636
          ],
          [
            37.632337006978,
            55.700193406727
          ]
        ]
      },
      "properties": {
        "id": "cost_demand_new_5",
        "variant_id": "cost_demand",
        "diameter": 125,
        "length": 26.695
      }
    },
    {
      "type": "Feature",
      "geometry": {
        "type": "LineString",
        "coordinates": [
          [
            37.633719199371,
            55.699464768687
          ],
          [
            37.633973202897,
            55.699842772188
          ],
          [
            37.632734086895,
            55.700108315636
          ]
        ]
      },
      "properties": {
        "id": "cost_demand_new_6",
        "variant_id": "cost_demand",
        "diameter": 150,
        "length": 128.305
      }
    },
    {
      "type": "Feature",
      "geometry": {
        "type": "LineString",
        "coordinates": [
          [
            37.635069790347,
            55.698689163994
          ],
          [
            37.635417055874,
            55.698614736028
          ]
        ]
      },
      "properties": {
        "id": "cost_demand_new_7",
        "variant_id": "cost_demand",
        "diameter": 125,
        "length": 23.347
      }
    },
    {
      "type": "Feature",
      "geometry": {
        "type": "LineString",
        "coordinates": [
          [
            37.634875555724,
            55.698400113649
          ],
          [
            37.635069790347,
            55.698689163994
          ]
        ]
      },
      "properties": {
        "id": "cost_demand_new_8",
        "variant_id": "cost_demand",
        "diameter": 200,
        "length": 34.411
      }
    },
    {
      "type": "Feature",
      "geometry": {
        "type": "LineString",
        "coordinates": [
          [
            37.635069790347,
            55.698689163994
          ],
          [
            37.636096132497,
            55.700216440367
          ],
          [
            37.636381851248,
            55.700155203293
          ]
        ]
      },
      "properties": {
        "id": "cost_demand_new_9",
        "variant_id": "cost_demand",
        "diameter": 150,
        "length": 201.027
      }
    },
    {
      "type": "Feature",
      "geometry": {
        "type": "LineString",
        "coordinates": [
          [
            37.632337006978,
            55.700193406727
          ],
          [
            37.632138352349,
            55.700235976223
          ],
          [
            37.632012226301,
            55.700048265534
          ]
        ]
      },
      "properties": {
        "id": "cost_demand_new_10",
        "variant_id": "cost_demand",
        "diameter": 100,
        "length": 35.701
      }
    },
    {
      "type": "Feature",
      "geometry": {
        "type": "LineString",
        "coordinates": [
          [
            37.638461838842,
            55.697638536901
          ],
          [
            37.638485884362,
            55.697674315601
          ],
          [
            37.638324682034,
            55.697708871046
          ],
          [
            37.638464730528,
            55.697917257089
          ],
          [
            37.638280304046,
            55.697956790567
          ]
        ]
      },
      "properties": {
        "id": "cost_demand_new_11",
        "variant_id": "cost_demand",
        "diameter": 125,
        "length": 52.306
      }
    },
    {
      "type": "Feature",
      "geometry": {
        "type": "LineString",
        "coordinates": [
          [
            37.632337006978,
            55.700193406727
          ],
          [
            37.632391173049,
            55.70027401973
          ],
          [
            37.632202633433,
            55.700314421709
          ]
        ]
      },
      "properties": {
        "id": "cost_demand_new_12",
        "variant_id": "cost_demand",
        "diameter": 100,
        "length": 22.272
      }
    },
    {
      "type": "Feature",
      "geometry": {
        "type": "LineString",
        "coordinates": [
          [
            37.634226446245,
            55.697434108219
          ],
          [
            37.63452532492,
            55.697370051106
          ],
          [
            37.634446267723,
            55.697252395986
          ]
        ]
      },
      "properties": {
        "id": "cost_demand_new_13",
        "variant_id": "cost_demand",
        "diameter": 125,
        "length": 34.101
      }
    },
    {
      "type": "Feature",
      "geometry": {
        "type": "LineString",
        "coordinates": [
          [
            37.636883490817,
            55.697969744121
          ],
          [
            37.636488350911,
            55.69738174751
          ],
          [
            37.63619301499,
            55.697445050711
          ],
          [
            37.636093240038,
            55.697296573769
          ]
        ]
      },
      "properties": {
        "id": "cost_demand_new_14",
        "variant_id": "cost_demand",
        "diameter": 125,
        "length": 107.533
      }
    },
    {
      "type": "Feature",
      "geometry": {
        "type": "LineString",
        "coordinates": [
          [
            37.633719199371,
            55.699464768687
          ],
          [
            37.633496085311,
            55.699512583332
          ],
          [
            37.633496090096,
            55.699512590452
          ],
          [
            37.633204498734,
            55.699575079394
          ]
        ]
      },
      "properties": {
        "id": "cost_demand_new_15",
        "variant_id": "cost_demand",
        "diameter": 65,
        "length": 34.605
      }
    },
    {
      "type": "Feature",
      "geometry": {
        "type": "LineString",
        "coordinates": [
          [
            37.633239428173,
            55.698750760647
          ],
          [
            37.633209299511,
            55.698757217413
          ],
          [
            37.633139321938,
            55.698653072531
          ]
        ]
      },
      "properties": {
        "id": "cost_demand_new_16",
        "variant_id": "cost_demand",
        "diameter": 125,
        "length": 14.424
      }
    },
    {
      "type": "Feature",
      "geometry": {
        "type": "LineString",
        "coordinates": [
          [
            37.633780242013,
            55.697529739103
          ],
          [
            37.633836684232,
            55.69761373991
          ],
          [
            37.633829007717,
            55.69761538513
          ],
          [
            37.633901056125,
            55.697722611511
          ]
        ]
      },
      "properties": {
        "id": "cost_demand_new_17",
        "variant_id": "cost_demand",
        "diameter": 100,
        "length": 23.281
      }
    },
    {
      "type": "Feature",
      "geometry": {
        "type": "LineString",
        "coordinates": [
          [
            37.633780242013,
            55.697529739103
          ],
          [
            37.63374302575,
            55.697474351344
          ],
          [
            37.63375244097,
            55.697472333488
          ]
        ]
      },
      "properties": {
        "id": "cost_demand_new_18",
        "variant_id": "cost_demand",
        "diameter": 100,
        "length": 7.227
      }
    },
    {
      "type": "Feature",
      "geometry": {
        "type": "LineString",
        "coordinates": [
          [
            37.633780242013,
            55.697529739103
          ],
          [
            37.632664721999,
            55.697768809161
          ],
          [
            37.632160695416,
            55.697018636714
          ],
          [
            37.632034439325,
            55.697045694109
          ]
        ]
      },
      "properties": {
        "id": "cost_demand_new_19",
        "variant_id": "cost_demand",
        "diameter": 125,
        "length": 172.793
      }
    },
    {
      "type": "Feature",
      "geometry": {
        "type": "LineString",
        "coordinates": [
          [
            37.640353183308,
            55.697562322989
          ],
          [
            37.640427548281,
            55.697546380627
          ],
          [
            37.640907436584,
            55.698260361316
          ],
          [
            37.640696091559,
            55.698305669397
          ],
          [
            37.640764466155,
            55.698407396101
          ]
        ]
      },
      "properties": {
        "id": "cost_demand_new_20",
        "variant_id": "cost_demand",
        "diameter": 200,
        "length": 116.32
      }
    },
    {
      "type": "Feature",
      "geometry": {
        "type": "LineString",
        "coordinates": [
          [
            37.640353183308,
            55.697562322989
          ],
          [
            37.639873313491,
            55.696848340151
          ],
          [
            37.639578303329,
            55.696911583722
          ],
          [
            37.639538145943,
            55.696851832917
          ]
        ]
      },
      "properties": {
        "id": "cost_demand_new_21",
        "variant_id": "cost_demand",
        "diameter": 100,
        "length": 111.949
      }
    },
    {
      "type": "Feature",
      "geometry": {
        "type": "LineString",
        "coordinates": [
          [
            37.638461838842,
            55.697638536901
          ],
          [
            37.638457658177,
            55.697632316244
          ],
          [
            37.636883490817,
            55.697969744121
          ]
        ]
      },
      "properties": {
        "id": "cost_demand_new_22",
        "variant_id": "cost_demand",
        "diameter": 300,
        "length": 106.579
      }
    },
    {
      "type": "Feature",
      "geometry": {
        "type": "LineString",
        "coordinates": [
          [
            37.639132446285,
            55.698021663625
          ],
          [
            37.639016338426,
            55.697848905833
          ],
          [
            37.640353183308,
            55.697562322989
          ]
        ]
      },
      "properties": {
        "id": "cost_demand_new_23",
        "variant_id": "cost_demand",
        "diameter": 200,
        "length": 110.45
      }
    },
    {
      "type": "Feature",
      "geometry": {
        "type": "LineString",
        "coordinates": [
          [
            37.633239428173,
            55.698750760647
          ],
          [
            37.633719199371,
            55.699464768687
          ]
        ]
      },
      "properties": {
        "id": "cost_demand_new_24",
        "variant_id": "cost_demand",
        "diameter": 200,
        "length": 85.0
      }
    },
    {
      "type": "Feature",
      "geometry": {
        "type": "LineString",
        "coordinates": [
          [
            37.634875555724,
            55.698400113649
          ],
          [
            37.633239428173,
            55.698750760647
          ]
        ]
      },
      "properties": {
        "id": "cost_demand_new_25",
        "variant_id": "cost_demand",
        "diameter": 200,
        "length": 110.0
      }
    },
    {
      "type": "Feature",
      "geometry": {
        "type": "LineString",
        "coordinates": [
          [
            37.634226446245,
            55.697434108219
          ],
          [
            37.633780242013,
            55.697529739103
          ]
        ]
      },
      "properties": {
        "id": "cost_demand_new_26",
        "variant_id": "cost_demand",
        "diameter": 200,
        "length": 30.0
      }
    },
    {
      "type": "Feature",
      "geometry": {
        "type": "LineString",
        "coordinates": [
          [
            37.634875555724,
            55.698400113649
          ],
          [
            37.634226446245,
            55.697434108219
          ]
        ]
      },
      "properties": {
        "id": "cost_demand_new_27",
        "variant_id": "cost_demand",
        "diameter": 200,
        "length": 115.0
      }
    },
    {
      "type": "Feature",
      "geometry": {
        "type": "LineString",
        "coordinates": [
          [
            37.636883490817,
            55.697969744121
          ],
          [
            37.634875555724,
            55.698400113649
          ]
        ]
      },
      "properties": {
        "id": "cost_demand_new_28",
        "variant_id": "cost_demand",
        "diameter": 300,
        "length": 135.0
      }
    }
  ]
}