{
  "type": "FeatureCollection",
  "features": [
    {
      "type": "Feature",
      "geometry": {
        "type": "Point",
        "coordinates": [
          37.639132446285,
          55.698021663625
        ]
      },
      "properties": {
        "id": "cost_demand_tie_tie_chamber_110",
        "object_type": "tie_in",
        "variant_id": "cost_demand",
        "existing_object_id": "110",
        "existing_object_type": "heat_chamber",
        "existing_diameter": 300,
        "required_diameter": 200,
        "cost": 5000000
      }
    },
    {
      "type": "Feature",
      "geometry": {
        "type": "Point",
        "coordinates": [
          37.638461838842,
          55.697638536901
        ]
      },
      "properties": {
        "id": "cost_demand_tie_tie_chamber_106",
        "object_type": "tie_in",
        "variant_id": "cost_demand",
        "existing_object_id": "106",
        "existing_object_type": "heat_chamber",
        "existing_diameter": 300,
        "required_diameter": 300,
        "cost": 5000000
      }
    },
    {
      "type": "Feature",
      "geometry": {
        "type": "Point",
        "coordinates": [
          37.634112638199,
          55.699543811886
        ]
      },
      "properties": {
        "id": "cost_demand_new_chamber_1",
        "object_type": "heat_chamber",
        "variant_id": "cost_demand",
        "diameter": 150,
        "cost": 3000000
      }
    },
    {
      "type": "Feature",
      "geometry": {
        "type": "Point",
        "coordinates": [
          37.636883490817,
          55.697969744121
        ]
      },
      "properties": {
        "id": "cost_demand_new_chamber_10",
        "object_type": "heat_chamber",
        "variant_id": "cost_demand",
        "diameter": 300,
        "cost": 5000000
      }
    },
    {
      "type": "Feature",
      "geometry": {
        "type": "Point",
        "coordinates": [
          37.640353183308,
          55.697562322989
        ]
      },
      "properties": {
        "id": "cost_demand_new_chamber_11",
        "object_type": "heat_chamber",
        "variant_id": "cost_demand",
        "diameter": 200,
        "cost": 3000000
      }
    },
    {
      "type": "Feature",
      "geometry": {
        "type": "Point",
        "coordinates": [
          37.632734086895,
          55.700108315636
        ]
      },
      "properties": {
        "id": "cost_demand_new_chamber_2",
        "object_type": "heat_chamber",
        "variant_id": "cost_demand",
        "diameter": 150,
        "cost": 3000000
      }
    },
    {
      "type": "Feature",
      "geometry": {
        "type": "Point",
        "coordinates": [
          37.635069790347,
          55.698689163994
        ]
      },
      "properties": {
        "id": "cost_demand_new_chamber_3",
        "object_type": "heat_chamber",
        "variant_id": "cost_demand",
        "diameter": 200,
        "cost": 3000000
      }
    },
    {
      "type": "Feature",
      "geometry": {
        "type": "Point",
        "coordinates": [
          37.632337006978,
          55.700193406727
        ]
      },
      "properties": {
        "id": "cost_demand_new_chamber_4",
        "object_type": "heat_chamber",
        "variant_id": "cost_demand",
        "diameter": 125,
        "cost": 3000000
      }
    },
    {
      "type": "Feature",
      "geometry": {
        "type": "Point",
        "coordinates": [
          37.633239428173,
          55.698750760647
        ]
      },
      "properties": {
        "id": "cost_demand_new_chamber_5",
        "object_type": "heat_chamber",
        "variant_id": "cost_demand",
        "diameter": 200,
        "cost": 3000000
      }
    },
    {
      "type": "Feature",
      "geometry": {
        "type": "Point",
        "coordinates": [
          37.633719199371,
          55.699464768687
        ]
      },
      "properties": {
        "id": "cost_demand_new_chamber_6",
        "object_type": "heat_chamber",
        "variant_id": "cost_demand",
        "diameter": 200,
        "cost": 3000000
      }
    },
    {
      "type": "Feature",
      "geometry": {
        "type": "Point",
        "coordinates": [
          37.633780242013,
          55.697529739103
        ]
      },
      "properties": {
        "id": "cost_demand_new_chamber_7",
        "object_type": "heat_chamber",
        "variant_id": "cost_demand",
        "diameter": 200,
        "cost": 3000000
      }
    },
    {
      "type": "Feature",
      "geometry": {
        "type": "Point",
        "coordinates": [
          37.634226446245,
          55.697434108219
        ]
      },
      "properties": {
        "id": "cost_demand_new_chamber_8",
        "object_type": "heat_chamber",
        "variant_id": "cost_demand",
        "diameter": 200,
        "cost": 3000000
      }
    },
    {
      "type": "Feature",
      "geometry": {
        "type": "Point",
        "coordinates": [
          37.634875555724,
          55.698400113649
        ]
      },
      "properties": {
        "id": "cost_demand_new_chamber_9",
        "object_type": "heat_chamber",
        "variant_id": "cost_demand",
        "diameter": 300,
        "cost": 5000000
      }
    },
    {
      "type": "Feature",
      "geometry": {
        "type": "Point",
        "coordinates": [
          37.638461838842,
          55.697638536901
        ]
      },
      "properties": {
        "id": "cost_cheapest_tie_tie_chamber_106",
        "object_type": "tie_in",
        "variant_id": "cost_cheapest",
        "existing_object_id": "106",
        "existing_object_type": "heat_chamber",
        "existing_diameter": 300,
        "required_diameter": 300,
        "cost": 5000000
      }
    },
    {
      "type": "Feature",
      "geometry": {
        "type": "Point",
        "coordinates": [
          37.639132446285,
          55.698021663625
        ]
      },
      "properties": {
        "id": "cost_cheapest_tie_tie_chamber_110",
        "object_type": "tie_in",
        "variant_id": "cost_cheapest",
        "existing_object_id": "110",
        "existing_object_type": "heat_chamber",
        "existing_diameter": 300,
        "required_diameter": 200,
        "cost": 5000000
      }
    },
    {
      "type": "Feature",
      "geometry": {
        "type": "Point",
        "coordinates": [
          37.634112638199,
          55.699543811886
        ]
      },
      "properties": {
        "id": "cost_cheapest_new_chamber_1",
        "object_type": "heat_chamber",
        "variant_id": "cost_cheapest",
        "diameter": 150,
        "cost": 3000000
      }
    },
    {
      "type": "Feature",
      "geometry": {
        "type": "Point",
        "coordinates": [
          37.63682704154,
          55.697885744683
        ]
      },
      "properties": {
        "id": "cost_cheapest_new_chamber_10",
        "object_type": "heat_chamber",
        "variant_id": "cost_cheapest",
        "diameter": 300,
        "cost": 5000000
      }
    },
    {
      "type": "Feature",
      "geometry": {
        "type": "Point",
        "coordinates": [
          37.640353183308,
          55.697562322989
        ]
      },
      "properties": {
        "id": "cost_cheapest_new_chamber_11",
        "object_type": "heat_chamber",
        "variant_id": "cost_cheapest",
        "diameter": 200,
        "cost": 3000000
      }
    },
    {
      "type": "Feature",
      "geometry": {
        "type": "Point",
        "coordinates": [
          37.632136507185,
          55.700021633574
        ]
      },
      "properties": {
        "id": "cost_cheapest_new_chamber_2",
        "object_type": "heat_chamber",
        "variant_id": "cost_cheapest",
        "diameter": 125,
        "cost": 3000000
      }
    },
    {
      "type": "Feature",
      "geometry": {
        "type": "Point",
        "coordinates": [
          37.634057468269,
          55.697689089356
        ]
      },
      "properties": {
        "id": "cost_cheapest_new_chamber_3",
        "object_type": "heat_chamber",
        "variant_id": "cost_cheapest",
        "diameter": 200,
        "cost": 3000000
      }
    },
    {
      "type": "Feature",
      "geometry": {
        "type": "Point",
        "coordinates": [
          37.632567764415,
          55.699903715694
        ]
      },
      "properties": {
        "id": "cost_cheapest_new_chamber_4",
        "object_type": "heat_chamber",
        "variant_id": "cost_cheapest",
        "diameter": 150,
        "cost": 3000000
      }
    },
    {
      "type": "Feature",
      "geometry": {
        "type": "Point",
        "coordinates": [
          37.633239428173,
          55.698750760647
        ]
      },
      "properties": {
        "id": "cost_cheapest_new_chamber_5",
        "object_type": "heat_chamber",
        "variant_id": "cost_cheapest",
        "diameter": 200,
        "cost": 3000000
      }
    },
    {
      "type": "Feature",
      "geometry": {
        "type": "Point",
        "coordinates": [
          37.633719199371,
          55.699464768687
        ]
      },
      "properties": {
        "id": "cost_cheapest_new_chamber_6",
        "object_type": "heat_chamber",
        "variant_id": "cost_cheapest",
        "diameter": 200,
        "cost": 3000000
      }
    },
    {
      "type": "Feature",
      "geometry": {
        "type": "Point",
        "coordinates": [
          37.633928976997,
          55.697497862323
        ]
      },
      "properties": {
        "id": "cost_cheapest_new_chamber_7",
        "object_type": "heat_chamber",
        "variant_id": "cost_cheapest",
        "diameter": 200,
        "cost": 3000000
      }
    },
    {
      "type": "Feature",
      "geometry": {
        "type": "Point",
        "coordinates": [
          37.634549857609,
          55.698421869051
        ]
      },
      "properties": {
        "id": "cost_cheapest_new_chamber_8",
        "object_type": "heat_chamber",
        "variant_id": "cost_cheapest",
        "diameter": 250,
        "cost": 5000000
      }
    },
    {
      "type": "Feature",
      "geometry": {
        "type": "Point",
        "coordinates": [
          37.63555517445,
          55.698398600259
        ]
      },
      "properties": {
        "id": "cost_cheapest_new_chamber_9",
        "object_type": "heat_chamber",
        "variant_id": "cost_cheapest",
        "diameter": 300,
        "cost": 5000000
      }
    }
  ]
}