{
  "type": "FeatureCollection",
  "features": [
    {
      "type": "Feature",
      "geometry": {
        "type": "Point",
        "coordinates": [
          37.638460165994,
          55.697622857895
        ]
      },
      "properties": {
        "id": "cost_demand_profile_1_1",
        "object_type": "technical_node",
        "variant_id": "cost_demand",
        "depth": 3.0
      }
    },
    {
      "type": "Feature",
      "geometry": {
        "type": "LineString",
        "coordinates": [
          [
            37.638461838842,
            55.697638536901
          ],
          [
            37.638461002418,
            55.697630697398
          ],
          [
            37.638460165994,
            55.697622857895
          ]
        ]
      },
      "properties": {
        "id": "cost_demand_new_1_1",
        "object_type": "heat_network",
        "variant_id": "cost_demand",
        "start_node_id": "cost_demand_tie_tie_chamber_106",
        "end_node_id": "cost_demand_profile_1_1",
        "flow_tph": 324.75,
        "diameter": 300,
        "length": 1.748,
        "laying_method": "base",
        "depth_start": 3.0,
        "depth_end": 3.0,
        "depth_factor": 1.0,
        "special_factor": 1.0,
        "crossing_object_ids": [],
        "bend_count": 0,
        "bend_penalty_cost": 0.0,
        "cost": 262278.45
      }
    },
    {
      "type": "Feature",
      "geometry": {
        "type": "LineString",
        "coordinates": [
          [
            37.638460165994,
            55.697622857895
          ],
          [
            37.638452132192,
            55.697547559791
          ]
        ]
      },
      "properties": {
        "id": "cost_demand_new_1_2",
        "object_type": "heat_network",
        "variant_id": "cost_demand",
        "start_node_id": "cost_demand_profile_1_1",
        "end_node_id": "cost_demand_new_chamber_10",
        "flow_tph": 324.75,
        "diameter": 300,
        "length": 8.396,
        "laying_method": "base",
        "depth_start": 3.0,
        "depth_end": 2.160399,
        "depth_factor": 1.0,
        "special_factor": 1.0,
        "crossing_object_ids": [],
        "bend_count": 0,
        "bend_penalty_cost": 0.0,
        "cost": 1259586.9
      }
    },
    {
      "type": "Feature",
      "geometry": {
        "type": "LineString",
        "coordinates": [
          [
            37.634002860158,
            55.699548020667
          ],
          [
            37.634054397518,
            55.699539448951
          ],
          [
            37.634405403981,
            55.699481068732
          ]
        ]
      },
      "properties": {
        "id": "cost_demand_new_2_1",
        "object_type": "heat_network",
        "variant_id": "cost_demand",
        "start_node_id": "cost_demand_new_chamber_2",
        "end_node_id": "1",
        "flow_tph": 24.87,
        "diameter": 125,
        "length": 26.377,
        "laying_method": "base",
        "depth_start": 3.0,
        "depth_end": 3.0,
        "depth_factor": 1.0,
        "special_factor": 1.0,
        "crossing_object_ids": [],
        "bend_count": 0,
        "bend_penalty_cost": 0.0,
        "cost": 2565825.02
      }
    },
    {
      "type": "Feature",
      "geometry": {
        "type": "LineString",
        "coordinates": [
          [
            37.633978489869,
            55.699638358958
          ],
          [
            37.634032567331,
            55.699664390869
          ],
          [
            37.634250677238,
            55.699769384438
          ],
          [
            37.634270689949,
            55.699779018093
          ],
          [
            37.63429486623,
            55.699784860189
          ],
          [
            37.634582926007,
            55.699854468118
          ]
        ]
      },
      "properties": {
        "id": "cost_demand_new_3_1",
        "object_type": "heat_network",
        "variant_id": "cost_demand",
        "start_node_id": "cost_demand_new_chamber_3",
        "end_node_id": "2",
        "flow_tph": 18.76,
        "diameter": 100,
        "length": 45.481,
        "laying_method": "base",
        "depth_start": 3.0,
        "depth_end": 3.0,
        "depth_factor": 1.0,
        "special_factor": 1.0,
        "crossing_object_ids": [],
        "bend_count": 1,
        "bend_penalty_cost": 0.0,
        "cost": 4081801.53
      }
    },
    {
      "type": "Feature",
      "geometry": {
        "type": "LineString",
        "coordinates": [
          [
            37.632857617916,
            55.700081843576
          ],
          [
            37.632856901158,
            55.700094461572
          ],
          [
            37.632846602295,
            55.700275764475
          ]
        ]
      },
      "properties": {
        "id": "cost_demand_new_4_1",
        "object_type": "heat_network",
        "variant_id": "cost_demand",
        "start_node_id": "cost_demand_new_chamber_1",
        "end_node_id": "3",
        "flow_tph": 29.42,
        "diameter": 125,
        "length": 21.595,
        "laying_method": "base",
        "depth_start": 3.0,
        "depth_end": 3.0,
        "depth_factor": 1.0,
        "special_factor": 1.0,
        "crossing_object_ids": [],
        "bend_count": 0,
        "bend_penalty_cost": 0.0,
        "cost": 2100641.02
      }
    },
    {
      "type": "Feature",
      "geometry": {
        "type": "LineString",
        "coordinates": [
          [
            37.635452582446,
            55.69837253962
          ],
          [
            37.635447264181,
            55.698408796196
          ],
          [
            37.635417055874,
            55.698614736028
          ]
        ]
      },
      "properties": {
        "id": "cost_demand_new_5_1",
        "object_type": "heat_network",
        "variant_id": "cost_demand",
        "start_node_id": "cost_demand_new_chamber_6",
        "end_node_id": "5",
        "flow_tph": 26.09,
        "diameter": 125,
        "length": 27.049,
        "laying_method": "base",
        "depth_start": 3.0,
        "depth_end": 3.0,
        "depth_factor": 1.0,
        "special_factor": 1.0,
        "crossing_object_ids": [],
        "bend_count": 0,
        "bend_penalty_cost": 0.0,
        "cost": 2631215.5
      }
    },
    {
      "type": "Feature",
      "geometry": {
        "type": "LineString",
        "coordinates": [
          [
            37.632857617916,
            55.700081843576
          ],
          [
            37.632835342579,
            55.700082907559
          ],
          [
            37.632596098823,
            55.700094334798
          ],
          [
            37.632356854935,
            55.70010576157
          ],
          [
            37.63228056436,
            55.700109405263
          ],
          [
            37.632209562449,
            55.700093227843
          ],
          [
            37.632012226301,
            55.700048265534
          ]
        ]
      },
      "properties": {
        "id": "cost_demand_new_6_1",
        "object_type": "heat_network",
        "variant_id": "cost_demand",
        "start_node_id": "cost_demand_new_chamber_1",
        "end_node_id": "6",
        "flow_tph": 15.99,
        "diameter": 100,
        "length": 54.588,
        "laying_method": "base",
        "depth_start": 3.0,
        "depth_end": 3.0,
        "depth_factor": 1.0,
        "special_factor": 1.0,
        "crossing_object_ids": [],
        "bend_count": 1,
        "bend_penalty_cost": 0.0,
        "cost": 4899176.5
      }
    },
    {
      "type": "Feature",
      "geometry": {
        "type": "LineString",
        "coordinates": [
          [
            37.638144521221,
            55.697712987521
          ],
          [
            37.638183096862,
            55.697758101217
          ],
          [
            37.638201525099,
            55.697779652754
          ],
          [
            37.638204175696,
            55.697782752584
          ],
          [
            37.638215800791,
            55.697809328962
          ],
          [
            37.638280304046,
            55.697956790567
          ]
        ]
      },
      "properties": {
        "id": "cost_demand_new_7_1",
        "object_type": "heat_network",
        "variant_id": "cost_demand",
        "start_node_id": "cost_demand_new_chamber_9",
        "end_node_id": "7",
        "flow_tph": 27.82,
        "diameter": 125,
        "length": 28.576,
        "laying_method": "base",
        "depth_start": 3.0,
        "depth_end": 3.0,
        "depth_factor": 1.0,
        "special_factor": 1.0,
        "crossing_object_ids": [],
        "bend_count": 0,
        "bend_penalty_cost": 0.0,
        "cost": 2779738.04
      }
    },
    {
      "type": "Feature",
      "geometry": {
        "type": "LineString",
        "coordinates": [
          [
            37.632857617916,
            55.700081843576
          ],
          [
            37.632836717234,
            55.700086322495
          ],
          [
            37.632645524997,
            55.700127293896
          ],
          [
            37.632454332364,
            55.700168264996
          ],
          [
            37.632411380149,
            55.70017746927
          ],
          [
            37.632381409623,
            55.700197132112
          ],
          [
            37.632202633433,
            55.700314421709
          ]
        ]
      },
      "properties": {
        "id": "cost_demand_new_8_1",
        "object_type": "heat_network",
        "variant_id": "cost_demand",
        "start_node_id": "cost_demand_new_chamber_1",
        "end_node_id": "8",
        "flow_tph": 18.03,
        "diameter": 100,
        "length": 50.112,
        "laying_method": "base",
        "depth_start": 3.0,
        "depth_end": 3.0,
        "depth_factor": 1.0,
        "special_factor": 1.0,
        "crossing_object_ids": [],
        "bend_count": 1,
        "bend_penalty_cost": 0.0,
        "cost": 4497486.17
      }
    },
    {
      "type": "Feature",
      "geometry": {
        "type": "LineString",
        "coordinates": [
          [
            37.634552136302,
            55.69741235363
          ],
          [
            37.634529893382,
            55.697378746747
          ],
          [
            37.634446267723,
            55.697252395986
          ]
        ]
      },
      "properties": {
        "id": "cost_demand_new_9_1",
        "object_type": "heat_network",
        "variant_id": "cost_demand",
        "start_node_id": "cost_demand_new_chamber_5",
        "end_node_id": "9",
        "flow_tph": 34.53,
        "diameter": 125,
        "length": 19.007,
        "laying_method": "base",
        "depth_start": 3.0,
        "depth_end": 3.0,
        "depth_factor": 1.0,
        "special_factor": 1.0,
        "crossing_object_ids": [],
        "bend_count": 0,
        "bend_penalty_cost": 0.0,
        "cost": 1848878.14
      }
    },
    {
      "type": "Feature",
      "geometry": {
        "type": "LineString",
        "coordinates": [
          [
            37.636375455952,
            55.697213748246
          ],
          [
            37.636333000016,
            55.697226208398
          ],
          [
            37.636093240038,
            55.697296573769
          ]
        ]
      },
      "properties": {
        "id": "cost_demand_new_10_1",
        "object_type": "heat_network",
        "variant_id": "cost_demand",
        "start_node_id": "cost_demand_new_chamber_7",
        "end_node_id": "10",
        "flow_tph": 33.14,
        "diameter": 125,
        "length": 19.992,
        "laying_method": "base",
        "depth_start": 3.0,
        "depth_end": 3.0,
        "depth_factor": 1.0,
        "special_factor": 1.0,
        "crossing_object_ids": [],
        "bend_count": 0,
        "bend_penalty_cost": 0.0,
        "cost": 1944759.22
      }
    },
    {
      "type": "Feature",
      "geometry": {
        "type": "LineString",
        "coordinates": [
          [
            37.634002860158,
            55.699548020667
          ],
          [
            37.633795094446,
            55.699592589778
          ],
          [
            37.633537103428,
            55.699647932398
          ],
          [
            37.633506380315,
            55.699654522882
          ],
          [
            37.633476590973,
            55.699646683533
          ],
          [
            37.633204498734,
            55.699575079394
          ]
        ]
      },
      "properties": {
        "id": "cost_demand_new_11_1",
        "object_type": "heat_network",
        "variant_id": "cost_demand",
        "start_node_id": "cost_demand_new_chamber_2",
        "end_node_id": "11",
        "flow_tph": 4.08,
        "diameter": 65,
        "length": 54.317,
        "laying_method": "base",
        "depth_start": 3.0,
        "depth_end": 3.0,
        "depth_factor": 1.0,
        "special_factor": 1.0,
        "crossing_object_ids": [],
        "bend_count": 1,
        "bend_penalty_cost": 0.0,
        "cost": 4270974.94
      }
    },
    {
      "type": "Feature",
      "geometry": {
        "type": "LineString",
        "coordinates": [
          [
            37.633808463093,
            55.69757173951
          ],
          [
            37.633824513365,
            55.697597892069
          ],
          [
            37.633867798957,
            55.697668422093
          ],
          [
            37.633901056125,
            55.697722611511
          ]
        ]
      },
      "properties": {
        "id": "cost_demand_new_12_1",
        "object_type": "heat_network",
        "variant_id": "cost_demand",
        "start_node_id": "cost_demand_new_chamber_4",
        "end_node_id": "13",
        "flow_tph": 19.77,
        "diameter": 100,
        "length": 17.772,
        "laying_method": "base",
        "depth_start": 3.0,
        "depth_end": 3.0,
        "depth_factor": 1.0,
        "special_factor": 1.0,
        "crossing_object_ids": [],
        "bend_count": 0,
        "bend_penalty_cost": 0.0,
        "cost": 1595039.37
      }
    },
    {
      "type": "Feature",
      "geometry": {
        "type": "LineString",
        "coordinates": [
          [
            37.633808463093,
            55.69757173951
          ],
          [
            37.633753511951,
            55.697474233847
          ],
          [
            37.63375244097,
            55.697472333488
          ]
        ]
      },
      "properties": {
        "id": "cost_demand_new_13_1",
        "object_type": "heat_network",
        "variant_id": "cost_demand",
        "start_node_id": "cost_demand_new_chamber_4",
        "end_node_id": "14",
        "flow_tph": 19.73,
        "diameter": 100,
        "length": 11.611,
        "laying_method": "base",
        "depth_start": 3.0,
        "depth_end": 3.0,
        "depth_factor": 1.0,
        "special_factor": 1.0,
        "crossing_object_ids": [],
        "bend_count": 0,
        "bend_penalty_cost": 0.0,
        "cost": 1042062.63
      }
    },
    {
      "type": "Feature",
      "geometry": {
        "type": "LineString",
        "coordinates": [
          [
            37.633808463093,
            55.69757173951
          ],
          [
            37.63363906814,
            55.69760804384
          ],
          [
            37.632767310535,
            55.697794872115
          ],
          [
            37.632716372169,
            55.697719059318
          ],
          [
            37.632334638543,
            55.697150906053
          ],
          [
            37.63231579587,
            55.697122861106
          ],
          [
            37.632268019673,
            55.697109757707
          ],
          [
            37.632034439325,
            55.697045694109
          ]
        ]
      },
      "properties": {
        "id": "cost_demand_new_14_1",
        "object_type": "heat_network",
        "variant_id": "cost_demand",
        "start_node_id": "cost_demand_new_chamber_4",
        "end_node_id": "15",
        "flow_tph": 31.89,
        "diameter": 125,
        "length": 169.661,
        "laying_method": "base",
        "depth_start": 3.0,
        "depth_end": 3.0,
        "depth_factor": 1.0,
        "special_factor": 1.0,
        "crossing_object_ids": [],
        "bend_count": 2,
        "bend_penalty_cost": 0.0,
        "cost": 16503810.2
      }
    },
    {
      "type": "Feature",
      "geometry": {
        "type": "Point",
        "coordinates": [
          37.638407071793,
          55.697476547429
        ]
      },
      "properties": {
        "id": "cost_demand_profile_15_1",
        "object_type": "technical_node",
        "variant_id": "cost_demand",
        "depth": 3.0
      }
    },
    {
      "type": "Feature",
      "geometry": {
        "type": "LineString",
        "coordinates": [
          [
            37.638452132192,
            55.697547559791
          ],
          [
            37.638407071793,
            55.697476547429
          ]
        ]
      },
      "properties": {
        "id": "cost_demand_new_15_1",
        "object_type": "heat_network",
        "variant_id": "cost_demand",
        "start_node_id": "cost_demand_new_chamber_10",
        "end_node_id": "cost_demand_profile_15_1",
        "flow_tph": 20.63,
        "diameter": 100,
        "length": 8.396,
        "laying_method": "base",
        "depth_start": 2.160399,
        "depth_end": 3.0,
        "depth_factor": 1.0,
        "special_factor": 1.0,
        "crossing_object_ids": [],
        "bend_count": 0,
        "bend_penalty_cost": 0.0,
        "cost": 753525.52
      }
    },
    {
      "type": "Feature",
      "geometry": {
        "type": "LineString",
        "coordinates": [
          [
            37.638407071793,
            55.697476547429
          ],
          [
            37.638383137164,
            55.697438827844
          ],
          [
            37.638124392685,
            55.697031056699
          ],
          [
            37.63830055091,
            55.696993294936
          ],
          [
            37.638438425224,
            55.696963739591
          ],
          [
            37.639193759447,
            55.696801819265
          ],
          [
            37.639239859088,
            55.696791936731
          ],
          [
            37.639286318793,
            55.696801265928
          ],
          [
            37.639538145943,
            55.696851832917
          ]
        ]
      },
      "properties": {
        "id": "cost_demand_new_15_2",
        "object_type": "heat_network",
        "variant_id": "cost_demand",
        "start_node_id": "cost_demand_profile_15_1",
        "end_node_id": "17",
        "flow_tph": 20.63,
        "diameter": 100,
        "length": 147.572,
        "laying_method": "base",
        "depth_start": 3.0,
        "depth_end": 3.0,
        "depth_factor": 1.0,
        "special_factor": 1.0,
        "crossing_object_ids": [],
        "bend_count": 2,
        "bend_penalty_cost": 0.0,
        "cost": 13244303.47
      }
    },
    {
      "type": "Feature",
      "geometry": {
        "type": "LineString",
        "coordinates": [
          [
            37.633978489869,
            55.699638358958
          ],
          [
            37.633515473601,
            55.699821558622
          ],
          [
            37.632875926563,
            55.700074599733
          ],
          [
            37.632857617916,
            55.700081843576
          ]
        ]
      },
      "properties": {
        "id": "cost_demand_new_16_1",
        "object_type": "heat_network",
        "variant_id": "cost_demand",
        "start_node_id": "cost_demand_new_chamber_3",
        "end_node_id": "cost_demand_new_chamber_1",
        "flow_tph": 63.44,
        "diameter": 150,
        "length": 86.024,
        "laying_method": "base",
        "depth_start": 3.0,
        "depth_end": 3.0,
        "depth_factor": 1.0,
        "special_factor": 1.0,
        "crossing_object_ids": [],
        "bend_count": 0,
        "bend_penalty_cost": 0.0,
        "cost": 9076161.87
      }
    },
    {
      "type": "Feature",
      "geometry": {
        "type": "LineString",
        "coordinates": [
          [
            37.635452582446,
            55.69837253962
          ],
          [
            37.633783882861,
            55.698730176245
          ],
          [
            37.633444611286,
            55.698802885532
          ],
          [
            37.634002860158,
            55.699548020667
          ]
        ]
      },
      "properties": {
        "id": "cost_demand_new_17_1",
        "object_type": "heat_network",
        "variant_id": "cost_demand",
        "start_node_id": "cost_demand_new_chamber_6",
        "end_node_id": "cost_demand_new_chamber_2",
        "flow_tph": 111.15,
        "diameter": 200,
        "length": 225.053,
        "laying_method": "base",
        "depth_start": 3.0,
        "depth_end": 3.0,
        "depth_factor": 1.0,
        "special_factor": 1.0,
        "crossing_object_ids": [],
        "bend_count": 1,
        "bend_penalty_cost": 0.0,
        "cost": 27068224.8
      }
    },
    {
      "type": "Feature",
      "geometry": {
        "type": "LineString",
        "coordinates": [
          [
            37.634002860158,
            55.699548020667
          ],
          [
            37.633978489869,
            55.699638358958
          ]
        ]
      },
      "properties": {
        "id": "cost_demand_new_18_1",
        "object_type": "heat_network",
        "variant_id": "cost_demand",
        "start_node_id": "cost_demand_new_chamber_2",
        "end_node_id": "cost_demand_new_chamber_3",
        "flow_tph": 82.2,
        "diameter": 200,
        "length": 10.171,
        "laying_method": "base",
        "depth_start": 3.0,
        "depth_end": 3.0,
        "depth_factor": 1.0,
        "special_factor": 1.0,
        "crossing_object_ids": [],
        "bend_count": 0,
        "bend_penalty_cost": 0.0,
        "cost": 1223297.59
      }
    },
    {
      "type": "Feature",
      "geometry": {
        "type": "LineString",
        "coordinates": [
          [
            37.634552136302,
            55.69741235363
          ],
          [
            37.634492742531,
            55.697425083263
          ],
          [
            37.634235300492,
            55.697480259376
          ],
          [
            37.633977857735,
            55.697535434944
          ],
          [
            37.633808463093,
            55.69757173951
          ]
        ]
      },
      "properties": {
        "id": "cost_demand_new_19_1",
        "object_type": "heat_network",
        "variant_id": "cost_demand",
        "start_node_id": "cost_demand_new_chamber_5",
        "end_node_id": "cost_demand_new_chamber_4",
        "flow_tph": 71.39,
        "diameter": 200,
        "length": 50.0,
        "laying_method": "base",
        "depth_start": 3.0,
        "depth_end": 3.0,
        "depth_factor": 1.0,
        "special_factor": 1.0,
        "crossing_object_ids": [],
        "bend_count": 0,
        "bend_penalty_cost": 0.0,
        "cost": 6013750.0
      }
    },
    {
      "type": "Feature",
      "geometry": {
        "type": "LineString",
        "coordinates": [
          [
            37.636375455952,
            55.697213748246
          ],
          [
            37.636358478804,
            55.697188484379
          ],
          [
            37.636262561951,
            55.697045748879
          ],
          [
            37.635563415689,
            55.697195604389
          ],
          [
            37.634611530035,
            55.697399623967
          ],
          [
            37.634552136302,
            55.69741235363
          ]
        ]
      },
      "properties": {
        "id": "cost_demand_new_20_1",
        "object_type": "heat_network",
        "variant_id": "cost_demand",
        "start_node_id": "cost_demand_new_chamber_7",
        "end_node_id": "cost_demand_new_chamber_5",
        "flow_tph": 105.92,
        "diameter": 200,
        "length": 135.0,
        "laying_method": "base",
        "depth_start": 3.0,
        "depth_end": 3.0,
        "depth_factor": 1.0,
        "special_factor": 1.0,
        "crossing_object_ids": [],
        "bend_count": 1,
        "bend_penalty_cost": 0.0,
        "cost": 16237125.0
      }
    },
    {
      "type": "Feature",
      "geometry": {
        "type": "LineString",
        "coordinates": [
          [
            37.637289577072,
            55.697755674951
          ],
          [
            37.636939940334,
            55.698053743534
          ],
          [
            37.636904784809,
            55.698061278938
          ],
          [
            37.636782229442,
            55.698087547945
          ],
          [
            37.635452582446,
            55.69837253962
          ]
        ]
      },
      "properties": {
        "id": "cost_demand_new_21_1",
        "object_type": "heat_network",
        "variant_id": "cost_demand",
        "start_node_id": "cost_demand_new_chamber_8",
        "end_node_id": "cost_demand_new_chamber_6",
        "flow_tph": 137.24,
        "diameter": 200,
        "length": 139.795,
        "laying_method": "base",
        "depth_start": 3.0,
        "depth_end": 3.0,
        "depth_factor": 1.0,
        "special_factor": 1.0,
        "crossing_object_ids": [],
        "bend_count": 1,
        "bend_penalty_cost": 0.0,
        "cost": 16813847.29
      }
    },
    {
      "type": "Feature",
      "geometry": {
        "type": "LineString",
        "coordinates": [
          [
            37.637289577072,
            55.697755674951
          ],
          [
            37.637175609642,
            55.697688111792
          ],
          [
            37.637085193171,
            55.697634510076
          ],
          [
            37.63640845795,
            55.697233313498
          ],
          [
            37.636375455952,
            55.697213748246
          ]
        ]
      },
      "properties": {
        "id": "cost_demand_new_22_1",
        "object_type": "heat_network",
        "variant_id": "cost_demand",
        "start_node_id": "cost_demand_new_chamber_8",
        "end_node_id": "cost_demand_new_chamber_7",
        "flow_tph": 139.06,
        "diameter": 200,
        "length": 83.307,
        "laying_method": "base",
        "depth_start": 3.0,
        "depth_end": 3.0,
        "depth_factor": 1.0,
        "special_factor": 1.0,
        "crossing_object_ids": [],
        "bend_count": 0,
        "bend_penalty_cost": 0.0,
        "cost": 10019715.08
      }
    },
    {
      "type": "Feature",
      "geometry": {
        "type": "LineString",
        "coordinates": [
          [
            37.638144521221,
            55.697712987521
          ],
          [
            37.637289577072,
            55.697755674951
          ]
        ]
      },
      "properties": {
        "id": "cost_demand_new_23_1",
        "object_type": "heat_network",
        "variant_id": "cost_demand",
        "start_node_id": "cost_demand_new_chamber_9",
        "end_node_id": "cost_demand_new_chamber_8",
        "flow_tph": 276.3,
        "diameter": 300,
        "length": 53.951,
        "laying_method": "base",
        "depth_start": 3.0,
        "depth_end": 3.0,
        "depth_factor": 1.0,
        "special_factor": 1.0,
        "crossing_object_ids": [],
        "bend_count": 0,
        "bend_penalty_cost": 0.0,
        "cost": 8093815.3
      }
    },
    {
      "type": "Feature",
      "geometry": {
        "type": "Point",
        "coordinates": [
          37.638439413379,
          55.697554399787
        ]
      },
      "properties": {
        "id": "cost_demand_profile_24_1",
        "object_type": "technical_node",
        "variant_id": "cost_demand",
        "depth": 2.05
      }
    },
    {
      "type": "Feature",
      "geometry": {
        "type": "LineString",
        "coordinates": [
          [
            37.638452132192,
            55.697547559791
          ],
          [
            37.638439413379,
            55.697554399787
          ]
        ]
      },
      "properties": {
        "id": "cost_demand_new_24_1",
        "object_type": "heat_network",
        "variant_id": "cost_demand",
        "start_node_id": "cost_demand_new_chamber_10",
        "end_node_id": "cost_demand_profile_24_1",
        "flow_tph": 304.12,
        "diameter": 300,
        "length": 1.104,
        "laying_method": "base",
        "depth_start": 2.160399,
        "depth_end": 2.05,
        "depth_factor": 1.0,
        "special_factor": 1.0,
        "crossing_object_ids": [],
        "bend_count": 0,
        "bend_penalty_cost": 0.0,
        "cost": 165622.1
      }
    },
    {
      "type": "Feature",
      "geometry": {
        "type": "Point",
        "coordinates": [
          37.638393330077,
          55.697579182696
        ]
      },
      "properties": {
        "id": "cost_demand_profile_24_2",
        "object_type": "technical_node",
        "variant_id": "cost_demand",
        "depth": 2.05
      }
    },
    {
      "type": "Feature",
      "geometry": {
        "type": "LineString",
        "coordinates": [
          [
            37.638439413379,
            55.697554399787
          ],
          [
            37.638393330077,
            55.697579182696
          ]
        ]
      },
      "properties": {
        "id": "cost_demand_new_24_2",
        "object_type": "heat_network",
        "variant_id": "cost_demand",
        "start_node_id": "cost_demand_profile_24_1",
        "end_node_id": "cost_demand_profile_24_2",
        "flow_tph": 304.12,
        "diameter": 300,
        "length": 4.0,
        "laying_method": "special",
        "depth_start": 2.05,
        "depth_end": 2.05,
        "depth_factor": 1.0,
        "special_factor": 1.05,
        "crossing_object_ids": [
          "127"
        ],
        "bend_count": 0,
        "bend_penalty_cost": 0.0,
        "cost": 630092.4
      }
    },
    {
      "type": "Feature",
      "geometry": {
        "type": "Point",
        "coordinates": [
          37.638283882001,
          55.697638042034
        ]
      },
      "properties": {
        "id": "cost_demand_profile_24_3",
        "object_type": "technical_node",
        "variant_id": "cost_demand",
        "depth": 3.0
      }
    },
    {
      "type": "Feature",
      "geometry": {
        "type": "LineString",
        "coordinates": [
          [
            37.638393330077,
            55.697579182696
          ],
          [
            37.638283882001,
            55.697638042034
          ]
        ]
      },
      "properties": {
        "id": "cost_demand_new_24_3",
        "object_type": "heat_network",
        "variant_id": "cost_demand",
        "start_node_id": "cost_demand_profile_24_2",
        "end_node_id": "cost_demand_profile_24_3",
        "flow_tph": 304.12,
        "diameter": 300,
        "length": 9.5,
        "laying_method": "base",
        "depth_start": 2.05,
        "depth_end": 3.0,
        "depth_factor": 1.0,
        "special_factor": 1.0,
        "crossing_object_ids": [],
        "bend_count": 0,
        "bend_penalty_cost": 0.0,
        "cost": 1425209.0
      }
    },
    {
      "type": "Feature",
      "geometry": {
        "type": "LineString",
        "coordinates": [
          [
            37.638283882001,
            55.697638042034
          ],
          [
            37.63825794007,
            55.697651993128
          ],
          [
            37.638169109972,
            55.697699764207
          ],
          [
            37.638144521221,
            55.697712987521
          ]
        ]
      },
      "properties": {
        "id": "cost_demand_new_24_4",
        "object_type": "heat_network",
        "variant_id": "cost_demand",
        "start_node_id": "cost_demand_profile_24_3",
        "end_node_id": "cost_demand_new_chamber_9",
        "flow_tph": 304.12,
        "diameter": 300,
        "length": 12.096,
        "laying_method": "base",
        "depth_start": 3.0,
        "depth_end": 3.0,
        "depth_factor": 1.0,
        "special_factor": 1.0,
        "crossing_object_ids": [],
        "bend_count": 0,
        "bend_penalty_cost": 0.0,
        "cost": 1814719.52
      }
    },
    {
      "type": "Feature",
      "geometry": {
        "type": "Point",
        "coordinates": [
          37.638461838842,
          55.697638536901
        ]
      },
      "properties": {
        "id": "cost_demand_tie_tie_chamber_106",
        "object_type": "tie_in",
        "variant_id": "cost_demand",
        "existing_object_id": "106",
        "existing_object_type": "heat_chamber",
        "existing_diameter": 300,
        "required_diameter": 300,
        "cost": 5000000
      }
    },
    {
      "type": "Feature",
      "geometry": {
        "type": "Point",
        "coordinates": [
          37.632857617916,
          55.700081843576
        ]
      },
      "properties": {
        "id": "cost_demand_new_chamber_1",
        "object_type": "heat_chamber",
        "variant_id": "cost_demand",
        "diameter": 150,
        "cost": 3000000
      }
    },
    {
      "type": "Feature",
      "geometry": {
        "type": "Point",
        "coordinates": [
          37.638452132192,
          55.697547559791
        ]
      },
      "properties": {
        "id": "cost_demand_new_chamber_10",
        "object_type": "heat_chamber",
        "variant_id": "cost_demand",
        "diameter": 300,
        "cost": 5000000
      }
    },
    {
      "type": "Feature",
      "geometry": {
        "type": "Point",
        "coordinates": [
          37.634002860158,
          55.699548020667
        ]
      },
      "properties": {
        "id": "cost_demand_new_chamber_2",
        "object_type": "heat_chamber",
        "variant_id": "cost_demand",
        "diameter": 200,
        "cost": 3000000
      }
    },
    {
      "type": "Feature",
      "geometry": {
        "type": "Point",
        "coordinates": [
          37.633978489869,
          55.699638358958
        ]
      },
      "properties": {
        "id": "cost_demand_new_chamber_3",
        "object_type": "heat_chamber",
        "variant_id": "cost_demand",
        "diameter": 200,
        "cost": 3000000
      }
    },
    {
      "type": "Feature",
      "geometry": {
        "type": "Point",
        "coordinates": [
          37.633808463093,
          55.69757173951
        ]
      },
      "properties": {
        "id": "cost_demand_new_chamber_4",
        "object_type": "heat_chamber",
        "variant_id": "cost_demand",
        "diameter": 200,
        "cost": 3000000
      }
    },
    {
      "type": "Feature",
      "geometry": {
        "type": "Point",
        "coordinates": [
          37.634552136302,
          55.69741235363
        ]
      },
      "properties": {
        "id": "cost_demand_new_chamber_5",
        "object_type": "heat_chamber",
        "variant_id": "cost_demand",
        "diameter": 200,
        "cost": 3000000
      }
    },
    {
      "type": "Feature",
      "geometry": {
        "type": "Point",
        "coordinates": [
          37.635452582446,
          55.69837253962
        ]
      },
      "properties": {
        "id": "cost_demand_new_chamber_6",
        "object_type": "heat_chamber",
        "variant_id": "cost_demand",
        "diameter": 200,
        "cost": 3000000
      }
    },
    {
      "type": "Feature",
      "geometry": {
        "type": "Point",
        "coordinates": [
          37.636375455952,
          55.697213748246
        ]
      },
      "properties": {
        "id": "cost_demand_new_chamber_7",
        "object_type": "heat_chamber",
        "variant_id": "cost_demand",
        "diameter": 200,
        "cost": 3000000
      }
    },
    {
      "type": "Feature",
      "geometry": {
        "type": "Point",
        "coordinates": [
          37.637289577072,
          55.697755674951
        ]
      },
      "properties": {
        "id": "cost_demand_new_chamber_8",
        "object_type": "heat_chamber",
        "variant_id": "cost_demand",
        "diameter": 300,
        "cost": 5000000
      }
    },
    {
      "type": "Feature",
      "geometry": {
        "type": "Point",
        "coordinates": [
          37.638144521221,
          55.697712987521
        ]
      },
      "properties": {
        "id": "cost_demand_new_chamber_9",
        "object_type": "heat_chamber",
        "variant_id": "cost_demand",
        "diameter": 300,
        "cost": 5000000
      }
    },
    {
      "type": "Feature",
      "geometry": null,
      "properties": {
        "id": "cost_demand_summary",
        "object_type": "variant_summary",
        "variant_id": "cost_demand",
        "rank": 2,
        "label": "cost-aware forest, demand insertion with branch reattachment",
        "construction_cost": 164862682.56,
        "chamber_construction_cost": 36000000.0,
        "tie_in_cost": 5000000.0,
        "reconstruction_cost": 0.0,
        "chamber_reconstruction_cost": 0.0,
        "bend_penalty_cost": 0.0,
        "unconnected_penalty": 381985000.0,
        "calculated_cost": 587847682.56,
        "new_network_length": 1522.252,
        "reconstruction_length": 0.0,
        "length": 1522.252,
        "score": 21.026492,
        "route_bend_count": 11,
        "route_right_angle_count": 4,
        "micro_bend_count": 0,
        "unconnected_oks_ids": [
          "4",
          "12",
          "16"
        ],
        "connected_oks_count": 14,
        "tie_in_count": 1,
        "depth_routing": true,
        "special_passage_count": 1,
        "min_depth_m": 2.05,
        "max_depth_m": 3.0,
        "connection_adjustments": [],
        "building_entry_allowed": true,
        "optimization_objective": "official_score",
        "optimality": "best found by cost-aware growth and local branch reattachment; no global guarantee",
        "reconstruction_status": "unknown_missing_input",
        "score_status": "partial_excludes_unknown_reconstruction",
        "note": "Reconstruction cannot be determined: existing flows/upstream/chamber attributes are missing. Zero is a placeholder, not proof that reconstruction is unnecessary."
      }
    }
  ],
  "crs": {
    "type": "name",
    "properties": {
      "name": "urn:ogc:def:crs:OGC:1.3:CRS84"
    }
  }
}