{
  "type": "FeatureCollection",
  "features": [
    {
      "type": "Feature",
      "geometry": {
        "type": "LineString",
        "coordinates": [
          [
            37.634271207442,
            55.69977528231
          ],
          [
            37.634405403981,
            55.699481068732
          ]
        ]
      },
      "properties": {
        "id": "visibility_1_new_1_1",
        "object_type": "heat_network",
        "variant_id": "visibility_1",
        "start_node_id": "visibility_1_new_chamber_3",
        "end_node_id": "1",
        "flow_tph": 24.87,
        "diameter": 125,
        "length": 33.815,
        "laying_method": "base",
        "depth_start": 3.0,
        "depth_end": 3.0,
        "depth_factor": 1.0,
        "special_factor": 1.0,
        "crossing_object_ids": [],
        "bend_count": 0,
        "bend_penalty_cost": 0.0,
        "cost": 3289399.7
      }
    },
    {
      "type": "Feature",
      "geometry": {
        "type": "LineString",
        "coordinates": [
          [
            37.634271207442,
            55.69977528231
          ],
          [
            37.634582926007,
            55.699854468118
          ]
        ]
      },
      "properties": {
        "id": "visibility_1_new_2_1",
        "object_type": "heat_network",
        "variant_id": "visibility_1",
        "start_node_id": "visibility_1_new_chamber_3",
        "end_node_id": "2",
        "flow_tph": 18.76,
        "diameter": 100,
        "length": 21.484,
        "laying_method": "base",
        "depth_start": 3.0,
        "depth_end": 3.0,
        "depth_factor": 1.0,
        "special_factor": 1.0,
        "crossing_object_ids": [],
        "bend_count": 0,
        "bend_penalty_cost": 0.0,
        "cost": 1928182.07
      }
    },
    {
      "type": "Feature",
      "geometry": {
        "type": "LineString",
        "coordinates": [
          [
            37.632385929964,
            55.700187702084
          ],
          [
            37.632846602295,
            55.700275764475
          ]
        ]
      },
      "properties": {
        "id": "visibility_1_new_3_1",
        "object_type": "heat_network",
        "variant_id": "visibility_1",
        "start_node_id": "visibility_1_new_chamber_4",
        "end_node_id": "3",
        "flow_tph": 29.42,
        "diameter": 125,
        "length": 30.57,
        "laying_method": "base",
        "depth_start": 3.0,
        "depth_end": 3.0,
        "depth_factor": 1.0,
        "special_factor": 1.0,
        "crossing_object_ids": [],
        "bend_count": 0,
        "bend_penalty_cost": 0.0,
        "cost": 2973664.42
      }
    },
    {
      "type": "Feature",
      "geometry": {
        "type": "LineString",
        "coordinates": [
          [
            37.634271207442,
            55.69977528231
          ],
          [
            37.635329092746,
            55.69954445221
          ],
          [
            37.636087719719,
            55.700080490891
          ],
          [
            37.636381851248,
            55.700155203293
          ]
        ]
      },
      "properties": {
        "id": "visibility_1_new_4_1",
        "object_type": "heat_network",
        "variant_id": "visibility_1",
        "start_node_id": "visibility_1_new_chamber_3",
        "end_node_id": "4",
        "flow_tph": 47.7,
        "diameter": 150,
        "length": 167.934,
        "laying_method": "base",
        "depth_start": 3.0,
        "depth_end": 3.0,
        "depth_factor": 1.0,
        "special_factor": 1.0,
        "crossing_object_ids": [],
        "bend_count": 2,
        "bend_penalty_cost": 0.0,
        "cost": 17718189.14
      }
    },
    {
      "type": "Feature",
      "geometry": {
        "type": "LineString",
        "coordinates": [
          [
            37.635880918009,
            55.698148185245
          ],
          [
            37.635417055874,
            55.698614736028
          ]
        ]
      },
      "properties": {
        "id": "visibility_1_new_5_1",
        "object_type": "heat_network",
        "variant_id": "visibility_1",
        "start_node_id": "visibility_1_new_chamber_1",
        "end_node_id": "5",
        "flow_tph": 26.09,
        "diameter": 125,
        "length": 59.554,
        "laying_method": "base",
        "depth_start": 3.0,
        "depth_end": 3.0,
        "depth_factor": 1.0,
        "special_factor": 1.0,
        "crossing_object_ids": [],
        "bend_count": 0,
        "bend_penalty_cost": 0.0,
        "cost": 5793115.42
      }
    },
    {
      "type": "Feature",
      "geometry": {
        "type": "LineString",
        "coordinates": [
          [
            37.632385929964,
            55.700187702084
          ],
          [
            37.632012226301,
            55.700048265534
          ]
        ]
      },
      "properties": {
        "id": "visibility_1_new_6_1",
        "object_type": "heat_network",
        "variant_id": "visibility_1",
        "start_node_id": "visibility_1_new_chamber_4",
        "end_node_id": "6",
        "flow_tph": 15.99,
        "diameter": 100,
        "length": 28.153,
        "laying_method": "base",
        "depth_start": 3.0,
        "depth_end": 3.0,
        "depth_factor": 1.0,
        "special_factor": 1.0,
        "crossing_object_ids": [],
        "bend_count": 0,
        "bend_penalty_cost": 0.0,
        "cost": 2526699.78
      }
    },
    {
      "type": "Feature",
      "geometry": {
        "type": "LineString",
        "coordinates": [
          [
            37.637733531089,
            55.697791739991
          ],
          [
            37.638280304046,
            55.697956790567
          ]
        ]
      },
      "properties": {
        "id": "visibility_1_new_7_1",
        "object_type": "heat_network",
        "variant_id": "visibility_1",
        "start_node_id": "visibility_1_new_chamber_8",
        "end_node_id": "7",
        "flow_tph": 27.82,
        "diameter": 125,
        "length": 38.971,
        "laying_method": "base",
        "depth_start": 3.0,
        "depth_end": 3.0,
        "depth_factor": 1.0,
        "special_factor": 1.0,
        "crossing_object_ids": [],
        "bend_count": 0,
        "bend_penalty_cost": 0.0,
        "cost": 3790914.25
      }
    },
    {
      "type": "Feature",
      "geometry": {
        "type": "LineString",
        "coordinates": [
          [
            37.632385929964,
            55.700187702084
          ],
          [
            37.632202633433,
            55.700314421709
          ]
        ]
      },
      "properties": {
        "id": "visibility_1_new_8_1",
        "object_type": "heat_network",
        "variant_id": "visibility_1",
        "start_node_id": "visibility_1_new_chamber_4",
        "end_node_id": "8",
        "flow_tph": 18.03,
        "diameter": 100,
        "length": 18.212,
        "laying_method": "base",
        "depth_start": 3.0,
        "depth_end": 3.0,
        "depth_factor": 1.0,
        "special_factor": 1.0,
        "crossing_object_ids": [],
        "bend_count": 0,
        "bend_penalty_cost": 0.0,
        "cost": 1634458.88
      }
    },
    {
      "type": "Feature",
      "geometry": {
        "type": "LineString",
        "coordinates": [
          [
            37.633594088088,
            55.697581911977
          ],
          [
            37.633789594583,
            55.69753490301
          ],
          [
            37.634446267723,
            55.697252395986
          ]
        ]
      },
      "properties": {
        "id": "visibility_1_new_9_1",
        "object_type": "heat_network",
        "variant_id": "visibility_1",
        "start_node_id": "visibility_1_new_chamber_6",
        "end_node_id": "9",
        "flow_tph": 34.53,
        "diameter": 125,
        "length": 65.247,
        "laying_method": "base",
        "depth_start": 3.0,
        "depth_end": 3.0,
        "depth_factor": 1.0,
        "special_factor": 1.0,
        "crossing_object_ids": [],
        "bend_count": 0,
        "bend_penalty_cost": 0.0,
        "cost": 6346924.61
      }
    },
    {
      "type": "Feature",
      "geometry": {
        "type": "LineString",
        "coordinates": [
          [
            37.637733531089,
            55.697791739991
          ],
          [
            37.637334765882,
            55.697753107473
          ],
          [
            37.636639999085,
            55.697461631591
          ],
          [
            37.636093240038,
            55.697296573769
          ]
        ]
      },
      "properties": {
        "id": "visibility_1_new_10_1",
        "object_type": "heat_network",
        "variant_id": "visibility_1",
        "start_node_id": "visibility_1_new_chamber_8",
        "end_node_id": "10",
        "flow_tph": 33.14,
        "diameter": 125,
        "length": 118.807,
        "laying_method": "base",
        "depth_start": 3.0,
        "depth_end": 3.0,
        "depth_factor": 1.0,
        "special_factor": 1.0,
        "crossing_object_ids": [],
        "bend_count": 1,
        "bend_penalty_cost": 0.0,
        "cost": 11556968.41
      }
    },
    {
      "type": "Feature",
      "geometry": {
        "type": "LineString",
        "coordinates": [
          [
            37.633804952055,
            55.699528075535
          ],
          [
            37.633204498734,
            55.699575079394
          ]
        ]
      },
      "properties": {
        "id": "visibility_1_new_11_1",
        "object_type": "heat_network",
        "variant_id": "visibility_1",
        "start_node_id": "visibility_1_new_chamber_7",
        "end_node_id": "11",
        "flow_tph": 4.08,
        "diameter": 65,
        "length": 38.103,
        "laying_method": "base",
        "depth_start": 3.0,
        "depth_end": 3.0,
        "depth_factor": 1.0,
        "special_factor": 1.0,
        "crossing_object_ids": [],
        "bend_count": 0,
        "bend_penalty_cost": 0.0,
        "cost": 2996096.12
      }
    },
    {
      "type": "Feature",
      "geometry": {
        "type": "LineString",
        "coordinates": [
          [
            37.633409502392,
            55.698677902412
          ],
          [
            37.633139321938,
            55.698653072531
          ]
        ]
      },
      "properties": {
        "id": "visibility_1_new_12_1",
        "object_type": "heat_network",
        "variant_id": "visibility_1",
        "start_node_id": "visibility_1_new_chamber_5",
        "end_node_id": "12",
        "flow_tph": 40.0,
        "diameter": 125,
        "length": 17.206,
        "laying_method": "base",
        "depth_start": 3.0,
        "depth_end": 3.0,
        "depth_factor": 1.0,
        "special_factor": 1.0,
        "crossing_object_ids": [],
        "bend_count": 0,
        "bend_penalty_cost": 0.0,
        "cost": 1673749.3
      }
    },
    {
      "type": "Feature",
      "geometry": {
        "type": "LineString",
        "coordinates": [
          [
            37.633594088088,
            55.697581911977
          ],
          [
            37.633901056125,
            55.697722611511
          ]
        ]
      },
      "properties": {
        "id": "visibility_1_new_13_1",
        "object_type": "heat_network",
        "variant_id": "visibility_1",
        "start_node_id": "visibility_1_new_chamber_6",
        "end_node_id": "13",
        "flow_tph": 19.77,
        "diameter": 100,
        "length": 24.851,
        "laying_method": "base",
        "depth_start": 3.0,
        "depth_end": 3.0,
        "depth_factor": 1.0,
        "special_factor": 1.0,
        "crossing_object_ids": [],
        "bend_count": 0,
        "bend_penalty_cost": 0.0,
        "cost": 2230323.11
      }
    },
    {
      "type": "Feature",
      "geometry": {
        "type": "LineString",
        "coordinates": [
          [
            37.633594088088,
            55.697581911977
          ],
          [
            37.63375244097,
            55.697472333488
          ]
        ]
      },
      "properties": {
        "id": "visibility_1_new_14_1",
        "object_type": "heat_network",
        "variant_id": "visibility_1",
        "start_node_id": "visibility_1_new_chamber_6",
        "end_node_id": "14",
        "flow_tph": 19.73,
        "diameter": 100,
        "length": 15.743,
        "laying_method": "base",
        "depth_start": 3.0,
        "depth_end": 3.0,
        "depth_factor": 1.0,
        "special_factor": 1.0,
        "crossing_object_ids": [],
        "bend_count": 0,
        "bend_penalty_cost": 0.0,
        "cost": 1412874.0
      }
    },
    {
      "type": "Feature",
      "geometry": {
        "type": "LineString",
        "coordinates": [
          [
            37.632854543826,
            55.697834492251
          ],
          [
            37.632254532137,
            55.697147106346
          ],
          [
            37.632034439325,
            55.697045694109
          ]
        ]
      },
      "properties": {
        "id": "visibility_1_new_15_1",
        "object_type": "heat_network",
        "variant_id": "visibility_1",
        "start_node_id": "visibility_1_new_chamber_2",
        "end_node_id": "15",
        "flow_tph": 31.89,
        "diameter": 125,
        "length": 103.154,
        "laying_method": "base",
        "depth_start": 3.0,
        "depth_end": 3.0,
        "depth_factor": 1.0,
        "special_factor": 1.0,
        "crossing_object_ids": [],
        "bend_count": 1,
        "bend_penalty_cost": 0.0,
        "cost": 10034342.67
      }
    },
    {
      "type": "Feature",
      "geometry": {
        "type": "LineString",
        "coordinates": [
          [
            37.639987999193,
            55.699268940294
          ],
          [
            37.640657220179,
            55.699371684154
          ],
          [
            37.641276534307,
            55.699240730864
          ],
          [
            37.641462862903,
            55.6990651945
          ],
          [
            37.641023358366,
            55.698473076723
          ],
          [
            37.640764466155,
            55.698407396101
          ]
        ]
      },
      "properties": {
        "id": "visibility_1_new_16_1",
        "object_type": "heat_network",
        "variant_id": "visibility_1",
        "start_node_id": "visibility_1_tie_tie_chamber_109",
        "end_node_id": "16",
        "flow_tph": 76.27,
        "diameter": 200,
        "length": 197.238,
        "laying_method": "base",
        "depth_start": 3.0,
        "depth_end": 3.0,
        "depth_factor": 1.0,
        "special_factor": 1.0,
        "crossing_object_ids": [],
        "bend_count": 4,
        "bend_penalty_cost": 0.0,
        "cost": 23722811.37
      }
    },
    {
      "type": "Feature",
      "geometry": {
        "type": "LineString",
        "coordinates": [
          [
            37.638461838842,
            55.697638536901
          ],
          [
            37.638731124343,
            55.69690852538
          ],
          [
            37.639128923888,
            55.696814384602
          ],
          [
            37.639538145943,
            55.696851832917
          ]
        ]
      },
      "properties": {
        "id": "visibility_1_new_17_1",
        "object_type": "heat_network",
        "variant_id": "visibility_1",
        "start_node_id": "visibility_1_tie_tie_chamber_106",
        "end_node_id": "17",
        "flow_tph": 20.63,
        "diameter": 100,
        "length": 136.168,
        "laying_method": "base",
        "depth_start": 3.0,
        "depth_end": 3.0,
        "depth_factor": 1.0,
        "special_factor": 1.0,
        "crossing_object_ids": [],
        "bend_count": 2,
        "bend_penalty_cost": 0.0,
        "cost": 12220816.78
      }
    },
    {
      "type": "Feature",
      "geometry": {
        "type": "LineString",
        "coordinates": [
          [
            37.638461838842,
            55.697638536901
          ],
          [
            37.637733531089,
            55.697791739991
          ]
        ]
      },
      "properties": {
        "id": "visibility_1_new_18_1",
        "object_type": "heat_network",
        "variant_id": "visibility_1",
        "start_node_id": "visibility_1_tie_tie_chamber_106",
        "end_node_id": "visibility_1_new_chamber_8",
        "flow_tph": 391.82,
        "diameter": 300,
        "length": 48.853,
        "laying_method": "base",
        "depth_start": 3.0,
        "depth_end": 3.0,
        "depth_factor": 1.0,
        "special_factor": 1.0,
        "crossing_object_ids": [],
        "bend_count": 0,
        "bend_penalty_cost": 0.0,
        "cost": 7329094.78
      }
    },
    {
      "type": "Feature",
      "geometry": {
        "type": "LineString",
        "coordinates": [
          [
            37.637733531089,
            55.697791739991
          ],
          [
            37.635880918009,
            55.698148185245
          ]
        ]
      },
      "properties": {
        "id": "visibility_1_new_19_1",
        "object_type": "heat_network",
        "variant_id": "visibility_1",
        "start_node_id": "visibility_1_new_chamber_8",
        "end_node_id": "visibility_1_new_chamber_1",
        "flow_tph": 330.86,
        "diameter": 300,
        "length": 123.026,
        "laying_method": "base",
        "depth_start": 3.0,
        "depth_end": 3.0,
        "depth_factor": 1.0,
        "special_factor": 1.0,
        "crossing_object_ids": [],
        "bend_count": 0,
        "bend_penalty_cost": 0.0,
        "cost": 18456570.94
      }
    },
    {
      "type": "Feature",
      "geometry": {
        "type": "LineString",
        "coordinates": [
          [
            37.635880918009,
            55.698148185245
          ],
          [
            37.633409502392,
            55.698677902412
          ]
        ]
      },
      "properties": {
        "id": "visibility_1_new_20_1",
        "object_type": "heat_network",
        "variant_id": "visibility_1",
        "start_node_id": "visibility_1_new_chamber_1",
        "end_node_id": "visibility_1_new_chamber_5",
        "flow_tph": 304.77,
        "diameter": 300,
        "length": 166.161,
        "laying_method": "base",
        "depth_start": 3.0,
        "depth_end": 3.0,
        "depth_factor": 1.0,
        "special_factor": 1.0,
        "crossing_object_ids": [],
        "bend_count": 0,
        "bend_penalty_cost": 0.0,
        "cost": 24927774.41
      }
    },
    {
      "type": "Feature",
      "geometry": {
        "type": "LineString",
        "coordinates": [
          [
            37.633409502392,
            55.698677902412
          ],
          [
            37.632854543826,
            55.697834492251
          ]
        ]
      },
      "properties": {
        "id": "visibility_1_new_21_1",
        "object_type": "heat_network",
        "variant_id": "visibility_1",
        "start_node_id": "visibility_1_new_chamber_5",
        "end_node_id": "visibility_1_new_chamber_2",
        "flow_tph": 105.92,
        "diameter": 200,
        "length": 100.145,
        "laying_method": "base",
        "depth_start": 3.0,
        "depth_end": 3.0,
        "depth_factor": 1.0,
        "special_factor": 1.0,
        "crossing_object_ids": [],
        "bend_count": 0,
        "bend_penalty_cost": 0.0,
        "cost": 12044958.18
      }
    },
    {
      "type": "Feature",
      "geometry": {
        "type": "LineString",
        "coordinates": [
          [
            37.632854543826,
            55.697834492251
          ],
          [
            37.633594088088,
            55.697581911977
          ]
        ]
      },
      "properties": {
        "id": "visibility_1_new_22_1",
        "object_type": "heat_network",
        "variant_id": "visibility_1",
        "start_node_id": "visibility_1_new_chamber_2",
        "end_node_id": "visibility_1_new_chamber_6",
        "flow_tph": 74.03,
        "diameter": 200,
        "length": 54.327,
        "laying_method": "base",
        "depth_start": 3.0,
        "depth_end": 3.0,
        "depth_factor": 1.0,
        "special_factor": 1.0,
        "crossing_object_ids": [],
        "bend_count": 0,
        "bend_penalty_cost": 0.0,
        "cost": 6534147.85
      }
    },
    {
      "type": "Feature",
      "geometry": {
        "type": "LineString",
        "coordinates": [
          [
            37.633804952055,
            55.699528075535
          ],
          [
            37.634271207442,
            55.69977528231
          ]
        ]
      },
      "properties": {
        "id": "visibility_1_new_23_1",
        "object_type": "heat_network",
        "variant_id": "visibility_1",
        "start_node_id": "visibility_1_new_chamber_7",
        "end_node_id": "visibility_1_new_chamber_3",
        "flow_tph": 91.33,
        "diameter": 200,
        "length": 40.199,
        "laying_method": "base",
        "depth_start": 3.0,
        "depth_end": 3.0,
        "depth_factor": 1.0,
        "special_factor": 1.0,
        "crossing_object_ids": [],
        "bend_count": 0,
        "bend_penalty_cost": 0.0,
        "cost": 4834932.25
      }
    },
    {
      "type": "Feature",
      "geometry": {
        "type": "LineString",
        "coordinates": [
          [
            37.633804952055,
            55.699528075535
          ],
          [
            37.632385929964,
            55.700187702084
          ]
        ]
      },
      "properties": {
        "id": "visibility_1_new_24_1",
        "object_type": "heat_network",
        "variant_id": "visibility_1",
        "start_node_id": "visibility_1_new_chamber_7",
        "end_node_id": "visibility_1_new_chamber_4",
        "flow_tph": 63.44,
        "diameter": 150,
        "length": 115.524,
        "laying_method": "base",
        "depth_start": 3.0,
        "depth_end": 3.0,
        "depth_factor": 1.0,
        "special_factor": 1.0,
        "crossing_object_ids": [],
        "bend_count": 0,
        "bend_penalty_cost": 0.0,
        "cost": 12188562.97
      }
    },
    {
      "type": "Feature",
      "geometry": {
        "type": "LineString",
        "coordinates": [
          [
            37.633409502392,
            55.698677902412
          ],
          [
            37.633804952055,
            55.699528075535
          ]
        ]
      },
      "properties": {
        "id": "visibility_1_new_25_1",
        "object_type": "heat_network",
        "variant_id": "visibility_1",
        "start_node_id": "visibility_1_new_chamber_5",
        "end_node_id": "visibility_1_new_chamber_7",
        "flow_tph": 158.85,
        "diameter": 250,
        "length": 97.836,
        "laying_method": "base",
        "depth_start": 3.0,
        "depth_end": 3.0,
        "depth_factor": 1.0,
        "special_factor": 1.0,
        "crossing_object_ids": [],
        "bend_count": 0,
        "bend_penalty_cost": 0.0,
        "cost": 13239485.87
      }
    },
    {
      "type": "Feature",
      "geometry": {
        "type": "Point",
        "coordinates": [
          37.639987999193,
          55.699268940294
        ]
      },
      "properties": {
        "id": "visibility_1_tie_tie_chamber_109",
        "object_type": "tie_in",
        "variant_id": "visibility_1",
        "existing_object_id": "109",
        "existing_object_type": "heat_chamber",
        "existing_diameter": 300,
        "required_diameter": 200,
        "cost": 5000000
      }
    },
    {
      "type": "Feature",
      "geometry": {
        "type": "Point",
        "coordinates": [
          37.638461838842,
          55.697638536901
        ]
      },
      "properties": {
        "id": "visibility_1_tie_tie_chamber_106",
        "object_type": "tie_in",
        "variant_id": "visibility_1",
        "existing_object_id": "106",
        "existing_object_type": "heat_chamber",
        "existing_diameter": 300,
        "required_diameter": 300,
        "cost": 5000000
      }
    },
    {
      "type": "Feature",
      "geometry": {
        "type": "Point",
        "coordinates": [
          37.635880918009,
          55.698148185245
        ]
      },
      "properties": {
        "id": "visibility_1_new_chamber_1",
        "object_type": "heat_chamber",
        "variant_id": "visibility_1",
        "diameter": 300,
        "cost": 5000000
      }
    },
    {
      "type": "Feature",
      "geometry": {
        "type": "Point",
        "coordinates": [
          37.632854543826,
          55.697834492251
        ]
      },
      "properties": {
        "id": "visibility_1_new_chamber_2",
        "object_type": "heat_chamber",
        "variant_id": "visibility_1",
        "diameter": 200,
        "cost": 3000000
      }
    },
    {
      "type": "Feature",
      "geometry": {
        "type": "Point",
        "coordinates": [
          37.634271207442,
          55.69977528231
        ]
      },
      "properties": {
        "id": "visibility_1_new_chamber_3",
        "object_type": "heat_chamber",
        "variant_id": "visibility_1",
        "diameter": 200,
        "cost": 3000000
      }
    },
    {
      "type": "Feature",
      "geometry": {
        "type": "Point",
        "coordinates": [
          37.632385929964,
          55.700187702084
        ]
      },
      "properties": {
        "id": "visibility_1_new_chamber_4",
        "object_type": "heat_chamber",
        "variant_id": "visibility_1",
        "diameter": 150,
        "cost": 3000000
      }
    },
    {
      "type": "Feature",
      "geometry": {
        "type": "Point",
        "coordinates": [
          37.633409502392,
          55.698677902412
        ]
      },
      "properties": {
        "id": "visibility_1_new_chamber_5",
        "object_type": "heat_chamber",
        "variant_id": "visibility_1",
        "diameter": 300,
        "cost": 5000000
      }
    },
    {
      "type": "Feature",
      "geometry": {
        "type": "Point",
        "coordinates": [
          37.633594088088,
          55.697581911977
        ]
      },
      "properties": {
        "id": "visibility_1_new_chamber_6",
        "object_type": "heat_chamber",
        "variant_id": "visibility_1",
        "diameter": 200,
        "cost": 3000000
      }
    },
    {
      "type": "Feature",
      "geometry": {
        "type": "Point",
        "coordinates": [
          37.633804952055,
          55.699528075535
        ]
      },
      "properties": {
        "id": "visibility_1_new_chamber_7",
        "object_type": "heat_chamber",
        "variant_id": "visibility_1",
        "diameter": 250,
        "cost": 5000000
      }
    },
    {
      "type": "Feature",
      "geometry": {
        "type": "Point",
        "coordinates": [
          37.637733531089,
          55.697791739991
        ]
      },
      "properties": {
        "id": "visibility_1_new_chamber_8",
        "object_type": "heat_chamber",
        "variant_id": "visibility_1",
        "diameter": 300,
        "cost": 5000000
      }
    },
    {
      "type": "Feature",
      "geometry": null,
      "properties": {
        "id": "visibility_1_summary",
        "object_type": "variant_summary",
        "variant_id": "visibility_1",
        "rank": 1,
        "label": "visibility + adaptive destroy/repair",
        "construction_cost": 211405057.28,
        "chamber_construction_cost": 32000000.0,
        "tie_in_cost": 10000000.0,
        "reconstruction_cost": 0.0,
        "chamber_reconstruction_cost": 0.0,
        "bend_penalty_cost": 0.0,
        "unconnected_penalty": 0.0,
        "calculated_cost": 253405057.28,
        "new_network_length": 1861.282,
        "reconstruction_length": 0.0,
        "length": 1861.282,
        "score": 12.679189,
        "route_bend_count": 10,
        "route_right_angle_count": 0,
        "micro_bend_count": 0,
        "unconnected_oks_ids": [],
        "connected_oks_count": 17,
        "tie_in_count": 2,
        "depth_routing": true,
        "special_passage_count": 0,
        "min_depth_m": 3.0,
        "max_depth_m": 3.0,
        "connection_adjustments": [],
        "building_entry_allowed": true,
        "optimization_objective": "official_score",
        "optimality": "Best found by bounded visibility topology search and exact engineering evaluation; global optimality is not proven",
        "reconstruction_status": "unknown_missing_input",
        "score_status": "partial_excludes_unknown_reconstruction",
        "note": "Reconstruction cannot be determined: existing flows/upstream/chamber attributes are missing. Zero is a placeholder, not proof that reconstruction is unnecessary."
      }
    }
  ],
  "crs": {
    "type": "name",
    "properties": {
      "name": "urn:ogc:def:crs:OGC:1.3:CRS84"
    }
  }
}