{
  "type": "FeatureCollection",
  "features": [
    {
      "type": "Feature",
      "geometry": {
        "type": "LineString",
        "coordinates": [
          [
            37.634190674105,
            55.699658725419
          ],
          [
            37.634452733914,
            55.699551282652
          ],
          [
            37.634405403981,
            55.699481068732
          ]
        ]
      },
      "properties": {
        "id": "2d_v1_new_1_1",
        "variant_id": "2d_v1",
        "diameter": 125,
        "length": 28.717366
      }
    },
    {
      "type": "Feature",
      "geometry": {
        "type": "LineString",
        "coordinates": [
          [
            37.634518093086,
            55.700160767688
          ],
          [
            37.634928055363,
            55.700072628253
          ],
          [
            37.635032654345,
            55.699929662928
          ],
          [
            37.63467461725,
            55.699845496071
          ],
          [
            37.634582926007,
            55.699854468118
          ]
        ]
      },
      "properties": {
        "id": "2d_v1_new_2_1",
        "variant_id": "2d_v1",
        "diameter": 100,
        "length": 75.015567
      }
    },
    {
      "type": "Feature",
      "geometry": {
        "type": "LineString",
        "coordinates": [
          [
            37.632654903184,
            55.699999829796
          ],
          [
            37.632918855143,
            55.700114489094
          ],
          [
            37.632920909378,
            55.70025978695
          ],
          [
            37.632846602295,
            55.700275764475
          ]
        ]
      },
      "properties": {
        "id": "2d_v1_new_3_1",
        "variant_id": "2d_v1",
        "diameter": 125,
        "length": 42.101471
      }
    },
    {
      "type": "Feature",
      "geometry": {
        "type": "LineString",
        "coordinates": [
          [
            37.634518093086,
            55.700160767688
          ],
          [
            37.634812987592,
            55.700598155588
          ],
          [
            37.635492671218,
            55.70045665336
          ],
          [
            37.636151348608,
            55.700310273983
          ],
          [
            37.636408105234,
            55.700194144447
          ],
          [
            37.636381851248,
            55.700155203293
          ]
        ]
      },
      "properties": {
        "id": "2d_v1_new_4_1",
        "variant_id": "2d_v1",
        "diameter": 150,
        "length": 167.429346
      }
    },
    {
      "type": "Feature",
      "geometry": {
        "type": "LineString",
        "coordinates": [
          [
            37.634975029975,
            55.698409144872
          ],
          [
            37.63503995951,
            55.698544340515
          ],
          [
            37.635357923282,
            55.69852705389
          ],
          [
            37.635417055874,
            55.698614736028
          ]
        ]
      },
      "properties": {
        "id": "2d_v1_new_5_1",
        "variant_id": "2d_v1",
        "diameter": 125,
        "length": 46.113249
      }
    },
    {
      "type": "Feature",
      "geometry": {
        "type": "LineString",
        "coordinates": [
          [
            37.632654903184,
            55.699999829796
          ],
          [
            37.632027085352,
            55.700070094151
          ],
          [
            37.632012226301,
            55.700048265534
          ]
        ]
      },
      "properties": {
        "id": "2d_v1_new_6_1",
        "variant_id": "2d_v1",
        "diameter": 100,
        "length": 42.832315
      }
    },
    {
      "type": "Feature",
      "geometry": {
        "type": "LineString",
        "coordinates": [
          [
            37.638624651672,
            55.697885695462
          ],
          [
            37.638486145621,
            55.697811001824
          ],
          [
            37.638250609096,
            55.69791277289
          ],
          [
            37.638280304046,
            55.697956790567
          ]
        ]
      },
      "properties": {
        "id": "2d_v1_new_7_1",
        "variant_id": "2d_v1",
        "diameter": 125,
        "length": 35.922621
      }
    },
    {
      "type": "Feature",
      "geometry": {
        "type": "LineString",
        "coordinates": [
          [
            37.632654903184,
            55.699999829796
          ],
          [
            37.632429412729,
            55.700162024266
          ],
          [
            37.632240932168,
            55.700306176096
          ],
          [
            37.632202633433,
            55.700314421709
          ]
        ]
      },
      "properties": {
        "id": "2d_v1_new_8_1",
        "variant_id": "2d_v1",
        "diameter": 100,
        "length": 45.472212
      }
    },
    {
      "type": "Feature",
      "geometry": {
        "type": "LineString",
        "coordinates": [
          [
            37.634357262077,
            55.697528439302
          ],
          [
            37.634488031377,
            55.697314596209
          ],
          [
            37.634446267723,
            55.697252395986
          ]
        ]
      },
      "properties": {
        "id": "2d_v1_new_9_1",
        "variant_id": "2d_v1",
        "diameter": 125,
        "length": 32.584688
      }
    },
    {
      "type": "Feature",
      "geometry": {
        "type": "LineString",
        "coordinates": [
          [
            37.634357262077,
            55.697528439302
          ],
          [
            37.63582017184,
            55.697212668028
          ],
          [
            37.635988438105,
            55.69731877746
          ],
          [
            37.636093240038,
            55.697296573769
          ]
        ]
      },
      "properties": {
        "id": "2d_v1_new_10_1",
        "variant_id": "2d_v1",
        "diameter": 125,
        "length": 121.336307
      }
    },
    {
      "type": "Feature",
      "geometry": {
        "type": "LineString",
        "coordinates": [
          [
            37.633208823382,
            55.699764681572
          ],
          [
            37.63311054932,
            55.699595295877
          ],
          [
            37.633204498734,
            55.699575079394
          ]
        ]
      },
      "properties": {
        "id": "2d_v1_new_11_1",
        "variant_id": "2d_v1",
        "diameter": 65,
        "length": 26.158613
      }
    },
    {
      "type": "Feature",
      "geometry": {
        "type": "LineString",
        "coordinates": [
          [
            37.633645413614,
            55.698850172554
          ],
          [
            37.633282343963,
            55.69869133919
          ],
          [
            37.633169374398,
            55.698646618526
          ],
          [
            37.633139321938,
            55.698653072531
          ]
        ]
      },
      "properties": {
        "id": "2d_v1_new_12_1",
        "variant_id": "2d_v1",
        "diameter": 125,
        "length": 39.560767
      }
    },
    {
      "type": "Feature",
      "geometry": {
        "type": "LineString",
        "coordinates": [
          [
            37.633934456571,
            55.697490751849
          ],
          [
            37.6338743702,
            55.697683043202
          ],
          [
            37.633901056125,
            55.697722611511
          ]
        ]
      },
      "properties": {
        "id": "2d_v1_new_13_1",
        "variant_id": "2d_v1",
        "diameter": 100,
        "length": 26.445782
      }
    },
    {
      "type": "Feature",
      "geometry": {
        "type": "LineString",
        "coordinates": [
          [
            37.633934456571,
            55.697490751849
          ],
          [
            37.633753051293,
            55.697473245937
          ],
          [
            37.63375244097,
            55.697472333488
          ]
        ]
      },
      "properties": {
        "id": "2d_v1_new_14_1",
        "variant_id": "2d_v1",
        "diameter": 100,
        "length": 11.676928
      }
    },
    {
      "type": "Feature",
      "geometry": {
        "type": "LineString",
        "coordinates": [
          [
            37.633934456571,
            55.697490751849
          ],
          [
            37.633382324787,
            55.696673114557
          ],
          [
            37.632314392388,
            55.696900014142
          ],
          [
            37.632021933307,
            55.697027045374
          ],
          [
            37.632034439325,
            55.697045694109
          ]
        ]
      },
      "properties": {
        "id": "2d_v1_new_15_1",
        "variant_id": "2d_v1",
        "diameter": 125,
        "length": 194.534441
      }
    },
    {
      "type": "Feature",
      "geometry": {
        "type": "LineString",
        "coordinates": [
          [
            37.640138229808,
            55.699495003235
          ],
          [
            37.641272428928,
            55.69923150095
          ],
          [
            37.641446495619,
            55.699067516316
          ],
          [
            37.641114731139,
            55.698614759344
          ],
          [
            37.640818803819,
            55.698395713322
          ],
          [
            37.640764466155,
            55.698407396101
          ]
        ]
      },
      "properties": {
        "id": "2d_v1_new_16_1",
        "variant_id": "2d_v1",
        "diameter": 200,
        "length": 187.226929
      }
    },
    {
      "type": "Feature",
      "geometry": {
        "type": "LineString",
        "coordinates": [
          [
            37.63810737948,
            55.697162497714
          ],
          [
            37.63875798415,
            55.696915472171
          ],
          [
            37.63950759304,
            55.696806261399
          ],
          [
            37.639538145943,
            55.696851832917
          ]
        ]
      },
      "properties": {
        "id": "2d_v1_new_17_1",
        "variant_id": "2d_v1",
        "diameter": 100,
        "length": 103.367289
      }
    },
    {
      "type": "Feature",
      "geometry": {
        "type": "LineString",
        "coordinates": [
          [
            37.63837822832,
            55.697506601927
          ],
          [
            37.636786274543,
            55.697940847137
          ],
          [
            37.634975029975,
            55.698409144872
          ]
        ]
      },
      "properties": {
        "id": "2d_v1_new_18_1",
        "variant_id": "2d_v1",
        "diameter": 300,
        "length": 236.346201
      }
    },
    {
      "type": "Feature",
      "geometry": {
        "type": "LineString",
        "coordinates": [
          [
            37.634975029975,
            55.698409144872
          ],
          [
            37.633645413614,
            55.698850172554
          ]
        ]
      },
      "properties": {
        "id": "2d_v1_new_19_1",
        "variant_id": "2d_v1",
        "diameter": 250,
        "length": 96.926064
      }
    },
    {
      "type": "Feature",
      "geometry": {
        "type": "LineString",
        "coordinates": [
          [
            37.633645413614,
            55.698850172554
          ],
          [
            37.633757647821,
            55.699335005914
          ],
          [
            37.634190674105,
            55.699658725419
          ]
        ]
      },
      "properties": {
        "id": "2d_v1_new_20_1",
        "variant_id": "2d_v1",
        "diameter": 250,
        "length": 99.577926
      }
    },
    {
      "type": "Feature",
      "geometry": {
        "type": "LineString",
        "coordinates": [
          [
            37.634190674105,
            55.699658725419
          ],
          [
            37.634185426869,
            55.699665333443
          ],
          [
            37.633208823382,
            55.699764681572
          ]
        ]
      },
      "properties": {
        "id": "2d_v1_new_21_1",
        "variant_id": "2d_v1",
        "diameter": 200,
        "length": 63.179628
      }
    },
    {
      "type": "Feature",
      "geometry": {
        "type": "LineString",
        "coordinates": [
          [
            37.634190674105,
            55.699658725419
          ],
          [
            37.63426226515,
            55.699781467562
          ],
          [
            37.634518093086,
            55.700160767688
          ]
        ]
      },
      "properties": {
        "id": "2d_v1_new_22_1",
        "variant_id": "2d_v1",
        "diameter": 200,
        "length": 59.559071
      }
    },
    {
      "type": "Feature",
      "geometry": {
        "type": "LineString",
        "coordinates": [
          [
            37.634357262077,
            55.697528439302
          ],
          [
            37.633934456571,
            55.697490751849
          ]
        ]
      },
      "properties": {
        "id": "2d_v1_new_23_1",
        "variant_id": "2d_v1",
        "diameter": 200,
        "length": 26.906433
      }
    },
    {
      "type": "Feature",
      "geometry": {
        "type": "LineString",
        "coordinates": [
          [
            37.634975029975,
            55.698409144872
          ],
          [
            37.634879039591,
            55.698292418189
          ],
          [
            37.63456965028,
            55.69784647447
          ],
          [
            37.634357262077,
            55.697528439302
          ]
        ]
      },
      "properties": {
        "id": "2d_v1_new_24_1",
        "variant_id": "2d_v1",
        "diameter": 200,
        "length": 105.464967
      }
    },
    {
      "type": "Feature",
      "geometry": {
        "type": "LineString",
        "coordinates": [
          [
            37.633208823382,
            55.699764681572
          ],
          [
            37.632703570476,
            55.699944760167
          ],
          [
            37.632654903184,
            55.699999829796
          ]
        ]
      },
      "properties": {
        "id": "2d_v1_new_25_1",
        "variant_id": "2d_v1",
        "diameter": 150,
        "length": 44.404356
      }
    }
  ]
}