{
  "type": "FeatureCollection",
  "features": [
    {
      "type": "Feature",
      "geometry": {
        "type": "LineString",
        "coordinates": [
          [
            37.634038266911,
            55.699559750384
          ],
          [
            37.634063296647,
            55.699554386272
          ],
          [
            37.634405403981,
            55.699481068732
          ]
        ]
      },
      "properties": {
        "id": "cost_cheapest_new_1_1",
        "variant_id": "cost_cheapest",
        "diameter": 125,
        "length": 24.683
      }
    },
    {
      "type": "Feature",
      "geometry": {
        "type": "LineString",
        "coordinates": [
          [
            37.633570456725,
            55.699496645163
          ],
          [
            37.633883393785,
            55.69942958053
          ],
          [
            37.633942312891,
            55.699416953633
          ],
          [
            37.634038266911,
            55.699559750384
          ]
        ]
      },
      "properties": {
        "id": "cost_cheapest_new_2_1",
        "variant_id": "cost_cheapest",
        "diameter": 150,
        "length": 41.999
      }
    },
    {
      "type": "Feature",
      "geometry": {
        "type": "LineString",
        "coordinates": [
          [
            37.634038266911,
            55.699559750384
          ],
          [
            37.634146930711,
            55.699721460227
          ],
          [
            37.634265093953,
            55.699897305215
          ],
          [
            37.634279941848,
            55.699919401035
          ],
          [
            37.634319067954,
            55.699911015924
          ],
          [
            37.634582926007,
            55.699854468118
          ]
        ]
      },
      "properties": {
        "id": "cost_cheapest_new_3_1",
        "variant_id": "cost_cheapest",
        "diameter": 100,
        "length": 63.185
      }
    },
    {
      "type": "Feature",
      "geometry": {
        "type": "LineString",
        "coordinates": [
          [
            37.635307488793,
            55.698451686441
          ],
          [
            37.635327749549,
            55.698481837101
          ],
          [
            37.635417055874,
            55.698614736028
          ]
        ]
      },
      "properties": {
        "id": "cost_cheapest_new_4_1",
        "variant_id": "cost_cheapest",
        "diameter": 125,
        "length": 19.411
      }
    },
    {
      "type": "Feature",
      "geometry": {
        "type": "LineString",
        "coordinates": [
          [
            37.635307488793,
            55.698451686441
          ],
          [
            37.635254101584,
            55.698463128775
          ],
          [
            37.634960224514,
            55.698526114105
          ]
        ]
      },
      "properties": {
        "id": "cost_cheapest_new_5_1",
        "variant_id": "cost_cheapest",
        "diameter": 300,
        "length": 23.347
      }
    },
    {
      "type": "Feature",
      "geometry": {
        "type": "LineString",
        "coordinates": [
          [
            37.636968165182,
            55.69809574323
          ],
          [
            37.636717882864,
            55.698149389671
          ],
          [
            37.636694990684,
            55.698154296433
          ],
          [
            37.635360875972,
            55.698440244083
          ],
          [
            37.635307488793,
            55.698451686441
          ]
        ]
      },
      "properties": {
        "id": "cost_cheapest_new_6_1",
        "variant_id": "cost_cheapest",
        "diameter": 300,
        "length": 111.653
      }
    },
    {
      "type": "Feature",
      "geometry": {
        "type": "LineString",
        "coordinates": [
          [
            37.632210880108,
            55.700005696237
          ],
          [
            37.632067418282,
            55.700036438549
          ],
          [
            37.632012226301,
            55.700048265534
          ]
        ]
      },
      "properties": {
        "id": "cost_cheapest_new_7_1",
        "variant_id": "cost_cheapest",
        "diameter": 100,
        "length": 13.355
      }
    },
    {
      "type": "Feature",
      "geometry": {
        "type": "LineString",
        "coordinates": [
          [
            37.633570456725,
            55.699496645163
          ],
          [
            37.633698325988,
            55.69968693996
          ],
          [
            37.633206751575,
            55.699792285818
          ],
          [
            37.632354341711,
            55.699974953756
          ],
          [
            37.632210880108,
            55.700005696237
          ]
        ]
      },
      "properties": {
        "id": "cost_cheapest_new_8_1",
        "variant_id": "cost_cheapest",
        "diameter": 150,
        "length": 122.654
      }
    },
    {
      "type": "Feature",
      "geometry": {
        "type": "LineString",
        "coordinates": [
          [
            37.632210880108,
            55.700005696237
          ],
          [
            37.63226531736,
            55.70008671365
          ],
          [
            37.632299107117,
            55.700137001805
          ],
          [
            37.63233289696,
            55.700187289951
          ],
          [
            37.632391173049,
            55.70027401973
          ]
        ]
      },
      "properties": {
        "id": "cost_cheapest_new_9_1",
        "variant_id": "cost_cheapest",
        "diameter": 150,
        "length": 31.943
      }
    },
    {
      "type": "Feature",
      "geometry": {
        "type": "LineString",
        "coordinates": [
          [
            37.638196708309,
            55.69783240317
          ],
          [
            37.638205396978,
            55.697845331631
          ],
          [
            37.638242952584,
            55.697901213061
          ],
          [
            37.638280304046,
            55.697956790567
          ]
        ]
      },
      "properties": {
        "id": "cost_cheapest_new_10_1",
        "variant_id": "cost_cheapest",
        "diameter": 125,
        "length": 14.808
      }
    },
    {
      "type": "Feature",
      "geometry": {
        "type": "LineString",
        "coordinates": [
          [
            37.638196708309,
            55.69783240317
          ],
          [
            37.638074869809,
            55.697858520145
          ],
          [
            37.636968165182,
            55.69809574323
          ]
        ]
      },
      "properties": {
        "id": "cost_cheapest_new_11_1",
        "variant_id": "cost_cheapest",
        "diameter": 300,
        "length": 82.6
      }
    },
    {
      "type": "Feature",
      "geometry": {
        "type": "LineString",
        "coordinates": [
          [
            37.638461838842,
            55.697638536901
          ],
          [
            37.63852373446,
            55.697625268841
          ],
          [
            37.638531546704,
            55.697636893105
          ],
          [
            37.638562852026,
            55.697683473926
          ]
        ]
      },
      "properties": {
        "id": "cost_cheapest_new_12_1",
        "variant_id": "cost_cheapest",
        "diameter": 300,
        "length": 11.091
      }
    },
    {
      "type": "Feature",
      "geometry": {
        "type": "LineString",
        "coordinates": [
          [
            37.638562852026,
            55.697683473926
          ],
          [
            37.638578382959,
            55.697706583168
          ],
          [
            37.638604232693,
            55.697745046197
          ],
          [
            37.638571960037,
            55.697751964231
          ]
        ]
      },
      "properties": {
        "id": "cost_cheapest_new_12_2",
        "variant_id": "cost_cheapest",
        "diameter": 300,
        "length": 9.5
      }
    },
    {
      "type": "Feature",
      "geometry": {
        "type": "LineString",
        "coordinates": [
          [
            37.638571960037,
            55.697751964231
          ],
          [
            37.63851246716,
            55.69776471722
          ]
        ]
      },
      "properties": {
        "id": "cost_cheapest_new_12_3",
        "variant_id": "cost_cheapest",
        "diameter": 300,
        "length": 4.0
      }
    },
    {
      "type": "Feature",
      "geometry": {
        "type": "LineString",
        "coordinates": [
          [
            37.63851246716,
            55.69776471722
          ],
          [
            37.638476635266,
            55.697772398184
          ],
          [
            37.638397590991,
            55.697789342154
          ],
          [
            37.638371171424,
            55.697795005451
          ]
        ]
      },
      "properties": {
        "id": "cost_cheapest_new_12_4",
        "variant_id": "cost_cheapest",
        "diameter": 300,
        "length": 9.5
      }
    },
    {
      "type": "Feature",
      "geometry": {
        "type": "LineString",
        "coordinates": [
          [
            37.638371171424,
            55.697795005451
          ],
          [
            37.638318546648,
            55.697806286073
          ],
          [
            37.638196708309,
            55.69783240317
          ]
        ]
      },
      "properties": {
        "id": "cost_cheapest_new_12_5",
        "variant_id": "cost_cheapest",
        "diameter": 300,
        "length": 11.73
      }
    },
    {
      "type": "Feature",
      "geometry": {
        "type": "LineString",
        "coordinates": [
          [
            37.632391173049,
            55.70027401973
          ],
          [
            37.632237595014,
            55.700306929853
          ],
          [
            37.632202633433,
            55.700314421709
          ]
        ]
      },
      "properties": {
        "id": "cost_cheapest_new_13_1",
        "variant_id": "cost_cheapest",
        "diameter": 100,
        "length": 12.675
      }
    },
    {
      "type": "Feature",
      "geometry": {
        "type": "LineString",
        "coordinates": [
          [
            37.632391173049,
            55.70027401973
          ],
          [
            37.632393893375,
            55.700278068264
          ],
          [
            37.632421671356,
            55.700319408876
          ],
          [
            37.632494875855,
            55.700303721849
          ],
          [
            37.632522452168,
            55.700297812493
          ],
          [
            37.632550028473,
            55.700291903131
          ],
          [
            37.632818752375,
            55.700234317519
          ],
          [
            37.632846602295,
            55.700275764475
          ]
        ]
      },
      "properties": {
        "id": "cost_cheapest_new_14_1",
        "variant_id": "cost_cheapest",
        "diameter": 125,
        "length": 37.033
      }
    },
    {
      "type": "Feature",
      "geometry": {
        "type": "LineString",
        "coordinates": [
          [
            37.633209299511,
            55.698757217413
          ],
          [
            37.633149459432,
            55.698668159802
          ],
          [
            37.633139321938,
            55.698653072531
          ]
        ]
      },
      "properties": {
        "id": "cost_cheapest_new_15_1",
        "variant_id": "cost_cheapest",
        "diameter": 125,
        "length": 12.398
      }
    },
    {
      "type": "Feature",
      "geometry": {
        "type": "LineString",
        "coordinates": [
          [
            37.633209299511,
            55.698757217413
          ],
          [
            37.63312977014,
            55.698774261022
          ],
          [
            37.633090687866,
            55.698782636558
          ],
          [
            37.633105518388,
            55.698804708267
          ],
          [
            37.633342513797,
            55.699157416061
          ],
          [
            37.633570456725,
            55.699496645163
          ]
        ]
      },
      "properties": {
        "id": "cost_cheapest_new_16_1",
        "variant_id": "cost_cheapest",
        "diameter": 200,
        "length": 92.974
      }
    },
    {
      "type": "Feature",
      "geometry": {
        "type": "LineString",
        "coordinates": [
          [
            37.634652449129,
            55.698447930443
          ],
          [
            37.634379770805,
            55.698506370868
          ],
          [
            37.633366993176,
            55.698723422542
          ],
          [
            37.633209299511,
            55.698757217413
          ]
        ]
      },
      "properties": {
        "id": "cost_cheapest_new_17_1",
        "variant_id": "cost_cheapest",
        "diameter": 200,
        "length": 97.026
      }
    },
    {
      "type": "Feature",
      "geometry": {
        "type": "LineString",
        "coordinates": [
          [
            37.634131835984,
            55.697673150823
          ],
          [
            37.634020524134,
            55.697697007224
          ],
          [
            37.633901056125,
            55.697722611511
          ]
        ]
      },
      "properties": {
        "id": "cost_cheapest_new_18_1",
        "variant_id": "cost_cheapest",
        "diameter": 100,
        "length": 15.516
      }
    },
    {
      "type": "Feature",
      "geometry": {
        "type": "LineString",
        "coordinates": [
          [
            37.634131835984,
            55.697673150823
          ],
          [
            37.634089594738,
            55.697610285719
          ],
          [
            37.634052224692,
            55.69755466995
          ],
          [
            37.63401485475,
            55.697499054169
          ],
          [
            37.634003344399,
            55.697481923865
          ]
        ]
      },
      "properties": {
        "id": "cost_cheapest_new_19_1",
        "variant_id": "cost_cheapest",
        "diameter": 200,
        "length": 22.765
      }
    },
    {
      "type": "Feature",
      "geometry": {
        "type": "LineString",
        "coordinates": [
          [
            37.634652449129,
            55.698447930443
          ],
          [
            37.634553689694,
            55.698300958557
          ],
          [
            37.634174077364,
            55.697736015911
          ],
          [
            37.634131835984,
            55.697673150823
          ]
        ]
      },
      "properties": {
        "id": "cost_cheapest_new_20_1",
        "variant_id": "cost_cheapest",
        "diameter": 200,
        "length": 92.235
      }
    },
    {
      "type": "Feature",
      "geometry": {
        "type": "LineString",
        "coordinates": [
          [
            37.639132446285,
            55.698021663625
          ],
          [
            37.639030074861,
            55.697869344466
          ],
          [
            37.639016338426,
            55.697848905833
          ],
          [
            37.639052528151,
            55.697841147998
          ],
          [
            37.640353183308,
            55.697562322989
          ]
        ]
      },
      "properties": {
        "id": "cost_cheapest_new_21_1",
        "variant_id": "cost_cheapest",
        "diameter": 200,
        "length": 110.45
      }
    },
    {
      "type": "Feature",
      "geometry": {
        "type": "LineString",
        "coordinates": [
          [
            37.634960224514,
            55.698526114105
          ],
          [
            37.635461700692,
            55.699272371772
          ],
          [
            37.636074731157,
            55.70018459481
          ],
          [
            37.636096132497,
            55.700216440367
          ],
          [
            37.636152523345,
            55.700204354388
          ],
          [
            37.636381851248,
            55.700155203293
          ]
        ]
      },
      "properties": {
        "id": "cost_cheapest_new_22_1",
        "variant_id": "cost_cheapest",
        "diameter": 150,
        "length": 220.438
      }
    },
    {
      "type": "Feature",
      "geometry": {
        "type": "LineString",
        "coordinates": [
          [
            37.634003344399,
            55.697481923865
          ],
          [
            37.634033675936,
            55.697475423179
          ],
          [
            37.63421261847,
            55.697437071832
          ],
          [
            37.634391560657,
            55.697398720222
          ],
          [
            37.63452532492,
            55.697370051106
          ],
          [
            37.63447456245,
            55.697294505072
          ],
          [
            37.634446267723,
            55.697252395986
          ]
        ]
      },
      "properties": {
        "id": "cost_cheapest_new_23_1",
        "variant_id": "cost_cheapest",
        "diameter": 125,
        "length": 49.101
      }
    },
    {
      "type": "Feature",
      "geometry": {
        "type": "LineString",
        "coordinates": [
          [
            37.636968165182,
            55.69809574323
          ],
          [
            37.636897252298,
            55.697990221856
          ],
          [
            37.63688856403,
            55.697977293306
          ],
          [
            37.636460127081,
            55.697339747704
          ],
          [
            37.636318344807,
            55.697370137859
          ],
          [
            37.636164791434,
            55.697403050838
          ],
          [
            37.636106514928,
            55.697316328445
          ],
          [
            37.636093240038,
            55.697296573769
          ]
        ]
      },
      "properties": {
        "id": "cost_cheapest_new_24_1",
        "variant_id": "cost_cheapest",
        "diameter": 125,
        "length": 122.533
      }
    },
    {
      "type": "Feature",
      "geometry": {
        "type": "LineString",
        "coordinates": [
          [
            37.633570456725,
            55.699496645163
          ],
          [
            37.633546590427,
            55.699501759837
          ],
          [
            37.633496085311,
            55.699512583332
          ],
          [
            37.633496090096,
            55.699512590452
          ],
          [
            37.633445572345,
            55.699523416628
          ],
          [
            37.633204498734,
            55.699575079394
          ]
        ]
      },
      "properties": {
        "id": "cost_cheapest_new_25_1",
        "variant_id": "cost_cheapest",
        "diameter": 65,
        "length": 24.605
      }
    },
    {
      "type": "Feature",
      "geometry": {
        "type": "LineString",
        "coordinates": [
          [
            37.634003344399,
            55.697481923865
          ],
          [
            37.633991834057,
            55.69746479356
          ],
          [
            37.633966127863,
            55.697426536173
          ],
          [
            37.633837724925,
            55.697454055512
          ],
          [
            37.63375244097,
            55.697472333488
          ]
        ]
      },
      "properties": {
        "id": "cost_cheapest_new_26_1",
        "variant_id": "cost_cheapest",
        "diameter": 100,
        "length": 20.961
      }
    },
    {
      "type": "Feature",
      "geometry": {
        "type": "LineString",
        "coordinates": [
          [
            37.634003344399,
            55.697481923865
          ],
          [
            37.633973012851,
            55.697488424545
          ],
          [
            37.632762645044,
            55.697747823538
          ],
          [
            37.63273909042,
            55.697752871475
          ],
          [
            37.632288742697,
            55.697082595789
          ],
          [
            37.632235062606,
            55.697002699324
          ],
          [
            37.632093596621,
            55.697033016386
          ],
          [
            37.632034439325,
            55.697045694109
          ]
        ]
      },
      "properties": {
        "id": "cost_cheapest_new_27_1",
        "variant_id": "cost_cheapest",
        "diameter": 125,
        "length": 187.793
      }
    },
    {
      "type": "Feature",
      "geometry": {
        "type": "LineString",
        "coordinates": [
          [
            37.640353183308,
            55.697562322989
          ],
          [
            37.640396837518,
            55.697552964407
          ],
          [
            37.640427548281,
            55.697546380627
          ],
          [
            37.640926183092,
            55.698288251921
          ],
          [
            37.640975811655,
            55.698362087905
          ],
          [
            37.640845071933,
            55.69839011591
          ],
          [
            37.640764466155,
            55.698407396101
          ]
        ]
      },
      "properties": {
        "id": "cost_cheapest_new_28_1",
        "variant_id": "cost_cheapest",
        "diameter": 200,
        "length": 116.32
      }
    },
    {
      "type": "Feature",
      "geometry": {
        "type": "LineString",
        "coordinates": [
          [
            37.640353183308,
            55.697562322989
          ],
          [
            37.64034895258,
            55.697556028345
          ],
          [
            37.639901540648,
            55.696890339193
          ],
          [
            37.63976844548,
            55.696918871933
          ],
          [
            37.639606530213,
            55.696953582831
          ],
          [
            37.639545070997,
            55.696862136827
          ],
          [
            37.639538145943,
            55.696851832917
          ]
        ]
      },
      "properties": {
        "id": "cost_cheapest_new_29_1",
        "variant_id": "cost_cheapest",
        "diameter": 100,
        "length": 111.949
      }
    },
    {
      "type": "Feature",
      "geometry": {
        "type": "LineString",
        "coordinates": [
          [
            37.634960224514,
            55.698526114105
          ],
          [
            37.6347371173,
            55.698573931049
          ],
          [
            37.634652449129,
            55.698447930443
          ]
        ]
      },
      "properties": {
        "id": "cost_cheapest_new_30_1",
        "variant_id": "cost_cheapest",
        "diameter": 250,
        "length": 30.0
      }
    }
  ]
}