{
  "type": "FeatureCollection",
  "features": [
    {
      "type": "Feature",
      "geometry": {
        "type": "Point",
        "coordinates": [
          37.638562852026,
          55.697683473926
        ]
      },
      "properties": {
        "id": "cost_cheapest_profile_12_1",
        "object_type": "technical_node",
        "variant_id": "cost_cheapest"
      }
    },
    {
      "type": "Feature",
      "geometry": {
        "type": "Point",
        "coordinates": [
          37.638571960037,
          55.697751964231
        ]
      },
      "properties": {
        "id": "cost_cheapest_profile_12_2",
        "object_type": "technical_node",
        "variant_id": "cost_cheapest"
      }
    },
    {
      "type": "Feature",
      "geometry": {
        "type": "Point",
        "coordinates": [
          37.63851246716,
          55.69776471722
        ]
      },
      "properties": {
        "id": "cost_cheapest_profile_12_3",
        "object_type": "technical_node",
        "variant_id": "cost_cheapest"
      }
    },
    {
      "type": "Feature",
      "geometry": {
        "type": "Point",
        "coordinates": [
          37.638371171424,
          55.697795005451
        ]
      },
      "properties": {
        "id": "cost_cheapest_profile_12_4",
        "object_type": "technical_node",
        "variant_id": "cost_cheapest"
      }
    },
    {
      "type": "Feature",
      "geometry": {
        "type": "Point",
        "coordinates": [
          37.638461838842,
          55.697638536901
        ]
      },
      "properties": {
        "id": "cost_cheapest_tie_tie_chamber_106",
        "object_type": "tie_in",
        "variant_id": "cost_cheapest",
        "existing_object_id": "106",
        "existing_object_type": "heat_chamber",
        "existing_diameter": 300,
        "required_diameter": 300,
        "cost": 5000000
      }
    },
    {
      "type": "Feature",
      "geometry": {
        "type": "Point",
        "coordinates": [
          37.639132446285,
          55.698021663625
        ]
      },
      "properties": {
        "id": "cost_cheapest_tie_tie_chamber_110",
        "object_type": "tie_in",
        "variant_id": "cost_cheapest",
        "existing_object_id": "110",
        "existing_object_type": "heat_chamber",
        "existing_diameter": 300,
        "required_diameter": 200,
        "cost": 5000000
      }
    },
    {
      "type": "Feature",
      "geometry": {
        "type": "Point",
        "coordinates": [
          37.634038266911,
          55.699559750384
        ]
      },
      "properties": {
        "id": "cost_cheapest_new_chamber_1",
        "object_type": "heat_chamber",
        "variant_id": "cost_cheapest",
        "diameter": 150,
        "cost": 3000000
      }
    },
    {
      "type": "Feature",
      "geometry": {
        "type": "Point",
        "coordinates": [
          37.634652449129,
          55.698447930443
        ]
      },
      "properties": {
        "id": "cost_cheapest_new_chamber_10",
        "object_type": "heat_chamber",
        "variant_id": "cost_cheapest",
        "diameter": 250,
        "cost": 5000000
      }
    },
    {
      "type": "Feature",
      "geometry": {
        "type": "Point",
        "coordinates": [
          37.634960224514,
          55.698526114105
        ]
      },
      "properties": {
        "id": "cost_cheapest_new_chamber_11",
        "object_type": "heat_chamber",
        "variant_id": "cost_cheapest",
        "diameter": 300,
        "cost": 5000000
      }
    },
    {
      "type": "Feature",
      "geometry": {
        "type": "Point",
        "coordinates": [
          37.636968165182,
          55.69809574323
        ]
      },
      "properties": {
        "id": "cost_cheapest_new_chamber_12",
        "object_type": "heat_chamber",
        "variant_id": "cost_cheapest",
        "diameter": 300,
        "cost": 5000000
      }
    },
    {
      "type": "Feature",
      "geometry": {
        "type": "Point",
        "coordinates": [
          37.640353183308,
          55.697562322989
        ]
      },
      "properties": {
        "id": "cost_cheapest_new_chamber_13",
        "object_type": "heat_chamber",
        "variant_id": "cost_cheapest",
        "diameter": 200,
        "cost": 3000000
      }
    },
    {
      "type": "Feature",
      "geometry": {
        "type": "Point",
        "coordinates": [
          37.635307488793,
          55.698451686441
        ]
      },
      "properties": {
        "id": "cost_cheapest_new_chamber_2",
        "object_type": "heat_chamber",
        "variant_id": "cost_cheapest",
        "diameter": 300,
        "cost": 5000000
      }
    },
    {
      "type": "Feature",
      "geometry": {
        "type": "Point",
        "coordinates": [
          37.632210880108,
          55.700005696237
        ]
      },
      "properties": {
        "id": "cost_cheapest_new_chamber_3",
        "object_type": "heat_chamber",
        "variant_id": "cost_cheapest",
        "diameter": 150,
        "cost": 3000000
      }
    },
    {
      "type": "Feature",
      "geometry": {
        "type": "Point",
        "coordinates": [
          37.638196708309,
          55.69783240317
        ]
      },
      "properties": {
        "id": "cost_cheapest_new_chamber_4",
        "object_type": "heat_chamber",
        "variant_id": "cost_cheapest",
        "diameter": 300,
        "cost": 5000000
      }
    },
    {
      "type": "Feature",
      "geometry": {
        "type": "Point",
        "coordinates": [
          37.632391173049,
          55.70027401973
        ]
      },
      "properties": {
        "id": "cost_cheapest_new_chamber_5",
        "object_type": "heat_chamber",
        "variant_id": "cost_cheapest",
        "diameter": 150,
        "cost": 3000000
      }
    },
    {
      "type": "Feature",
      "geometry": {
        "type": "Point",
        "coordinates": [
          37.633209299511,
          55.698757217413
        ]
      },
      "properties": {
        "id": "cost_cheapest_new_chamber_6",
        "object_type": "heat_chamber",
        "variant_id": "cost_cheapest",
        "diameter": 200,
        "cost": 3000000
      }
    },
    {
      "type": "Feature",
      "geometry": {
        "type": "Point",
        "coordinates": [
          37.634131835984,
          55.697673150823
        ]
      },
      "properties": {
        "id": "cost_cheapest_new_chamber_7",
        "object_type": "heat_chamber",
        "variant_id": "cost_cheapest",
        "diameter": 200,
        "cost": 3000000
      }
    },
    {
      "type": "Feature",
      "geometry": {
        "type": "Point",
        "coordinates": [
          37.633570456725,
          55.699496645163
        ]
      },
      "properties": {
        "id": "cost_cheapest_new_chamber_8",
        "object_type": "heat_chamber",
        "variant_id": "cost_cheapest",
        "diameter": 200,
        "cost": 3000000
      }
    },
    {
      "type": "Feature",
      "geometry": {
        "type": "Point",
        "coordinates": [
          37.634003344399,
          55.697481923865
        ]
      },
      "properties": {
        "id": "cost_cheapest_new_chamber_9",
        "object_type": "heat_chamber",
        "variant_id": "cost_cheapest",
        "diameter": 200,
        "cost": 3000000
      }
    },
    {
      "type": "Feature",
      "geometry": {
        "type": "Point",
        "coordinates": [
          37.638498341606,
          55.697630712105
        ]
      },
      "properties": {
        "id": "cost_demand_profile_9_1",
        "object_type": "technical_node",
        "variant_id": "cost_demand"
      }
    },
    {
      "type": "Feature",
      "geometry": {
        "type": "Point",
        "coordinates": [
          37.638460805776,
          55.697583591556
        ]
      },
      "properties": {
        "id": "cost_demand_profile_9_2",
        "object_type": "technical_node",
        "variant_id": "cost_demand"
      }
    },
    {
      "type": "Feature",
      "geometry": {
        "type": "Point",
        "coordinates": [
          37.63840131312,
          55.697596344492
        ]
      },
      "properties": {
        "id": "cost_demand_profile_9_3",
        "object_type": "technical_node",
        "variant_id": "cost_demand"
      }
    },
    {
      "type": "Feature",
      "geometry": {
        "type": "Point",
        "coordinates": [
          37.63826001791,
          55.697626632599
        ]
      },
      "properties": {
        "id": "cost_demand_profile_9_4",
        "object_type": "technical_node",
        "variant_id": "cost_demand"
      }
    },
    {
      "type": "Feature",
      "geometry": {
        "type": "Point",
        "coordinates": [
          37.639132446285,
          55.698021663625
        ]
      },
      "properties": {
        "id": "cost_demand_tie_tie_chamber_110",
        "object_type": "tie_in",
        "variant_id": "cost_demand",
        "existing_object_id": "110",
        "existing_object_type": "heat_chamber",
        "existing_diameter": 300,
        "required_diameter": 200,
        "cost": 5000000
      }
    },
    {
      "type": "Feature",
      "geometry": {
        "type": "Point",
        "coordinates": [
          37.638461838842,
          55.697638536901
        ]
      },
      "properties": {
        "id": "cost_demand_tie_tie_chamber_106",
        "object_type": "tie_in",
        "variant_id": "cost_demand",
        "existing_object_id": "106",
        "existing_object_type": "heat_chamber",
        "existing_diameter": 300,
        "required_diameter": 300,
        "cost": 5000000
      }
    },
    {
      "type": "Feature",
      "geometry": {
        "type": "Point",
        "coordinates": [
          37.63452532492,
          55.697370051106
        ]
      },
      "properties": {
        "id": "cost_demand_new_chamber_1",
        "object_type": "heat_chamber",
        "variant_id": "cost_demand",
        "diameter": 200,
        "cost": 3000000
      }
    },
    {
      "type": "Feature",
      "geometry": {
        "type": "Point",
        "coordinates": [
          37.640353183308,
          55.697562322989
        ]
      },
      "properties": {
        "id": "cost_demand_new_chamber_10",
        "object_type": "heat_chamber",
        "variant_id": "cost_demand",
        "diameter": 200,
        "cost": 3000000
      }
    },
    {
      "type": "Feature",
      "geometry": {
        "type": "Point",
        "coordinates": [
          37.636388574993,
          55.697233270802
        ]
      },
      "properties": {
        "id": "cost_demand_new_chamber_2",
        "object_type": "heat_chamber",
        "variant_id": "cost_demand",
        "diameter": 200,
        "cost": 3000000
      }
    },
    {
      "type": "Feature",
      "geometry": {
        "type": "Point",
        "coordinates": [
          37.633289159824,
          55.699701073844
        ]
      },
      "properties": {
        "id": "cost_demand_new_chamber_3",
        "object_type": "heat_chamber",
        "variant_id": "cost_demand",
        "diameter": 200,
        "cost": 3000000
      }
    },
    {
      "type": "Feature",
      "geometry": {
        "type": "Point",
        "coordinates": [
          37.632857617916,
          55.700081843576
        ]
      },
      "properties": {
        "id": "cost_demand_new_chamber_4",
        "object_type": "heat_chamber",
        "variant_id": "cost_demand",
        "diameter": 150,
        "cost": 3000000
      }
    },
    {
      "type": "Feature",
      "geometry": {
        "type": "Point",
        "coordinates": [
          37.633952609493,
          55.699558893155
        ]
      },
      "properties": {
        "id": "cost_demand_new_chamber_5",
        "object_type": "heat_chamber",
        "variant_id": "cost_demand",
        "diameter": 200,
        "cost": 3000000
      }
    },
    {
      "type": "Feature",
      "geometry": {
        "type": "Point",
        "coordinates": [
          37.633780242013,
          55.697529739103
        ]
      },
      "properties": {
        "id": "cost_demand_new_chamber_6",
        "object_type": "heat_chamber",
        "variant_id": "cost_demand",
        "diameter": 200,
        "cost": 3000000
      }
    },
    {
      "type": "Feature",
      "geometry": {
        "type": "Point",
        "coordinates": [
          37.63555517445,
          55.698398600259
        ]
      },
      "properties": {
        "id": "cost_demand_new_chamber_7",
        "object_type": "heat_chamber",
        "variant_id": "cost_demand",
        "diameter": 200,
        "cost": 3000000
      }
    },
    {
      "type": "Feature",
      "geometry": {
        "type": "Point",
        "coordinates": [
          37.636855266149,
          55.697927744405
        ]
      },
      "properties": {
        "id": "cost_demand_new_chamber_8",
        "object_type": "heat_chamber",
        "variant_id": "cost_demand",
        "diameter": 300,
        "cost": 5000000
      }
    },
    {
      "type": "Feature",
      "geometry": {
        "type": "Point",
        "coordinates": [
          37.638119498001,
          55.697656754304
        ]
      },
      "properties": {
        "id": "cost_demand_new_chamber_9",
        "object_type": "heat_chamber",
        "variant_id": "cost_demand",
        "diameter": 300,
        "cost": 5000000
      }
    }
  ]
}