{
  "type": "FeatureCollection",
  "features": [
    {
      "type": "Feature",
      "geometry": {
        "type": "LineString",
        "coordinates": [
          [
            37.634038266911,
            55.699559750384
          ],
          [
            37.634063296647,
            55.699554386272
          ],
          [
            37.634405403981,
            55.699481068732
          ]
        ]
      },
      "properties": {
        "id": "cost_cheapest_new_1_1",
        "object_type": "heat_network",
        "variant_id": "cost_cheapest",
        "start_node_id": "cost_cheapest_new_chamber_1",
        "end_node_id": "1",
        "flow_tph": 24.87,
        "diameter": 125,
        "length": 24.683,
        "laying_method": "base",
        "depth_start": 3.0,
        "depth_end": 3.0,
        "depth_factor": 1.0,
        "special_factor": 1.0,
        "crossing_object_ids": "",
        "bend_count": 0,
        "bend_penalty_cost": 0.0,
        "cost": 2401014.98
      }
    },
    {
      "type": "Feature",
      "geometry": {
        "type": "LineString",
        "coordinates": [
          [
            37.633570456725,
            55.699496645163
          ],
          [
            37.633883393785,
            55.69942958053
          ],
          [
            37.633942312891,
            55.699416953633
          ],
          [
            37.634038266911,
            55.699559750384
          ]
        ]
      },
      "properties": {
        "id": "cost_cheapest_new_2_1",
        "object_type": "heat_network",
        "variant_id": "cost_cheapest",
        "start_node_id": "cost_cheapest_new_chamber_8",
        "end_node_id": "cost_cheapest_new_chamber_1",
        "flow_tph": 43.63,
        "diameter": 150,
        "length": 41.999,
        "laying_method": "base",
        "depth_start": 3.0,
        "depth_end": 3.0,
        "depth_factor": 1.0,
        "special_factor": 1.0,
        "crossing_object_ids": "",
        "bend_count": 1,
        "bend_penalty_cost": 0.0,
        "cost": 4431237.95
      }
    },
    {
      "type": "Feature",
      "geometry": {
        "type": "LineString",
        "coordinates": [
          [
            37.634038266911,
            55.699559750384
          ],
          [
            37.634146930711,
            55.699721460227
          ],
          [
            37.634265093953,
            55.699897305215
          ],
          [
            37.634279941848,
            55.699919401035
          ],
          [
            37.634319067954,
            55.699911015924
          ],
          [
            37.634582926007,
            55.699854468118
          ]
        ]
      },
      "properties": {
        "id": "cost_cheapest_new_3_1",
        "object_type": "heat_network",
        "variant_id": "cost_cheapest",
        "start_node_id": "cost_cheapest_new_chamber_1",
        "end_node_id": "2",
        "flow_tph": 18.76,
        "diameter": 100,
        "length": 63.185,
        "laying_method": "base",
        "depth_start": 3.0,
        "depth_end": 3.0,
        "depth_factor": 1.0,
        "special_factor": 1.0,
        "crossing_object_ids": "",
        "bend_count": 1,
        "bend_penalty_cost": 0.0,
        "cost": 5670708.75
      }
    },
    {
      "type": "Feature",
      "geometry": {
        "type": "LineString",
        "coordinates": [
          [
            37.635307488793,
            55.698451686441
          ],
          [
            37.635327749549,
            55.698481837101
          ],
          [
            37.635417055874,
            55.698614736028
          ]
        ]
      },
      "properties": {
        "id": "cost_cheapest_new_4_1",
        "object_type": "heat_network",
        "variant_id": "cost_cheapest",
        "start_node_id": "cost_cheapest_new_chamber_2",
        "end_node_id": "5",
        "flow_tph": 26.09,
        "diameter": 125,
        "length": 19.411,
        "laying_method": "base",
        "depth_start": 3.0,
        "depth_end": 3.0,
        "depth_factor": 1.0,
        "special_factor": 1.0,
        "crossing_object_ids": "",
        "bend_count": 0,
        "bend_penalty_cost": 0.0,
        "cost": 1888170.1
      }
    },
    {
      "type": "Feature",
      "geometry": {
        "type": "LineString",
        "coordinates": [
          [
            37.635307488793,
            55.698451686441
          ],
          [
            37.635254101584,
            55.698463128775
          ],
          [
            37.634960224514,
            55.698526114105
          ]
        ]
      },
      "properties": {
        "id": "cost_cheapest_new_5_1",
        "object_type": "heat_network",
        "variant_id": "cost_cheapest",
        "start_node_id": "cost_cheapest_new_chamber_2",
        "end_node_id": "cost_cheapest_new_chamber_11",
        "flow_tph": 304.77,
        "diameter": 300,
        "length": 23.347,
        "laying_method": "base",
        "depth_start": 3.0,
        "depth_end": 3.0,
        "depth_factor": 1.0,
        "special_factor": 1.0,
        "crossing_object_ids": "",
        "bend_count": 0,
        "bend_penalty_cost": 0.0,
        "cost": 3502628.28
      }
    },
    {
      "type": "Feature",
      "geometry": {
        "type": "LineString",
        "coordinates": [
          [
            37.636968165182,
            55.69809574323
          ],
          [
            37.636717882864,
            55.698149389671
          ],
          [
            37.636694990684,
            55.698154296433
          ],
          [
            37.635360875972,
            55.698440244083
          ],
          [
            37.635307488793,
            55.698451686441
          ]
        ]
      },
      "properties": {
        "id": "cost_cheapest_new_6_1",
        "object_type": "heat_network",
        "variant_id": "cost_cheapest",
        "start_node_id": "cost_cheapest_new_chamber_12",
        "end_node_id": "cost_cheapest_new_chamber_2",
        "flow_tph": 330.86,
        "diameter": 300,
        "length": 111.653,
        "laying_method": "base",
        "depth_start": 3.0,
        "depth_end": 3.0,
        "depth_factor": 1.0,
        "special_factor": 1.0,
        "crossing_object_ids": "",
        "bend_count": 0,
        "bend_penalty_cost": 0.0,
        "cost": 16750341.72
      }
    },
    {
      "type": "Feature",
      "geometry": {
        "type": "LineString",
        "coordinates": [
          [
            37.632210880108,
            55.700005696237
          ],
          [
            37.632067418282,
            55.700036438549
          ],
          [
            37.632012226301,
            55.700048265534
          ]
        ]
      },
      "properties": {
        "id": "cost_cheapest_new_7_1",
        "object_type": "heat_network",
        "variant_id": "cost_cheapest",
        "start_node_id": "cost_cheapest_new_chamber_3",
        "end_node_id": "6",
        "flow_tph": 15.99,
        "diameter": 100,
        "length": 13.355,
        "laying_method": "base",
        "depth_start": 3.0,
        "depth_end": 3.0,
        "depth_factor": 1.0,
        "special_factor": 1.0,
        "crossing_object_ids": "",
        "bend_count": 0,
        "bend_penalty_cost": 0.0,
        "cost": 1198606.24
      }
    },
    {
      "type": "Feature",
      "geometry": {
        "type": "LineString",
        "coordinates": [
          [
            37.633570456725,
            55.699496645163
          ],
          [
            37.633698325988,
            55.69968693996
          ],
          [
            37.633206751575,
            55.699792285818
          ],
          [
            37.632354341711,
            55.699974953756
          ],
          [
            37.632210880108,
            55.700005696237
          ]
        ]
      },
      "properties": {
        "id": "cost_cheapest_new_8_1",
        "object_type": "heat_network",
        "variant_id": "cost_cheapest",
        "start_node_id": "cost_cheapest_new_chamber_8",
        "end_node_id": "cost_cheapest_new_chamber_3",
        "flow_tph": 63.44,
        "diameter": 150,
        "length": 122.654,
        "laying_method": "base",
        "depth_start": 3.0,
        "depth_end": 3.0,
        "depth_factor": 1.0,
        "special_factor": 1.0,
        "crossing_object_ids": "",
        "bend_count": 1,
        "bend_penalty_cost": 0.0,
        "cost": 12940845.76
      }
    },
    {
      "type": "Feature",
      "geometry": {
        "type": "LineString",
        "coordinates": [
          [
            37.632210880108,
            55.700005696237
          ],
          [
            37.63226531736,
            55.70008671365
          ],
          [
            37.632299107117,
            55.700137001805
          ],
          [
            37.63233289696,
            55.700187289951
          ],
          [
            37.632391173049,
            55.70027401973
          ]
        ]
      },
      "properties": {
        "id": "cost_cheapest_new_9_1",
        "object_type": "heat_network",
        "variant_id": "cost_cheapest",
        "start_node_id": "cost_cheapest_new_chamber_3",
        "end_node_id": "cost_cheapest_new_chamber_5",
        "flow_tph": 47.45,
        "diameter": 150,
        "length": 31.943,
        "laying_method": "base",
        "depth_start": 3.0,
        "depth_end": 3.0,
        "depth_factor": 1.0,
        "special_factor": 1.0,
        "crossing_object_ids": "",
        "bend_count": 0,
        "bend_penalty_cost": 0.0,
        "cost": 3370180.0
      }
    },
    {
      "type": "Feature",
      "geometry": {
        "type": "LineString",
        "coordinates": [
          [
            37.638196708309,
            55.69783240317
          ],
          [
            37.638205396978,
            55.697845331631
          ],
          [
            37.638242952584,
            55.697901213061
          ],
          [
            37.638280304046,
            55.697956790567
          ]
        ]
      },
      "properties": {
        "id": "cost_cheapest_new_10_1",
        "object_type": "heat_network",
        "variant_id": "cost_cheapest",
        "start_node_id": "cost_cheapest_new_chamber_4",
        "end_node_id": "7",
        "flow_tph": 27.82,
        "diameter": 125,
        "length": 14.808,
        "laying_method": "base",
        "depth_start": 3.0,
        "depth_end": 3.0,
        "depth_factor": 1.0,
        "special_factor": 1.0,
        "crossing_object_ids": "",
        "bend_count": 0,
        "bend_penalty_cost": 0.0,
        "cost": 1440470.75
      }
    },
    {
      "type": "Feature",
      "geometry": {
        "type": "LineString",
        "coordinates": [
          [
            37.638196708309,
            55.69783240317
          ],
          [
            37.638074869809,
            55.697858520145
          ],
          [
            37.636968165182,
            55.69809574323
          ]
        ]
      },
      "properties": {
        "id": "cost_cheapest_new_11_1",
        "object_type": "heat_network",
        "variant_id": "cost_cheapest",
        "start_node_id": "cost_cheapest_new_chamber_4",
        "end_node_id": "cost_cheapest_new_chamber_12",
        "flow_tph": 364.0,
        "diameter": 300,
        "length": 82.6,
        "laying_method": "base",
        "depth_start": 3.0,
        "depth_end": 3.0,
        "depth_factor": 1.0,
        "special_factor": 1.0,
        "crossing_object_ids": "",
        "bend_count": 0,
        "bend_penalty_cost": 0.0,
        "cost": 12391841.89
      }
    },
    {
      "type": "Feature",
      "geometry": {
        "type": "Point",
        "coordinates": [
          37.638562852026,
          55.697683473926
        ]
      },
      "properties": {
        "id": "cost_cheapest_profile_12_1",
        "object_type": "technical_node",
        "variant_id": "cost_cheapest",
        "depth": 3.0
      }
    },
    {
      "type": "Feature",
      "geometry": {
        "type": "LineString",
        "coordinates": [
          [
            37.638461838842,
            55.697638536901
          ],
          [
            37.63852373446,
            55.697625268841
          ],
          [
            37.638531546704,
            55.697636893105
          ],
          [
            37.638562852026,
            55.697683473926
          ]
        ]
      },
      "properties": {
        "id": "cost_cheapest_new_12_1",
        "object_type": "heat_network",
        "variant_id": "cost_cheapest",
        "start_node_id": "cost_cheapest_tie_tie_chamber_106",
        "end_node_id": "cost_cheapest_profile_12_1",
        "flow_tph": 391.82,
        "diameter": 300,
        "length": 11.091,
        "laying_method": "base",
        "depth_start": 3.0,
        "depth_end": 3.0,
        "depth_factor": 1.0,
        "special_factor": 1.0,
        "crossing_object_ids": "",
        "bend_count": 1,
        "bend_penalty_cost": 0.0,
        "cost": 1663870.9
      }
    },
    {
      "type": "Feature",
      "geometry": {
        "type": "Point",
        "coordinates": [
          37.638571960037,
          55.697751964231
        ]
      },
      "properties": {
        "id": "cost_cheapest_profile_12_2",
        "object_type": "technical_node",
        "variant_id": "cost_cheapest",
        "depth": 2.05
      }
    },
    {
      "type": "Feature",
      "geometry": {
        "type": "LineString",
        "coordinates": [
          [
            37.638562852026,
            55.697683473926
          ],
          [
            37.638578382959,
            55.697706583168
          ],
          [
            37.638604232693,
            55.697745046197
          ],
          [
            37.638571960037,
            55.697751964231
          ]
        ]
      },
      "properties": {
        "id": "cost_cheapest_new_12_2",
        "object_type": "heat_network",
        "variant_id": "cost_cheapest",
        "start_node_id": "cost_cheapest_profile_12_1",
        "end_node_id": "cost_cheapest_profile_12_2",
        "flow_tph": 391.82,
        "diameter": 300,
        "length": 9.5,
        "laying_method": "base",
        "depth_start": 3.0,
        "depth_end": 2.05,
        "depth_factor": 1.0,
        "special_factor": 1.0,
        "crossing_object_ids": "",
        "bend_count": 1,
        "bend_penalty_cost": 0.0,
        "cost": 1425209.0
      }
    },
    {
      "type": "Feature",
      "geometry": {
        "type": "Point",
        "coordinates": [
          37.63851246716,
          55.69776471722
        ]
      },
      "properties": {
        "id": "cost_cheapest_profile_12_3",
        "object_type": "technical_node",
        "variant_id": "cost_cheapest",
        "depth": 2.05
      }
    },
    {
      "type": "Feature",
      "geometry": {
        "type": "LineString",
        "coordinates": [
          [
            37.638571960037,
            55.697751964231
          ],
          [
            37.63851246716,
            55.69776471722
          ]
        ]
      },
      "properties": {
        "id": "cost_cheapest_new_12_3",
        "object_type": "heat_network",
        "variant_id": "cost_cheapest",
        "start_node_id": "cost_cheapest_profile_12_2",
        "end_node_id": "cost_cheapest_profile_12_3",
        "flow_tph": 391.82,
        "diameter": 300,
        "length": 4.0,
        "laying_method": "special",
        "depth_start": 2.05,
        "depth_end": 2.05,
        "depth_factor": 1.0,
        "special_factor": 1.05,
        "crossing_object_ids": "126",
        "bend_count": 0,
        "bend_penalty_cost": 0.0,
        "cost": 630092.4
      }
    },
    {
      "type": "Feature",
      "geometry": {
        "type": "Point",
        "coordinates": [
          37.638371171424,
          55.697795005451
        ]
      },
      "properties": {
        "id": "cost_cheapest_profile_12_4",
        "object_type": "technical_node",
        "variant_id": "cost_cheapest",
        "depth": 3.0
      }
    },
    {
      "type": "Feature",
      "geometry": {
        "type": "LineString",
        "coordinates": [
          [
            37.63851246716,
            55.69776471722
          ],
          [
            37.638476635266,
            55.697772398184
          ],
          [
            37.638397590991,
            55.697789342154
          ],
          [
            37.638371171424,
            55.697795005451
          ]
        ]
      },
      "properties": {
        "id": "cost_cheapest_new_12_4",
        "object_type": "heat_network",
        "variant_id": "cost_cheapest",
        "start_node_id": "cost_cheapest_profile_12_3",
        "end_node_id": "cost_cheapest_profile_12_4",
        "flow_tph": 391.82,
        "diameter": 300,
        "length": 9.5,
        "laying_method": "base",
        "depth_start": 2.05,
        "depth_end": 3.0,
        "depth_factor": 1.0,
        "special_factor": 1.0,
        "crossing_object_ids": "",
        "bend_count": 0,
        "bend_penalty_cost": 0.0,
        "cost": 1425209.0
      }
    },
    {
      "type": "Feature",
      "geometry": {
        "type": "LineString",
        "coordinates": [
          [
            37.638371171424,
            55.697795005451
          ],
          [
            37.638318546648,
            55.697806286073
          ],
          [
            37.638196708309,
            55.69783240317
          ]
        ]
      },
      "properties": {
        "id": "cost_cheapest_new_12_5",
        "object_type": "heat_network",
        "variant_id": "cost_cheapest",
        "start_node_id": "cost_cheapest_profile_12_4",
        "end_node_id": "cost_cheapest_new_chamber_4",
        "flow_tph": 391.82,
        "diameter": 300,
        "length": 11.73,
        "laying_method": "base",
        "depth_start": 3.0,
        "depth_end": 3.0,
        "depth_factor": 1.0,
        "special_factor": 1.0,
        "crossing_object_ids": "",
        "bend_count": 0,
        "bend_penalty_cost": 0.0,
        "cost": 1759755.7
      }
    },
    {
      "type": "Feature",
      "geometry": {
        "type": "LineString",
        "coordinates": [
          [
            37.632391173049,
            55.70027401973
          ],
          [
            37.632237595014,
            55.700306929853
          ],
          [
            37.632202633433,
            55.700314421709
          ]
        ]
      },
      "properties": {
        "id": "cost_cheapest_new_13_1",
        "object_type": "heat_network",
        "variant_id": "cost_cheapest",
        "start_node_id": "cost_cheapest_new_chamber_5",
        "end_node_id": "8",
        "flow_tph": 18.03,
        "diameter": 100,
        "length": 12.675,
        "laying_method": "base",
        "depth_start": 3.0,
        "depth_end": 3.0,
        "depth_factor": 1.0,
        "special_factor": 1.0,
        "crossing_object_ids": "",
        "bend_count": 0,
        "bend_penalty_cost": 0.0,
        "cost": 1137574.15
      }
    },
    {
      "type": "Feature",
      "geometry": {
        "type": "LineString",
        "coordinates": [
          [
            37.632391173049,
            55.70027401973
          ],
          [
            37.632393893375,
            55.700278068264
          ],
          [
            37.632421671356,
            55.700319408876
          ],
          [
            37.632494875855,
            55.700303721849
          ],
          [
            37.632522452168,
            55.700297812493
          ],
          [
            37.632550028473,
            55.700291903131
          ],
          [
            37.632818752375,
            55.700234317519
          ],
          [
            37.632846602295,
            55.700275764475
          ]
        ]
      },
      "properties": {
        "id": "cost_cheapest_new_14_1",
        "object_type": "heat_network",
        "variant_id": "cost_cheapest",
        "start_node_id": "cost_cheapest_new_chamber_5",
        "end_node_id": "3",
        "flow_tph": 29.42,
        "diameter": 125,
        "length": 37.033,
        "laying_method": "base",
        "depth_start": 3.0,
        "depth_end": 3.0,
        "depth_factor": 1.0,
        "special_factor": 1.0,
        "crossing_object_ids": "",
        "bend_count": 2,
        "bend_penalty_cost": 0.0,
        "cost": 3602348.02
      }
    },
    {
      "type": "Feature",
      "geometry": {
        "type": "LineString",
        "coordinates": [
          [
            37.633209299511,
            55.698757217413
          ],
          [
            37.633149459432,
            55.698668159802
          ],
          [
            37.633139321938,
            55.698653072531
          ]
        ]
      },
      "properties": {
        "id": "cost_cheapest_new_15_1",
        "object_type": "heat_network",
        "variant_id": "cost_cheapest",
        "start_node_id": "cost_cheapest_new_chamber_6",
        "end_node_id": "12",
        "flow_tph": 40.0,
        "diameter": 125,
        "length": 12.398,
        "laying_method": "base",
        "depth_start": 3.0,
        "depth_end": 3.0,
        "depth_factor": 1.0,
        "special_factor": 1.0,
        "crossing_object_ids": "",
        "bend_count": 0,
        "bend_penalty_cost": 0.0,
        "cost": 1206019.35
      }
    },
    {
      "type": "Feature",
      "geometry": {
        "type": "LineString",
        "coordinates": [
          [
            37.633209299511,
            55.698757217413
          ],
          [
            37.63312977014,
            55.698774261022
          ],
          [
            37.633090687866,
            55.698782636558
          ],
          [
            37.633105518388,
            55.698804708267
          ],
          [
            37.633342513797,
            55.699157416061
          ],
          [
            37.633570456725,
            55.699496645163
          ]
        ]
      },
      "properties": {
        "id": "cost_cheapest_new_16_1",
        "object_type": "heat_network",
        "variant_id": "cost_cheapest",
        "start_node_id": "cost_cheapest_new_chamber_6",
        "end_node_id": "cost_cheapest_new_chamber_8",
        "flow_tph": 111.15,
        "diameter": 200,
        "length": 92.974,
        "laying_method": "base",
        "depth_start": 3.0,
        "depth_end": 3.0,
        "depth_factor": 1.0,
        "special_factor": 1.0,
        "crossing_object_ids": "",
        "bend_count": 1,
        "bend_penalty_cost": 0.0,
        "cost": 11182497.22
      }
    },
    {
      "type": "Feature",
      "geometry": {
        "type": "LineString",
        "coordinates": [
          [
            37.634652449129,
            55.698447930443
          ],
          [
            37.634379770805,
            55.698506370868
          ],
          [
            37.633366993176,
            55.698723422542
          ],
          [
            37.633209299511,
            55.698757217413
          ]
        ]
      },
      "properties": {
        "id": "cost_cheapest_new_17_1",
        "object_type": "heat_network",
        "variant_id": "cost_cheapest",
        "start_node_id": "cost_cheapest_new_chamber_10",
        "end_node_id": "cost_cheapest_new_chamber_6",
        "flow_tph": 151.15,
        "diameter": 200,
        "length": 97.026,
        "laying_method": "base",
        "depth_start": 3.0,
        "depth_end": 3.0,
        "depth_factor": 1.0,
        "special_factor": 1.0,
        "crossing_object_ids": "",
        "bend_count": 0,
        "bend_penalty_cost": 0.0,
        "cost": 11669752.78
      }
    },
    {
      "type": "Feature",
      "geometry": {
        "type": "LineString",
        "coordinates": [
          [
            37.634131835984,
            55.697673150823
          ],
          [
            37.634020524134,
            55.697697007224
          ],
          [
            37.633901056125,
            55.697722611511
          ]
        ]
      },
      "properties": {
        "id": "cost_cheapest_new_18_1",
        "object_type": "heat_network",
        "variant_id": "cost_cheapest",
        "start_node_id": "cost_cheapest_new_chamber_7",
        "end_node_id": "13",
        "flow_tph": 19.77,
        "diameter": 100,
        "length": 15.516,
        "laying_method": "base",
        "depth_start": 3.0,
        "depth_end": 3.0,
        "depth_factor": 1.0,
        "special_factor": 1.0,
        "crossing_object_ids": "",
        "bend_count": 0,
        "bend_penalty_cost": 0.0,
        "cost": 1392540.64
      }
    },
    {
      "type": "Feature",
      "geometry": {
        "type": "LineString",
        "coordinates": [
          [
            37.634131835984,
            55.697673150823
          ],
          [
            37.634089594738,
            55.697610285719
          ],
          [
            37.634052224692,
            55.69755466995
          ],
          [
            37.63401485475,
            55.697499054169
          ],
          [
            37.634003344399,
            55.697481923865
          ]
        ]
      },
      "properties": {
        "id": "cost_cheapest_new_19_1",
        "object_type": "heat_network",
        "variant_id": "cost_cheapest",
        "start_node_id": "cost_cheapest_new_chamber_7",
        "end_node_id": "cost_cheapest_new_chamber_9",
        "flow_tph": 86.15,
        "diameter": 200,
        "length": 22.765,
        "laying_method": "base",
        "depth_start": 3.0,
        "depth_end": 3.0,
        "depth_factor": 1.0,
        "special_factor": 1.0,
        "crossing_object_ids": "",
        "bend_count": 0,
        "bend_penalty_cost": 0.0,
        "cost": 2738051.56
      }
    },
    {
      "type": "Feature",
      "geometry": {
        "type": "LineString",
        "coordinates": [
          [
            37.634652449129,
            55.698447930443
          ],
          [
            37.634553689694,
            55.698300958557
          ],
          [
            37.634174077364,
            55.697736015911
          ],
          [
            37.634131835984,
            55.697673150823
          ]
        ]
      },
      "properties": {
        "id": "cost_cheapest_new_20_1",
        "object_type": "heat_network",
        "variant_id": "cost_cheapest",
        "start_node_id": "cost_cheapest_new_chamber_10",
        "end_node_id": "cost_cheapest_new_chamber_7",
        "flow_tph": 105.92,
        "diameter": 200,
        "length": 92.235,
        "laying_method": "base",
        "depth_start": 3.0,
        "depth_end": 3.0,
        "depth_factor": 1.0,
        "special_factor": 1.0,
        "crossing_object_ids": "",
        "bend_count": 0,
        "bend_penalty_cost": 0.0,
        "cost": 11093573.44
      }
    },
    {
      "type": "Feature",
      "geometry": {
        "type": "LineString",
        "coordinates": [
          [
            37.639132446285,
            55.698021663625
          ],
          [
            37.639030074861,
            55.697869344466
          ],
          [
            37.639016338426,
            55.697848905833
          ],
          [
            37.639052528151,
            55.697841147998
          ],
          [
            37.640353183308,
            55.697562322989
          ]
        ]
      },
      "properties": {
        "id": "cost_cheapest_new_21_1",
        "object_type": "heat_network",
        "variant_id": "cost_cheapest",
        "start_node_id": "cost_cheapest_tie_tie_chamber_110",
        "end_node_id": "cost_cheapest_new_chamber_13",
        "flow_tph": 96.9,
        "diameter": 200,
        "length": 110.45,
        "laying_method": "base",
        "depth_start": 3.0,
        "depth_end": 3.0,
        "depth_factor": 1.0,
        "special_factor": 1.0,
        "crossing_object_ids": "",
        "bend_count": 1,
        "bend_penalty_cost": 0.0,
        "cost": 13284390.64
      }
    },
    {
      "type": "Feature",
      "geometry": {
        "type": "LineString",
        "coordinates": [
          [
            37.634960224514,
            55.698526114105
          ],
          [
            37.635461700692,
            55.699272371772
          ],
          [
            37.636074731157,
            55.70018459481
          ],
          [
            37.636096132497,
            55.700216440367
          ],
          [
            37.636152523345,
            55.700204354388
          ],
          [
            37.636381851248,
            55.700155203293
          ]
        ]
      },
      "properties": {
        "id": "cost_cheapest_new_22_1",
        "object_type": "heat_network",
        "variant_id": "cost_cheapest",
        "start_node_id": "cost_cheapest_new_chamber_11",
        "end_node_id": "4",
        "flow_tph": 47.7,
        "diameter": 150,
        "length": 220.438,
        "laying_method": "base",
        "depth_start": 3.0,
        "depth_end": 3.0,
        "depth_factor": 1.0,
        "special_factor": 1.0,
        "crossing_object_ids": "",
        "bend_count": 1,
        "bend_penalty_cost": 0.0,
        "cost": 23257763.51
      }
    },
    {
      "type": "Feature",
      "geometry": {
        "type": "LineString",
        "coordinates": [
          [
            37.634003344399,
            55.697481923865
          ],
          [
            37.634033675936,
            55.697475423179
          ],
          [
            37.63421261847,
            55.697437071832
          ],
          [
            37.634391560657,
            55.697398720222
          ],
          [
            37.63452532492,
            55.697370051106
          ],
          [
            37.63447456245,
            55.697294505072
          ],
          [
            37.634446267723,
            55.697252395986
          ]
        ]
      },
      "properties": {
        "id": "cost_cheapest_new_23_1",
        "object_type": "heat_network",
        "variant_id": "cost_cheapest",
        "start_node_id": "cost_cheapest_new_chamber_9",
        "end_node_id": "9",
        "flow_tph": 34.53,
        "diameter": 125,
        "length": 49.101,
        "laying_method": "base",
        "depth_start": 3.0,
        "depth_end": 3.0,
        "depth_factor": 1.0,
        "special_factor": 1.0,
        "crossing_object_ids": "",
        "bend_count": 1,
        "bend_penalty_cost": 0.0,
        "cost": 4776329.34
      }
    },
    {
      "type": "Feature",
      "geometry": {
        "type": "LineString",
        "coordinates": [
          [
            37.636968165182,
            55.69809574323
          ],
          [
            37.636897252298,
            55.697990221856
          ],
          [
            37.63688856403,
            55.697977293306
          ],
          [
            37.636460127081,
            55.697339747704
          ],
          [
            37.636318344807,
            55.697370137859
          ],
          [
            37.636164791434,
            55.697403050838
          ],
          [
            37.636106514928,
            55.697316328445
          ],
          [
            37.636093240038,
            55.697296573769
          ]
        ]
      },
      "properties": {
        "id": "cost_cheapest_new_24_1",
        "object_type": "heat_network",
        "variant_id": "cost_cheapest",
        "start_node_id": "cost_cheapest_new_chamber_12",
        "end_node_id": "10",
        "flow_tph": 33.14,
        "diameter": 125,
        "length": 122.533,
        "laying_method": "base",
        "depth_start": 3.0,
        "depth_end": 3.0,
        "depth_factor": 1.0,
        "special_factor": 1.0,
        "crossing_object_ids": "",
        "bend_count": 2,
        "bend_penalty_cost": 0.0,
        "cost": 11919369.52
      }
    },
    {
      "type": "Feature",
      "geometry": {
        "type": "LineString",
        "coordinates": [
          [
            37.633570456725,
            55.699496645163
          ],
          [
            37.633546590427,
            55.699501759837
          ],
          [
            37.633496085311,
            55.699512583332
          ],
          [
            37.633496090096,
            55.699512590452
          ],
          [
            37.633445572345,
            55.699523416628
          ],
          [
            37.633204498734,
            55.699575079394
          ]
        ]
      },
      "properties": {
        "id": "cost_cheapest_new_25_1",
        "object_type": "heat_network",
        "variant_id": "cost_cheapest",
        "start_node_id": "cost_cheapest_new_chamber_8",
        "end_node_id": "11",
        "flow_tph": 4.08,
        "diameter": 65,
        "length": 24.605,
        "laying_method": "base",
        "depth_start": 3.0,
        "depth_end": 3.0,
        "depth_factor": 1.0,
        "special_factor": 1.0,
        "crossing_object_ids": "",
        "bend_count": 2,
        "bend_penalty_cost": 0.0,
        "cost": 1934679.18
      }
    },
    {
      "type": "Feature",
      "geometry": {
        "type": "LineString",
        "coordinates": [
          [
            37.634003344399,
            55.697481923865
          ],
          [
            37.633991834057,
            55.69746479356
          ],
          [
            37.633966127863,
            55.697426536173
          ],
          [
            37.633837724925,
            55.697454055512
          ],
          [
            37.63375244097,
            55.697472333488
          ]
        ]
      },
      "properties": {
        "id": "cost_cheapest_new_26_1",
        "object_type": "heat_network",
        "variant_id": "cost_cheapest",
        "start_node_id": "cost_cheapest_new_chamber_9",
        "end_node_id": "14",
        "flow_tph": 19.73,
        "diameter": 100,
        "length": 20.961,
        "laying_method": "base",
        "depth_start": 3.0,
        "depth_end": 3.0,
        "depth_factor": 1.0,
        "special_factor": 1.0,
        "crossing_object_ids": "",
        "bend_count": 1,
        "bend_penalty_cost": 0.0,
        "cost": 1881180.5
      }
    },
    {
      "type": "Feature",
      "geometry": {
        "type": "LineString",
        "coordinates": [
          [
            37.634003344399,
            55.697481923865
          ],
          [
            37.633973012851,
            55.697488424545
          ],
          [
            37.632762645044,
            55.697747823538
          ],
          [
            37.63273909042,
            55.697752871475
          ],
          [
            37.632288742697,
            55.697082595789
          ],
          [
            37.632235062606,
            55.697002699324
          ],
          [
            37.632093596621,
            55.697033016386
          ],
          [
            37.632034439325,
            55.697045694109
          ]
        ]
      },
      "properties": {
        "id": "cost_cheapest_new_27_1",
        "object_type": "heat_network",
        "variant_id": "cost_cheapest",
        "start_node_id": "cost_cheapest_new_chamber_9",
        "end_node_id": "15",
        "flow_tph": 31.89,
        "diameter": 125,
        "length": 187.793,
        "laying_method": "base",
        "depth_start": 3.0,
        "depth_end": 3.0,
        "depth_factor": 1.0,
        "special_factor": 1.0,
        "crossing_object_ids": "",
        "bend_count": 2,
        "bend_penalty_cost": 0.0,
        "cost": 18267603.5
      }
    },
    {
      "type": "Feature",
      "geometry": {
        "type": "LineString",
        "coordinates": [
          [
            37.640353183308,
            55.697562322989
          ],
          [
            37.640396837518,
            55.697552964407
          ],
          [
            37.640427548281,
            55.697546380627
          ],
          [
            37.640926183092,
            55.698288251921
          ],
          [
            37.640975811655,
            55.698362087905
          ],
          [
            37.640845071933,
            55.69839011591
          ],
          [
            37.640764466155,
            55.698407396101
          ]
        ]
      },
      "properties": {
        "id": "cost_cheapest_new_28_1",
        "object_type": "heat_network",
        "variant_id": "cost_cheapest",
        "start_node_id": "cost_cheapest_new_chamber_13",
        "end_node_id": "16",
        "flow_tph": 76.27,
        "diameter": 200,
        "length": 116.32,
        "laying_method": "base",
        "depth_start": 3.0,
        "depth_end": 3.0,
        "depth_factor": 1.0,
        "special_factor": 1.0,
        "crossing_object_ids": "",
        "bend_count": 2,
        "bend_penalty_cost": 0.0,
        "cost": 13990436.65
      }
    },
    {
      "type": "Feature",
      "geometry": {
        "type": "LineString",
        "coordinates": [
          [
            37.640353183308,
            55.697562322989
          ],
          [
            37.64034895258,
            55.697556028345
          ],
          [
            37.639901540648,
            55.696890339193
          ],
          [
            37.63976844548,
            55.696918871933
          ],
          [
            37.639606530213,
            55.696953582831
          ],
          [
            37.639545070997,
            55.696862136827
          ],
          [
            37.639538145943,
            55.696851832917
          ]
        ]
      },
      "properties": {
        "id": "cost_cheapest_new_29_1",
        "object_type": "heat_network",
        "variant_id": "cost_cheapest",
        "start_node_id": "cost_cheapest_new_chamber_13",
        "end_node_id": "17",
        "flow_tph": 20.63,
        "diameter": 100,
        "length": 111.949,
        "laying_method": "base",
        "depth_start": 3.0,
        "depth_end": 3.0,
        "depth_factor": 1.0,
        "special_factor": 1.0,
        "crossing_object_ids": "",
        "bend_count": 2,
        "bend_penalty_cost": 0.0,
        "cost": 10047190.16
      }
    },
    {
      "type": "Feature",
      "geometry": {
        "type": "LineString",
        "coordinates": [
          [
            37.634960224514,
            55.698526114105
          ],
          [
            37.6347371173,
            55.698573931049
          ],
          [
            37.634652449129,
            55.698447930443
          ]
        ]
      },
      "properties": {
        "id": "cost_cheapest_new_30_1",
        "object_type": "heat_network",
        "variant_id": "cost_cheapest",
        "start_node_id": "cost_cheapest_new_chamber_11",
        "end_node_id": "cost_cheapest_new_chamber_10",
        "flow_tph": 257.07,
        "diameter": 250,
        "length": 30.0,
        "laying_method": "base",
        "depth_start": 3.0,
        "depth_end": 3.0,
        "depth_factor": 1.0,
        "special_factor": 1.0,
        "crossing_object_ids": "",
        "bend_count": 1,
        "bend_penalty_cost": 0.0,
        "cost": 4059690.0
      }
    },
    {
      "type": "Feature",
      "geometry": {
        "type": "Point",
        "coordinates": [
          37.638461838842,
          55.697638536901
        ]
      },
      "properties": {
        "id": "cost_cheapest_tie_tie_chamber_106",
        "object_type": "tie_in",
        "variant_id": "cost_cheapest",
        "existing_object_id": "106",
        "existing_object_type": "heat_chamber",
        "existing_diameter": 300,
        "required_diameter": 300,
        "cost": 5000000
      }
    },
    {
      "type": "Feature",
      "geometry": {
        "type": "Point",
        "coordinates": [
          37.639132446285,
          55.698021663625
        ]
      },
      "properties": {
        "id": "cost_cheapest_tie_tie_chamber_110",
        "object_type": "tie_in",
        "variant_id": "cost_cheapest",
        "existing_object_id": "110",
        "existing_object_type": "heat_chamber",
        "existing_diameter": 300,
        "required_diameter": 200,
        "cost": 5000000
      }
    },
    {
      "type": "Feature",
      "geometry": {
        "type": "Point",
        "coordinates": [
          37.634038266911,
          55.699559750384
        ]
      },
      "properties": {
        "id": "cost_cheapest_new_chamber_1",
        "object_type": "heat_chamber",
        "variant_id": "cost_cheapest",
        "diameter": 150,
        "cost": 3000000
      }
    },
    {
      "type": "Feature",
      "geometry": {
        "type": "Point",
        "coordinates": [
          37.634652449129,
          55.698447930443
        ]
      },
      "properties": {
        "id": "cost_cheapest_new_chamber_10",
        "object_type": "heat_chamber",
        "variant_id": "cost_cheapest",
        "diameter": 250,
        "cost": 5000000
      }
    },
    {
      "type": "Feature",
      "geometry": {
        "type": "Point",
        "coordinates": [
          37.634960224514,
          55.698526114105
        ]
      },
      "properties": {
        "id": "cost_cheapest_new_chamber_11",
        "object_type": "heat_chamber",
        "variant_id": "cost_cheapest",
        "diameter": 300,
        "cost": 5000000
      }
    },
    {
      "type": "Feature",
      "geometry": {
        "type": "Point",
        "coordinates": [
          37.636968165182,
          55.69809574323
        ]
      },
      "properties": {
        "id": "cost_cheapest_new_chamber_12",
        "object_type": "heat_chamber",
        "variant_id": "cost_cheapest",
        "diameter": 300,
        "cost": 5000000
      }
    },
    {
      "type": "Feature",
      "geometry": {
        "type": "Point",
        "coordinates": [
          37.640353183308,
          55.697562322989
        ]
      },
      "properties": {
        "id": "cost_cheapest_new_chamber_13",
        "object_type": "heat_chamber",
        "variant_id": "cost_cheapest",
        "diameter": 200,
        "cost": 3000000
      }
    },
    {
      "type": "Feature",
      "geometry": {
        "type": "Point",
        "coordinates": [
          37.635307488793,
          55.698451686441
        ]
      },
      "properties": {
        "id": "cost_cheapest_new_chamber_2",
        "object_type": "heat_chamber",
        "variant_id": "cost_cheapest",
        "diameter": 300,
        "cost": 5000000
      }
    },
    {
      "type": "Feature",
      "geometry": {
        "type": "Point",
        "coordinates": [
          37.632210880108,
          55.700005696237
        ]
      },
      "properties": {
        "id": "cost_cheapest_new_chamber_3",
        "object_type": "heat_chamber",
        "variant_id": "cost_cheapest",
        "diameter": 150,
        "cost": 3000000
      }
    },
    {
      "type": "Feature",
      "geometry": {
        "type": "Point",
        "coordinates": [
          37.638196708309,
          55.69783240317
        ]
      },
      "properties": {
        "id": "cost_cheapest_new_chamber_4",
        "object_type": "heat_chamber",
        "variant_id": "cost_cheapest",
        "diameter": 300,
        "cost": 5000000
      }
    },
    {
      "type": "Feature",
      "geometry": {
        "type": "Point",
        "coordinates": [
          37.632391173049,
          55.70027401973
        ]
      },
      "properties": {
        "id": "cost_cheapest_new_chamber_5",
        "object_type": "heat_chamber",
        "variant_id": "cost_cheapest",
        "diameter": 150,
        "cost": 3000000
      }
    },
    {
      "type": "Feature",
      "geometry": {
        "type": "Point",
        "coordinates": [
          37.633209299511,
          55.698757217413
        ]
      },
      "properties": {
        "id": "cost_cheapest_new_chamber_6",
        "object_type": "heat_chamber",
        "variant_id": "cost_cheapest",
        "diameter": 200,
        "cost": 3000000
      }
    },
    {
      "type": "Feature",
      "geometry": {
        "type": "Point",
        "coordinates": [
          37.634131835984,
          55.697673150823
        ]
      },
      "properties": {
        "id": "cost_cheapest_new_chamber_7",
        "object_type": "heat_chamber",
        "variant_id": "cost_cheapest",
        "diameter": 200,
        "cost": 3000000
      }
    },
    {
      "type": "Feature",
      "geometry": {
        "type": "Point",
        "coordinates": [
          37.633570456725,
          55.699496645163
        ]
      },
      "properties": {
        "id": "cost_cheapest_new_chamber_8",
        "object_type": "heat_chamber",
        "variant_id": "cost_cheapest",
        "diameter": 200,
        "cost": 3000000
      }
    },
    {
      "type": "Feature",
      "geometry": {
        "type": "Point",
        "coordinates": [
          37.634003344399,
          55.697481923865
        ]
      },
      "properties": {
        "id": "cost_cheapest_new_chamber_9",
        "object_type": "heat_chamber",
        "variant_id": "cost_cheapest",
        "diameter": 200,
        "cost": 3000000
      }
    },
    {
      "type": "Feature",
      "geometry": {
        "type": "LineString",
        "coordinates": [
          [
            37.63452532492,
            55.697370051106
          ],
          [
            37.63447456245,
            55.697294505072
          ],
          [
            37.634446267723,
            55.697252395986
          ]
        ]
      },
      "properties": {
        "id": "cost_demand_new_1_1",
        "object_type": "heat_network",
        "variant_id": "cost_demand",
        "start_node_id": "cost_demand_new_chamber_1",
        "end_node_id": "9",
        "flow_tph": 34.53,
        "diameter": 125,
        "length": 14.006,
        "laying_method": "base",
        "depth_start": 3.0,
        "depth_end": 3.0,
        "depth_factor": 1.0,
        "special_factor": 1.0,
        "crossing_object_ids": "",
        "bend_count": 0,
        "bend_penalty_cost": 0.0,
        "cost": 1362480.13
      }
    },
    {
      "type": "Feature",
      "geometry": {
        "type": "LineString",
        "coordinates": [
          [
            37.63452532492,
            55.697370051106
          ],
          [
            37.634391560657,
            55.697398720222
          ],
          [
            37.634203203281,
            55.697439089724
          ],
          [
            37.634014845521,
            55.697479458934
          ],
          [
            37.633780242013,
            55.697529739103
          ]
        ]
      },
      "properties": {
        "id": "cost_demand_new_2_1",
        "object_type": "heat_network",
        "variant_id": "cost_demand",
        "start_node_id": "cost_demand_new_chamber_1",
        "end_node_id": "cost_demand_new_chamber_6",
        "flow_tph": 71.39,
        "diameter": 200,
        "length": 50.095,
        "laying_method": "base",
        "depth_start": 3.0,
        "depth_end": 3.0,
        "depth_factor": 1.0,
        "special_factor": 1.0,
        "crossing_object_ids": "",
        "bend_count": 0,
        "bend_penalty_cost": 0.0,
        "cost": 6025155.21
      }
    },
    {
      "type": "Feature",
      "geometry": {
        "type": "LineString",
        "coordinates": [
          [
            37.636388574993,
            55.697233270802
          ],
          [
            37.636370832688,
            55.697206868324
          ],
          [
            37.636234338601,
            55.697003749021
          ],
          [
            37.6356265416,
            55.697134024942
          ],
          [
            37.634659088989,
            55.697341381844
          ],
          [
            37.63452532492,
            55.697370051106
          ]
        ]
      },
      "properties": {
        "id": "cost_demand_new_3_1",
        "object_type": "heat_network",
        "variant_id": "cost_demand",
        "start_node_id": "cost_demand_new_chamber_2",
        "end_node_id": "cost_demand_new_chamber_1",
        "flow_tph": 105.92,
        "diameter": 200,
        "length": 142.229,
        "laying_method": "base",
        "depth_start": 3.0,
        "depth_end": 3.0,
        "depth_factor": 1.0,
        "special_factor": 1.0,
        "crossing_object_ids": "",
        "bend_count": 1,
        "bend_penalty_cost": 0.0,
        "cost": 17106628.73
      }
    },
    {
      "type": "Feature",
      "geometry": {
        "type": "LineString",
        "coordinates": [
          [
            37.636388574993,
            55.697233270802
          ],
          [
            37.63634182609,
            55.697243291161
          ],
          [
            37.636093240038,
            55.697296573769
          ]
        ]
      },
      "properties": {
        "id": "cost_demand_new_4_1",
        "object_type": "heat_network",
        "variant_id": "cost_demand",
        "start_node_id": "cost_demand_new_chamber_2",
        "end_node_id": "10",
        "flow_tph": 33.14,
        "diameter": 125,
        "length": 19.857,
        "laying_method": "base",
        "depth_start": 3.0,
        "depth_end": 3.0,
        "depth_factor": 1.0,
        "special_factor": 1.0,
        "crossing_object_ids": "",
        "bend_count": 0,
        "bend_penalty_cost": 0.0,
        "cost": 1931573.62
      }
    },
    {
      "type": "Feature",
      "geometry": {
        "type": "LineString",
        "coordinates": [
          [
            37.636855266149,
            55.697927744405
          ],
          [
            37.636832446962,
            55.697893788245
          ],
          [
            37.636406317322,
            55.697259673278
          ],
          [
            37.636388574993,
            55.697233270802
          ]
        ]
      },
      "properties": {
        "id": "cost_demand_new_5_1",
        "object_type": "heat_network",
        "variant_id": "cost_demand",
        "start_node_id": "cost_demand_new_chamber_8",
        "end_node_id": "cost_demand_new_chamber_2",
        "flow_tph": 139.06,
        "diameter": 200,
        "length": 82.676,
        "laying_method": "base",
        "depth_start": 3.0,
        "depth_end": 3.0,
        "depth_factor": 1.0,
        "special_factor": 1.0,
        "crossing_object_ids": "",
        "bend_count": 0,
        "bend_penalty_cost": 0.0,
        "cost": 9943841.07
      }
    },
    {
      "type": "Feature",
      "geometry": {
        "type": "LineString",
        "coordinates": [
          [
            37.633289159824,
            55.699701073844
          ],
          [
            37.63324399984,
            55.699633865894
          ],
          [
            37.633204498734,
            55.699575079394
          ]
        ]
      },
      "properties": {
        "id": "cost_demand_new_6_1",
        "object_type": "heat_network",
        "variant_id": "cost_demand",
        "start_node_id": "cost_demand_new_chamber_3",
        "end_node_id": "11",
        "flow_tph": 4.08,
        "diameter": 65,
        "length": 14.999,
        "laying_method": "base",
        "depth_start": 3.0,
        "depth_end": 3.0,
        "depth_factor": 1.0,
        "special_factor": 1.0,
        "crossing_object_ids": "",
        "bend_count": 0,
        "bend_penalty_cost": 0.0,
        "cost": 1179398.35
      }
    },
    {
      "type": "Feature",
      "geometry": {
        "type": "LineString",
        "coordinates": [
          [
            37.633289159824,
            55.699701073844
          ],
          [
            37.633334319961,
            55.699768281778
          ],
          [
            37.633458493189,
            55.699953076811
          ],
          [
            37.633282705928,
            55.699990748178
          ],
          [
            37.632857617916,
            55.700081843576
          ]
        ]
      },
      "properties": {
        "id": "cost_demand_new_7_1",
        "object_type": "heat_network",
        "variant_id": "cost_demand",
        "start_node_id": "cost_demand_new_chamber_3",
        "end_node_id": "cost_demand_new_chamber_4",
        "flow_tph": 63.44,
        "diameter": 150,
        "length": 70.396,
        "laying_method": "base",
        "depth_start": 3.0,
        "depth_end": 3.0,
        "depth_factor": 1.0,
        "special_factor": 1.0,
        "crossing_object_ids": "",
        "bend_count": 1,
        "bend_penalty_cost": 0.0,
        "cost": 7427303.77
      }
    },
    {
      "type": "Feature",
      "geometry": {
        "type": "LineString",
        "coordinates": [
          [
            37.633952609493,
            55.699558893155
          ],
          [
            37.633744959869,
            55.699603394039
          ],
          [
            37.633408167369,
            55.699675570254
          ],
          [
            37.633289159824,
            55.699701073844
          ]
        ]
      },
      "properties": {
        "id": "cost_demand_new_8_1",
        "object_type": "heat_network",
        "variant_id": "cost_demand",
        "start_node_id": "cost_demand_new_chamber_5",
        "end_node_id": "cost_demand_new_chamber_3",
        "flow_tph": 67.52,
        "diameter": 200,
        "length": 44.604,
        "laying_method": "base",
        "depth_start": 3.0,
        "depth_end": 3.0,
        "depth_factor": 1.0,
        "special_factor": 1.0,
        "crossing_object_ids": "",
        "bend_count": 0,
        "bend_penalty_cost": 0.0,
        "cost": 5364708.48
      }
    },
    {
      "type": "Feature",
      "geometry": {
        "type": "Point",
        "coordinates": [
          37.638498341606,
          55.697630712105
        ]
      },
      "properties": {
        "id": "cost_demand_profile_9_1",
        "object_type": "technical_node",
        "variant_id": "cost_demand",
        "depth": 3.0
      }
    },
    {
      "type": "Feature",
      "geometry": {
        "type": "LineString",
        "coordinates": [
          [
            37.638461838842,
            55.697638536901
          ],
          [
            37.638480090226,
            55.697634624504
          ],
          [
            37.638498341606,
            55.697630712105
          ]
        ]
      },
      "properties": {
        "id": "cost_demand_new_9_1",
        "object_type": "heat_network",
        "variant_id": "cost_demand",
        "start_node_id": "cost_demand_tie_tie_chamber_106",
        "end_node_id": "cost_demand_profile_9_1",
        "flow_tph": 304.12,
        "diameter": 300,
        "length": 2.454,
        "laying_method": "base",
        "depth_start": 3.0,
        "depth_end": 3.0,
        "depth_factor": 1.0,
        "special_factor": 1.0,
        "crossing_object_ids": "",
        "bend_count": 0,
        "bend_penalty_cost": 0.0,
        "cost": 368194.21
      }
    },
    {
      "type": "Feature",
      "geometry": {
        "type": "Point",
        "coordinates": [
          37.638460805776,
          55.697583591556
        ]
      },
      "properties": {
        "id": "cost_demand_profile_9_2",
        "object_type": "technical_node",
        "variant_id": "cost_demand",
        "depth": 2.05
      }
    },
    {
      "type": "Feature",
      "geometry": {
        "type": "LineString",
        "coordinates": [
          [
            37.638498341606,
            55.697630712105
          ],
          [
            37.63852373446,
            55.697625268841
          ],
          [
            37.63851409638,
            55.697610927808
          ],
          [
            37.638491327604,
            55.697577048836
          ],
          [
            37.638460805776,
            55.697583591556
          ]
        ]
      },
      "properties": {
        "id": "cost_demand_new_9_2",
        "object_type": "heat_network",
        "variant_id": "cost_demand",
        "start_node_id": "cost_demand_profile_9_1",
        "end_node_id": "cost_demand_profile_9_2",
        "flow_tph": 304.12,
        "diameter": 300,
        "length": 9.5,
        "laying_method": "base",
        "depth_start": 3.0,
        "depth_end": 2.05,
        "depth_factor": 1.0,
        "special_factor": 1.0,
        "crossing_object_ids": "",
        "bend_count": 2,
        "bend_penalty_cost": 0.0,
        "cost": 1425209.0
      }
    },
    {
      "type": "Feature",
      "geometry": {
        "type": "Point",
        "coordinates": [
          37.63840131312,
          55.697596344492
        ]
      },
      "properties": {
        "id": "cost_demand_profile_9_3",
        "object_type": "technical_node",
        "variant_id": "cost_demand",
        "depth": 2.05
      }
    },
    {
      "type": "Feature",
      "geometry": {
        "type": "LineString",
        "coordinates": [
          [
            37.638460805776,
            55.697583591556
          ],
          [
            37.63840131312,
            55.697596344492
          ]
        ]
      },
      "properties": {
        "id": "cost_demand_new_9_3",
        "object_type": "heat_network",
        "variant_id": "cost_demand",
        "start_node_id": "cost_demand_profile_9_2",
        "end_node_id": "cost_demand_profile_9_3",
        "flow_tph": 304.12,
        "diameter": 300,
        "length": 4.0,
        "laying_method": "special",
        "depth_start": 2.05,
        "depth_end": 2.05,
        "depth_factor": 1.0,
        "special_factor": 1.05,
        "crossing_object_ids": "127",
        "bend_count": 0,
        "bend_penalty_cost": 0.0,
        "cost": 630092.4
      }
    },
    {
      "type": "Feature",
      "geometry": {
        "type": "Point",
        "coordinates": [
          37.63826001791,
          55.697626632599
        ]
      },
      "properties": {
        "id": "cost_demand_profile_9_4",
        "object_type": "technical_node",
        "variant_id": "cost_demand",
        "depth": 3.0
      }
    },
    {
      "type": "Feature",
      "geometry": {
        "type": "LineString",
        "coordinates": [
          [
            37.63840131312,
            55.697596344492
          ],
          [
            37.63826001791,
            55.697626632599
          ]
        ]
      },
      "properties": {
        "id": "cost_demand_new_9_4",
        "object_type": "heat_network",
        "variant_id": "cost_demand",
        "start_node_id": "cost_demand_profile_9_3",
        "end_node_id": "cost_demand_profile_9_4",
        "flow_tph": 304.12,
        "diameter": 300,
        "length": 9.5,
        "laying_method": "base",
        "depth_start": 2.05,
        "depth_end": 3.0,
        "depth_factor": 1.0,
        "special_factor": 1.0,
        "crossing_object_ids": "",
        "bend_count": 0,
        "bend_penalty_cost": 0.0,
        "cost": 1425209.0
      }
    },
    {
      "type": "Feature",
      "geometry": {
        "type": "LineString",
        "coordinates": [
          [
            37.63826001791,
            55.697626632599
          ],
          [
            37.638237027941,
            55.69763156072
          ],
          [
            37.638119498001,
            55.697656754304
          ]
        ]
      },
      "properties": {
        "id": "cost_demand_new_9_5",
        "object_type": "heat_network",
        "variant_id": "cost_demand",
        "start_node_id": "cost_demand_profile_9_4",
        "end_node_id": "cost_demand_new_chamber_9",
        "flow_tph": 304.12,
        "diameter": 300,
        "length": 9.448,
        "laying_method": "base",
        "depth_start": 3.0,
        "depth_end": 3.0,
        "depth_factor": 1.0,
        "special_factor": 1.0,
        "crossing_object_ids": "",
        "bend_count": 0,
        "bend_penalty_cost": 0.0,
        "cost": 1417386.57
      }
    },
    {
      "type": "Feature",
      "geometry": {
        "type": "LineString",
        "coordinates": [
          [
            37.639132446285,
            55.698021663625
          ],
          [
            37.639030074861,
            55.697869344466
          ],
          [
            37.639016338426,
            55.697848905833
          ],
          [
            37.639052528151,
            55.697841147998
          ],
          [
            37.640353183308,
            55.697562322989
          ]
        ]
      },
      "properties": {
        "id": "cost_demand_new_10_1",
        "object_type": "heat_network",
        "variant_id": "cost_demand",
        "start_node_id": "cost_demand_tie_tie_chamber_110",
        "end_node_id": "cost_demand_new_chamber_10",
        "flow_tph": 96.9,
        "diameter": 200,
        "length": 110.45,
        "laying_method": "base",
        "depth_start": 3.0,
        "depth_end": 3.0,
        "depth_factor": 1.0,
        "special_factor": 1.0,
        "crossing_object_ids": "",
        "bend_count": 1,
        "bend_penalty_cost": 0.0,
        "cost": 13284390.64
      }
    },
    {
      "type": "Feature",
      "geometry": {
        "type": "LineString",
        "coordinates": [
          [
            37.633952609493,
            55.699558893155
          ],
          [
            37.634026980813,
            55.699542954708
          ],
          [
            37.634038266911,
            55.699559750384
          ],
          [
            37.634063296647,
            55.699554386272
          ],
          [
            37.634405403981,
            55.699481068732
          ]
        ]
      },
      "properties": {
        "id": "cost_demand_new_11_1",
        "object_type": "heat_network",
        "variant_id": "cost_demand",
        "start_node_id": "cost_demand_new_chamber_5",
        "end_node_id": "1",
        "flow_tph": 24.87,
        "diameter": 125,
        "length": 31.682,
        "laying_method": "base",
        "depth_start": 3.0,
        "depth_end": 3.0,
        "depth_factor": 1.0,
        "special_factor": 1.0,
        "crossing_object_ids": "",
        "bend_count": 2,
        "bend_penalty_cost": 0.0,
        "cost": 3081888.3
      }
    },
    {
      "type": "Feature",
      "geometry": {
        "type": "LineString",
        "coordinates": [
          [
            37.633952609493,
            55.699558893155
          ],
          [
            37.634061272936,
            55.699720603072
          ],
          [
            37.634205569911,
            55.699935339631
          ],
          [
            37.634240815724,
            55.699927786133
          ],
          [
            37.634582926007,
            55.699854468118
          ]
        ]
      },
      "properties": {
        "id": "cost_demand_new_12_1",
        "object_type": "heat_network",
        "variant_id": "cost_demand",
        "start_node_id": "cost_demand_new_chamber_5",
        "end_node_id": "2",
        "flow_tph": 18.76,
        "diameter": 100,
        "length": 70.184,
        "laying_method": "base",
        "depth_start": 3.0,
        "depth_end": 3.0,
        "depth_factor": 1.0,
        "special_factor": 1.0,
        "crossing_object_ids": "",
        "bend_count": 1,
        "bend_penalty_cost": 0.0,
        "cost": 6298897.07
      }
    },
    {
      "type": "Feature",
      "geometry": {
        "type": "LineString",
        "coordinates": [
          [
            37.632857617916,
            55.700081843576
          ],
          [
            37.632887188454,
            55.700125851289
          ],
          [
            37.632970133772,
            55.700249292304
          ],
          [
            37.632846602295,
            55.700275764475
          ]
        ]
      },
      "properties": {
        "id": "cost_demand_new_13_1",
        "object_type": "heat_network",
        "variant_id": "cost_demand",
        "start_node_id": "cost_demand_new_chamber_4",
        "end_node_id": "3",
        "flow_tph": 29.42,
        "diameter": 125,
        "length": 28.239,
        "laying_method": "base",
        "depth_start": 3.0,
        "depth_end": 3.0,
        "depth_factor": 1.0,
        "special_factor": 1.0,
        "crossing_object_ids": "",
        "bend_count": 1,
        "bend_penalty_cost": 0.0,
        "cost": 2746942.69
      }
    },
    {
      "type": "Feature",
      "geometry": {
        "type": "LineString",
        "coordinates": [
          [
            37.63555517445,
            55.698398600259
          ],
          [
            37.635628912741,
            55.698508331226
          ],
          [
            37.635664742421,
            55.698561649631
          ],
          [
            37.635570332247,
            55.69858188454
          ],
          [
            37.635417055874,
            55.698614736028
          ]
        ]
      },
      "properties": {
        "id": "cost_demand_new_14_1",
        "object_type": "heat_network",
        "variant_id": "cost_demand",
        "start_node_id": "cost_demand_new_chamber_7",
        "end_node_id": "5",
        "flow_tph": 26.09,
        "diameter": 125,
        "length": 36.063,
        "laying_method": "base",
        "depth_start": 3.0,
        "depth_end": 3.0,
        "depth_factor": 1.0,
        "special_factor": 1.0,
        "crossing_object_ids": "",
        "bend_count": 1,
        "bend_penalty_cost": 0.0,
        "cost": 3508048.76
      }
    },
    {
      "type": "Feature",
      "geometry": {
        "type": "LineString",
        "coordinates": [
          [
            37.632857617916,
            55.700081843576
          ],
          [
            37.632801174334,
            55.699997842344
          ],
          [
            37.632634115398,
            55.700033642166
          ],
          [
            37.632240383042,
            55.700118015707
          ],
          [
            37.632081910098,
            55.700151974669
          ],
          [
            37.632021777313,
            55.700062480167
          ],
          [
            37.632012226301,
            55.700048265534
          ]
        ]
      },
      "properties": {
        "id": "cost_demand_new_15_1",
        "object_type": "heat_network",
        "variant_id": "cost_demand",
        "start_node_id": "cost_demand_new_chamber_4",
        "end_node_id": "6",
        "flow_tph": 15.99,
        "diameter": 100,
        "length": 70.701,
        "laying_method": "base",
        "depth_start": 3.0,
        "depth_end": 3.0,
        "depth_factor": 1.0,
        "special_factor": 1.0,
        "crossing_object_ids": "",
        "bend_count": 2,
        "bend_penalty_cost": 0.0,
        "cost": 6345303.4
      }
    },
    {
      "type": "Feature",
      "geometry": {
        "type": "LineString",
        "coordinates": [
          [
            37.638119498001,
            55.697656754304
          ],
          [
            37.638137297042,
            55.6976832389
          ],
          [
            37.638197853666,
            55.697773345593
          ],
          [
            37.63819970508,
            55.697776100441
          ],
          [
            37.638232401714,
            55.697824751998
          ],
          [
            37.638196708309,
            55.69783240317
          ],
          [
            37.638242952584,
            55.697901213061
          ],
          [
            37.638280304046,
            55.697956790567
          ]
        ]
      },
      "properties": {
        "id": "cost_demand_new_16_1",
        "object_type": "heat_network",
        "variant_id": "cost_demand",
        "start_node_id": "cost_demand_new_chamber_9",
        "end_node_id": "7",
        "flow_tph": 27.82,
        "diameter": 125,
        "length": 37.208,
        "laying_method": "base",
        "depth_start": 3.0,
        "depth_end": 3.0,
        "depth_factor": 1.0,
        "special_factor": 1.0,
        "crossing_object_ids": "",
        "bend_count": 2,
        "bend_penalty_cost": 0.0,
        "cost": 3619414.74
      }
    },
    {
      "type": "Feature",
      "geometry": {
        "type": "LineString",
        "coordinates": [
          [
            37.632857617916,
            55.700081843576
          ],
          [
            37.632641692007,
            55.70012811528
          ],
          [
            37.632347838319,
            55.700191085678
          ],
          [
            37.632337006978,
            55.700193406727
          ],
          [
            37.632341116998,
            55.700199523503
          ],
          [
            37.632391173049,
            55.70027401973
          ],
          [
            37.632237595014,
            55.700306929853
          ],
          [
            37.632202633433,
            55.700314421709
          ]
        ]
      },
      "properties": {
        "id": "cost_demand_new_17_1",
        "object_type": "heat_network",
        "variant_id": "cost_demand",
        "start_node_id": "cost_demand_new_chamber_4",
        "end_node_id": "8",
        "flow_tph": 18.03,
        "diameter": 100,
        "length": 57.272,
        "laying_method": "base",
        "depth_start": 3.0,
        "depth_end": 3.0,
        "depth_factor": 1.0,
        "special_factor": 1.0,
        "crossing_object_ids": "",
        "bend_count": 2,
        "bend_penalty_cost": 0.0,
        "cost": 5140031.75
      }
    },
    {
      "type": "Feature",
      "geometry": {
        "type": "LineString",
        "coordinates": [
          [
            37.633780242013,
            55.697529739103
          ],
          [
            37.633781828294,
            55.697532099909
          ],
          [
            37.633825549037,
            55.697597167853
          ],
          [
            37.633836684232,
            55.69761373991
          ],
          [
            37.633829007717,
            55.69761538513
          ],
          [
            37.633886776975,
            55.697701360548
          ],
          [
            37.633901056125,
            55.697722611511
          ]
        ]
      },
      "properties": {
        "id": "cost_demand_new_18_1",
        "object_type": "heat_network",
        "variant_id": "cost_demand",
        "start_node_id": "cost_demand_new_chamber_6",
        "end_node_id": "13",
        "flow_tph": 19.77,
        "diameter": 100,
        "length": 23.281,
        "laying_method": "base",
        "depth_start": 3.0,
        "depth_end": 3.0,
        "depth_factor": 1.0,
        "special_factor": 1.0,
        "crossing_object_ids": "",
        "bend_count": 2,
        "bend_penalty_cost": 0.0,
        "cost": 2089427.28
      }
    },
    {
      "type": "Feature",
      "geometry": {
        "type": "LineString",
        "coordinates": [
          [
            37.633780242013,
            55.697529739103
          ],
          [
            37.63374302575,
            55.697474351344
          ],
          [
            37.63375244097,
            55.697472333488
          ]
        ]
      },
      "properties": {
        "id": "cost_demand_new_19_1",
        "object_type": "heat_network",
        "variant_id": "cost_demand",
        "start_node_id": "cost_demand_new_chamber_6",
        "end_node_id": "14",
        "flow_tph": 19.73,
        "diameter": 100,
        "length": 7.227,
        "laying_method": "base",
        "depth_start": 3.0,
        "depth_end": 3.0,
        "depth_factor": 1.0,
        "special_factor": 1.0,
        "crossing_object_ids": "",
        "bend_count": 1,
        "bend_penalty_cost": 0.0,
        "cost": 648585.1
      }
    },
    {
      "type": "Feature",
      "geometry": {
        "type": "LineString",
        "coordinates": [
          [
            37.633780242013,
            55.697529739103
          ],
          [
            37.63354563791,
            55.69758001882
          ],
          [
            37.63273909042,
            55.697752871475
          ],
          [
            37.632666941255,
            55.697645489799
          ],
          [
            37.632288742697,
            55.697082595789
          ],
          [
            37.632235062606,
            55.697002699324
          ],
          [
            37.632093596621,
            55.697033016386
          ],
          [
            37.632034439325,
            55.697045694109
          ]
        ]
      },
      "properties": {
        "id": "cost_demand_new_20_1",
        "object_type": "heat_network",
        "variant_id": "cost_demand",
        "start_node_id": "cost_demand_new_chamber_6",
        "end_node_id": "15",
        "flow_tph": 31.89,
        "diameter": 125,
        "length": 172.793,
        "laying_method": "base",
        "depth_start": 3.0,
        "depth_end": 3.0,
        "depth_factor": 1.0,
        "special_factor": 1.0,
        "crossing_object_ids": "",
        "bend_count": 2,
        "bend_penalty_cost": 0.0,
        "cost": 16808478.5
      }
    },
    {
      "type": "Feature",
      "geometry": {
        "type": "LineString",
        "coordinates": [
          [
            37.640353183308,
            55.697562322989
          ],
          [
            37.640396837518,
            55.697552964407
          ],
          [
            37.640427548281,
            55.697546380627
          ],
          [
            37.640926183092,
            55.698288251921
          ],
          [
            37.640975811655,
            55.698362087905
          ],
          [
            37.640845071933,
            55.69839011591
          ],
          [
            37.640764466155,
            55.698407396101
          ]
        ]
      },
      "properties": {
        "id": "cost_demand_new_21_1",
        "object_type": "heat_network",
        "variant_id": "cost_demand",
        "start_node_id": "cost_demand_new_chamber_10",
        "end_node_id": "16",
        "flow_tph": 76.27,
        "diameter": 200,
        "length": 116.32,
        "laying_method": "base",
        "depth_start": 3.0,
        "depth_end": 3.0,
        "depth_factor": 1.0,
        "special_factor": 1.0,
        "crossing_object_ids": "",
        "bend_count": 2,
        "bend_penalty_cost": 0.0,
        "cost": 13990436.65
      }
    },
    {
      "type": "Feature",
      "geometry": {
        "type": "LineString",
        "coordinates": [
          [
            37.640353183308,
            55.697562322989
          ],
          [
            37.64034895258,
            55.697556028345
          ],
          [
            37.639901540648,
            55.696890339193
          ],
          [
            37.63976844548,
            55.696918871933
          ],
          [
            37.639606530213,
            55.696953582831
          ],
          [
            37.639545070997,
            55.696862136827
          ],
          [
            37.639538145943,
            55.696851832917
          ]
        ]
      },
      "properties": {
        "id": "cost_demand_new_22_1",
        "object_type": "heat_network",
        "variant_id": "cost_demand",
        "start_node_id": "cost_demand_new_chamber_10",
        "end_node_id": "17",
        "flow_tph": 20.63,
        "diameter": 100,
        "length": 111.949,
        "laying_method": "base",
        "depth_start": 3.0,
        "depth_end": 3.0,
        "depth_factor": 1.0,
        "special_factor": 1.0,
        "crossing_object_ids": "",
        "bend_count": 2,
        "bend_penalty_cost": 0.0,
        "cost": 10047190.16
      }
    },
    {
      "type": "Feature",
      "geometry": {
        "type": "LineString",
        "coordinates": [
          [
            37.63555517445,
            55.698398600259
          ],
          [
            37.633914449308,
            55.698750242955
          ],
          [
            37.633472832899,
            55.69884488601
          ],
          [
            37.633952609493,
            55.699558893155
          ]
        ]
      },
      "properties": {
        "id": "cost_demand_new_23_1",
        "object_type": "heat_network",
        "variant_id": "cost_demand",
        "start_node_id": "cost_demand_new_chamber_7",
        "end_node_id": "cost_demand_new_chamber_5",
        "flow_tph": 111.15,
        "diameter": 200,
        "length": 225.0,
        "laying_method": "base",
        "depth_start": 3.0,
        "depth_end": 3.0,
        "depth_factor": 1.0,
        "special_factor": 1.0,
        "crossing_object_ids": "",
        "bend_count": 1,
        "bend_penalty_cost": 0.0,
        "cost": 27061875.0
      }
    },
    {
      "type": "Feature",
      "geometry": {
        "type": "LineString",
        "coordinates": [
          [
            37.636855266149,
            55.697927744405
          ],
          [
            37.636968165182,
            55.69809574323
          ],
          [
            37.636904726092,
            55.698109341063
          ],
          [
            37.636844601106,
            55.698122228495
          ],
          [
            37.63555517445,
            55.698398600259
          ]
        ]
      },
      "properties": {
        "id": "cost_demand_new_24_1",
        "object_type": "heat_network",
        "variant_id": "cost_demand",
        "start_node_id": "cost_demand_new_chamber_8",
        "end_node_id": "cost_demand_new_chamber_7",
        "flow_tph": 137.24,
        "diameter": 200,
        "length": 115.0,
        "laying_method": "base",
        "depth_start": 3.0,
        "depth_end": 3.0,
        "depth_factor": 1.0,
        "special_factor": 1.0,
        "crossing_object_ids": "",
        "bend_count": 1,
        "bend_penalty_cost": 0.0,
        "cost": 13831625.0
      }
    },
    {
      "type": "Feature",
      "geometry": {
        "type": "LineString",
        "coordinates": [
          [
            37.638119498001,
            55.697656754304
          ],
          [
            37.636954690539,
            55.697906433239
          ],
          [
            37.636855266149,
            55.697927744405
          ]
        ]
      },
      "properties": {
        "id": "cost_demand_new_25_1",
        "object_type": "heat_network",
        "variant_id": "cost_demand",
        "start_node_id": "cost_demand_new_chamber_9",
        "end_node_id": "cost_demand_new_chamber_8",
        "flow_tph": 276.3,
        "diameter": 300,
        "length": 85.0,
        "laying_method": "base",
        "depth_start": 3.0,
        "depth_end": 3.0,
        "depth_factor": 1.0,
        "special_factor": 1.0,
        "crossing_object_ids": "",
        "bend_count": 0,
        "bend_penalty_cost": 0.0,
        "cost": 12751870.0
      }
    },
    {
      "type": "Feature",
      "geometry": {
        "type": "Point",
        "coordinates": [
          37.639132446285,
          55.698021663625
        ]
      },
      "properties": {
        "id": "cost_demand_tie_tie_chamber_110",
        "object_type": "tie_in",
        "variant_id": "cost_demand",
        "existing_object_id": "110",
        "existing_object_type": "heat_chamber",
        "existing_diameter": 300,
        "required_diameter": 200,
        "cost": 5000000
      }
    },
    {
      "type": "Feature",
      "geometry": {
        "type": "Point",
        "coordinates": [
          37.638461838842,
          55.697638536901
        ]
      },
      "properties": {
        "id": "cost_demand_tie_tie_chamber_106",
        "object_type": "tie_in",
        "variant_id": "cost_demand",
        "existing_object_id": "106",
        "existing_object_type": "heat_chamber",
        "existing_diameter": 300,
        "required_diameter": 300,
        "cost": 5000000
      }
    },
    {
      "type": "Feature",
      "geometry": {
        "type": "Point",
        "coordinates": [
          37.63452532492,
          55.697370051106
        ]
      },
      "properties": {
        "id": "cost_demand_new_chamber_1",
        "object_type": "heat_chamber",
        "variant_id": "cost_demand",
        "diameter": 200,
        "cost": 3000000
      }
    },
    {
      "type": "Feature",
      "geometry": {
        "type": "Point",
        "coordinates": [
          37.640353183308,
          55.697562322989
        ]
      },
      "properties": {
        "id": "cost_demand_new_chamber_10",
        "object_type": "heat_chamber",
        "variant_id": "cost_demand",
        "diameter": 200,
        "cost": 3000000
      }
    },
    {
      "type": "Feature",
      "geometry": {
        "type": "Point",
        "coordinates": [
          37.636388574993,
          55.697233270802
        ]
      },
      "properties": {
        "id": "cost_demand_new_chamber_2",
        "object_type": "heat_chamber",
        "variant_id": "cost_demand",
        "diameter": 200,
        "cost": 3000000
      }
    },
    {
      "type": "Feature",
      "geometry": {
        "type": "Point",
        "coordinates": [
          37.633289159824,
          55.699701073844
        ]
      },
      "properties": {
        "id": "cost_demand_new_chamber_3",
        "object_type": "heat_chamber",
        "variant_id": "cost_demand",
        "diameter": 200,
        "cost": 3000000
      }
    },
    {
      "type": "Feature",
      "geometry": {
        "type": "Point",
        "coordinates": [
          37.632857617916,
          55.700081843576
        ]
      },
      "properties": {
        "id": "cost_demand_new_chamber_4",
        "object_type": "heat_chamber",
        "variant_id": "cost_demand",
        "diameter": 150,
        "cost": 3000000
      }
    },
    {
      "type": "Feature",
      "geometry": {
        "type": "Point",
        "coordinates": [
          37.633952609493,
          55.699558893155
        ]
      },
      "properties": {
        "id": "cost_demand_new_chamber_5",
        "object_type": "heat_chamber",
        "variant_id": "cost_demand",
        "diameter": 200,
        "cost": 3000000
      }
    },
    {
      "type": "Feature",
      "geometry": {
        "type": "Point",
        "coordinates": [
          37.633780242013,
          55.697529739103
        ]
      },
      "properties": {
        "id": "cost_demand_new_chamber_6",
        "object_type": "heat_chamber",
        "variant_id": "cost_demand",
        "diameter": 200,
        "cost": 3000000
      }
    },
    {
      "type": "Feature",
      "geometry": {
        "type": "Point",
        "coordinates": [
          37.63555517445,
          55.698398600259
        ]
      },
      "properties": {
        "id": "cost_demand_new_chamber_7",
        "object_type": "heat_chamber",
        "variant_id": "cost_demand",
        "diameter": 200,
        "cost": 3000000
      }
    },
    {
      "type": "Feature",
      "geometry": {
        "type": "Point",
        "coordinates": [
          37.636855266149,
          55.697927744405
        ]
      },
      "properties": {
        "id": "cost_demand_new_chamber_8",
        "object_type": "heat_chamber",
        "variant_id": "cost_demand",
        "diameter": 300,
        "cost": 5000000
      }
    },
    {
      "type": "Feature",
      "geometry": {
        "type": "Point",
        "coordinates": [
          37.638119498001,
          55.697656754304
        ]
      },
      "properties": {
        "id": "cost_demand_new_chamber_9",
        "object_type": "heat_chamber",
        "variant_id": "cost_demand",
        "diameter": 300,
        "cost": 5000000
      }
    }
  ]
}