{
  "type": "FeatureCollection",
  "features": [
    {
      "type": "Feature",
      "geometry": {
        "type": "LineString",
        "coordinates": [
          [
            37.63452532492,
            55.697370051106
          ],
          [
            37.634446267723,
            55.697252395986
          ]
        ]
      },
      "properties": {
        "id": "cost_demand_new_1_1",
        "object_type": "heat_network",
        "variant_id": "cost_demand",
        "start_node_id": "cost_demand_new_chamber_1",
        "end_node_id": "9",
        "flow_tph": 34.53,
        "diameter": 125,
        "length": 14.006,
        "laying_method": "base",
        "depth_start": 3.0,
        "depth_end": 3.0,
        "depth_factor": 1.0,
        "special_factor": 1.0,
        "crossing_object_ids": [],
        "bend_count": 0,
        "bend_penalty_cost": 0.0,
        "cost": 1362480.13
      }
    },
    {
      "type": "Feature",
      "geometry": {
        "type": "LineString",
        "coordinates": [
          [
            37.63452532492,
            55.697370051106
          ],
          [
            37.633780242013,
            55.697529739103
          ]
        ]
      },
      "properties": {
        "id": "cost_demand_new_2_1",
        "object_type": "heat_network",
        "variant_id": "cost_demand",
        "start_node_id": "cost_demand_new_chamber_1",
        "end_node_id": "cost_demand_new_chamber_6",
        "flow_tph": 71.39,
        "diameter": 200,
        "length": 50.095,
        "laying_method": "base",
        "depth_start": 3.0,
        "depth_end": 3.0,
        "depth_factor": 1.0,
        "special_factor": 1.0,
        "crossing_object_ids": [],
        "bend_count": 0,
        "bend_penalty_cost": 0.0,
        "cost": 6025155.21
      }
    },
    {
      "type": "Feature",
      "geometry": {
        "type": "LineString",
        "coordinates": [
          [
            37.636388574993,
            55.697233270802
          ],
          [
            37.636199668137,
            55.697122420416
          ],
          [
            37.63452532492,
            55.697370051106
          ]
        ]
      },
      "properties": {
        "id": "cost_demand_new_3_1",
        "object_type": "heat_network",
        "variant_id": "cost_demand",
        "start_node_id": "cost_demand_new_chamber_2",
        "end_node_id": "cost_demand_new_chamber_1",
        "flow_tph": 105.92,
        "diameter": 200,
        "length": 125.922,
        "laying_method": "base",
        "depth_start": 3.0,
        "depth_end": 3.0,
        "depth_factor": 1.0,
        "special_factor": 1.0,
        "crossing_object_ids": [],
        "bend_count": 1,
        "bend_penalty_cost": 0.0,
        "cost": 15145325.25
      }
    },
    {
      "type": "Feature",
      "geometry": {
        "type": "LineString",
        "coordinates": [
          [
            37.636388574993,
            55.697233270802
          ],
          [
            37.636093240038,
            55.697296573769
          ]
        ]
      },
      "properties": {
        "id": "cost_demand_new_4_1",
        "object_type": "heat_network",
        "variant_id": "cost_demand",
        "start_node_id": "cost_demand_new_chamber_2",
        "end_node_id": "10",
        "flow_tph": 33.14,
        "diameter": 125,
        "length": 19.857,
        "laying_method": "base",
        "depth_start": 3.0,
        "depth_end": 3.0,
        "depth_factor": 1.0,
        "special_factor": 1.0,
        "crossing_object_ids": [],
        "bend_count": 0,
        "bend_penalty_cost": 0.0,
        "cost": 1931573.62
      }
    },
    {
      "type": "Feature",
      "geometry": {
        "type": "LineString",
        "coordinates": [
          [
            37.636855266149,
            55.697927744405
          ],
          [
            37.636388574993,
            55.697233270802
          ]
        ]
      },
      "properties": {
        "id": "cost_demand_new_5_1",
        "object_type": "heat_network",
        "variant_id": "cost_demand",
        "start_node_id": "cost_demand_new_chamber_8",
        "end_node_id": "cost_demand_new_chamber_2",
        "flow_tph": 139.06,
        "diameter": 200,
        "length": 82.676,
        "laying_method": "base",
        "depth_start": 3.0,
        "depth_end": 3.0,
        "depth_factor": 1.0,
        "special_factor": 1.0,
        "crossing_object_ids": [],
        "bend_count": 0,
        "bend_penalty_cost": 0.0,
        "cost": 9943841.07
      }
    },
    {
      "type": "Feature",
      "geometry": {
        "type": "LineString",
        "coordinates": [
          [
            37.633289159824,
            55.699701073844
          ],
          [
            37.633204498734,
            55.699575079394
          ]
        ]
      },
      "properties": {
        "id": "cost_demand_new_6_1",
        "object_type": "heat_network",
        "variant_id": "cost_demand",
        "start_node_id": "cost_demand_new_chamber_3",
        "end_node_id": "11",
        "flow_tph": 4.08,
        "diameter": 65,
        "length": 14.999,
        "laying_method": "base",
        "depth_start": 3.0,
        "depth_end": 3.0,
        "depth_factor": 1.0,
        "special_factor": 1.0,
        "crossing_object_ids": [],
        "bend_count": 0,
        "bend_penalty_cost": 0.0,
        "cost": 1179398.35
      }
    },
    {
      "type": "Feature",
      "geometry": {
        "type": "LineString",
        "coordinates": [
          [
            37.633289159824,
            55.699701073844
          ],
          [
            37.632857617916,
            55.700081843576
          ]
        ]
      },
      "properties": {
        "id": "cost_demand_new_7_1",
        "object_type": "heat_network",
        "variant_id": "cost_demand",
        "start_node_id": "cost_demand_new_chamber_3",
        "end_node_id": "cost_demand_new_chamber_4",
        "flow_tph": 63.44,
        "diameter": 150,
        "length": 50.318,
        "laying_method": "base",
        "depth_start": 3.0,
        "depth_end": 3.0,
        "depth_factor": 1.0,
        "special_factor": 1.0,
        "crossing_object_ids": [],
        "bend_count": 0,
        "bend_penalty_cost": 0.0,
        "cost": 5308860.3
      }
    },
    {
      "type": "Feature",
      "geometry": {
        "type": "LineString",
        "coordinates": [
          [
            37.63394088788,
            55.699556280734
          ],
          [
            37.633289159824,
            55.699701073844
          ]
        ]
      },
      "properties": {
        "id": "cost_demand_new_8_1",
        "object_type": "heat_network",
        "variant_id": "cost_demand",
        "start_node_id": "cost_demand_new_chamber_5",
        "end_node_id": "cost_demand_new_chamber_3",
        "flow_tph": 67.52,
        "diameter": 200,
        "length": 44.021,
        "laying_method": "base",
        "depth_start": 3.0,
        "depth_end": 3.0,
        "depth_factor": 1.0,
        "special_factor": 1.0,
        "crossing_object_ids": [],
        "bend_count": 0,
        "bend_penalty_cost": 0.0,
        "cost": 5294653.77
      }
    },
    {
      "type": "Feature",
      "geometry": {
        "type": "LineString",
        "coordinates": [
          [
            37.638461838842,
            55.697638536901
          ],
          [
            37.63817563543,
            55.697809844379
          ]
        ]
      },
      "properties": {
        "id": "cost_demand_new_9_1",
        "object_type": "heat_network",
        "variant_id": "cost_demand",
        "start_node_id": "cost_demand_tie_tie_chamber_106",
        "end_node_id": "cost_demand_new_chamber_9",
        "flow_tph": 304.12,
        "diameter": 300,
        "length": 26.215,
        "laying_method": "base",
        "depth_start": 3.0,
        "depth_end": 3.0,
        "depth_factor": 1.0,
        "special_factor": 1.0,
        "crossing_object_ids": [],
        "bend_count": 0,
        "bend_penalty_cost": 0.0,
        "cost": 3932764.43
      }
    },
    {
      "type": "Feature",
      "geometry": {
        "type": "LineString",
        "coordinates": [
          [
            37.639132446285,
            55.698021663625
          ],
          [
            37.639153982329,
            55.697819399628
          ],
          [
            37.640230493834,
            55.69754000859
          ]
        ]
      },
      "properties": {
        "id": "cost_demand_new_10_1",
        "object_type": "heat_network",
        "variant_id": "cost_demand",
        "start_node_id": "cost_demand_tie_tie_chamber_110",
        "end_node_id": "cost_demand_new_chamber_10",
        "flow_tph": 96.9,
        "diameter": 200,
        "length": 97.025,
        "laying_method": "base",
        "depth_start": 3.0,
        "depth_end": 3.0,
        "depth_factor": 1.0,
        "special_factor": 1.0,
        "crossing_object_ids": [],
        "bend_count": 1,
        "bend_penalty_cost": 0.0,
        "cost": 11669688.69
      }
    },
    {
      "type": "Feature",
      "geometry": {
        "type": "LineString",
        "coordinates": [
          [
            37.63394088788,
            55.699556280734
          ],
          [
            37.634026980813,
            55.699542954708
          ],
          [
            37.634405403981,
            55.699481068732
          ]
        ]
      },
      "properties": {
        "id": "cost_demand_new_11_1",
        "object_type": "heat_network",
        "variant_id": "cost_demand",
        "start_node_id": "cost_demand_new_chamber_5",
        "end_node_id": "1",
        "flow_tph": 24.87,
        "diameter": 125,
        "length": 30.375,
        "laying_method": "base",
        "depth_start": 3.0,
        "depth_end": 3.0,
        "depth_factor": 1.0,
        "special_factor": 1.0,
        "crossing_object_ids": [],
        "bend_count": 0,
        "bend_penalty_cost": 0.0,
        "cost": 2954697.87
      }
    },
    {
      "type": "Feature",
      "geometry": {
        "type": "LineString",
        "coordinates": [
          [
            37.63394088788,
            55.699556280734
          ],
          [
            37.634349500442,
            55.69990449393
          ],
          [
            37.634582926007,
            55.699854468118
          ]
        ]
      },
      "properties": {
        "id": "cost_demand_new_12_1",
        "object_type": "heat_network",
        "variant_id": "cost_demand",
        "start_node_id": "cost_demand_new_chamber_5",
        "end_node_id": "2",
        "flow_tph": 18.76,
        "diameter": 100,
        "length": 62.188,
        "laying_method": "base",
        "depth_start": 3.0,
        "depth_end": 3.0,
        "depth_factor": 1.0,
        "special_factor": 1.0,
        "crossing_object_ids": [],
        "bend_count": 1,
        "bend_penalty_cost": 0.0,
        "cost": 5581226.65
      }
    },
    {
      "type": "Feature",
      "geometry": {
        "type": "LineString",
        "coordinates": [
          [
            37.632857617916,
            55.700081843576
          ],
          [
            37.632846602295,
            55.700275764475
          ]
        ]
      },
      "properties": {
        "id": "cost_demand_new_13_1",
        "object_type": "heat_network",
        "variant_id": "cost_demand",
        "start_node_id": "cost_demand_new_chamber_4",
        "end_node_id": "3",
        "flow_tph": 29.42,
        "diameter": 125,
        "length": 21.595,
        "laying_method": "base",
        "depth_start": 3.0,
        "depth_end": 3.0,
        "depth_factor": 1.0,
        "special_factor": 1.0,
        "crossing_object_ids": [],
        "bend_count": 0,
        "bend_penalty_cost": 0.0,
        "cost": 2100641.02
      }
    },
    {
      "type": "Feature",
      "geometry": {
        "type": "LineString",
        "coordinates": [
          [
            37.63555517445,
            55.698398600259
          ],
          [
            37.635417055874,
            55.698614736028
          ]
        ]
      },
      "properties": {
        "id": "cost_demand_new_14_1",
        "object_type": "heat_network",
        "variant_id": "cost_demand",
        "start_node_id": "cost_demand_new_chamber_7",
        "end_node_id": "5",
        "flow_tph": 26.09,
        "diameter": 125,
        "length": 25.575,
        "laying_method": "base",
        "depth_start": 3.0,
        "depth_end": 3.0,
        "depth_factor": 1.0,
        "special_factor": 1.0,
        "crossing_object_ids": [],
        "bend_count": 0,
        "bend_penalty_cost": 0.0,
        "cost": 2487808.92
      }
    },
    {
      "type": "Feature",
      "geometry": {
        "type": "LineString",
        "coordinates": [
          [
            37.632857617916,
            55.700081843576
          ],
          [
            37.632058719057,
            55.700117459926
          ],
          [
            37.632012226301,
            55.700048265534
          ]
        ]
      },
      "properties": {
        "id": "cost_demand_new_15_1",
        "object_type": "heat_network",
        "variant_id": "cost_demand",
        "start_node_id": "cost_demand_new_chamber_4",
        "end_node_id": "6",
        "flow_tph": 15.99,
        "diameter": 100,
        "length": 58.609,
        "laying_method": "base",
        "depth_start": 3.0,
        "depth_end": 3.0,
        "depth_factor": 1.0,
        "special_factor": 1.0,
        "crossing_object_ids": [],
        "bend_count": 1,
        "bend_penalty_cost": 0.0,
        "cost": 5260020.27
      }
    },
    {
      "type": "Feature",
      "geometry": {
        "type": "LineString",
        "coordinates": [
          [
            37.63817563543,
            55.697809844379
          ],
          [
            37.638280304046,
            55.697956790567
          ]
        ]
      },
      "properties": {
        "id": "cost_demand_new_16_1",
        "object_type": "heat_network",
        "variant_id": "cost_demand",
        "start_node_id": "cost_demand_new_chamber_9",
        "end_node_id": "7",
        "flow_tph": 27.82,
        "diameter": 125,
        "length": 17.629,
        "laying_method": "base",
        "depth_start": 3.0,
        "depth_end": 3.0,
        "depth_factor": 1.0,
        "special_factor": 1.0,
        "crossing_object_ids": [],
        "bend_count": 0,
        "bend_penalty_cost": 0.0,
        "cost": 1714874.32
      }
    },
    {
      "type": "Feature",
      "geometry": {
        "type": "LineString",
        "coordinates": [
          [
            37.632857617916,
            55.700081843576
          ],
          [
            37.632337006978,
            55.700193406727
          ],
          [
            37.632202633433,
            55.700314421709
          ]
        ]
      },
      "properties": {
        "id": "cost_demand_new_17_1",
        "object_type": "heat_network",
        "variant_id": "cost_demand",
        "start_node_id": "cost_demand_new_chamber_4",
        "end_node_id": "8",
        "flow_tph": 18.03,
        "diameter": 100,
        "length": 50.898,
        "laying_method": "base",
        "depth_start": 3.0,
        "depth_end": 3.0,
        "depth_factor": 1.0,
        "special_factor": 1.0,
        "crossing_object_ids": [],
        "bend_count": 1,
        "bend_penalty_cost": 0.0,
        "cost": 4568020.58
      }
    },
    {
      "type": "Feature",
      "geometry": {
        "type": "LineString",
        "coordinates": [
          [
            37.633780242013,
            55.697529739103
          ],
          [
            37.633836684232,
            55.69761373991
          ],
          [
            37.633901056125,
            55.697722611511
          ]
        ]
      },
      "properties": {
        "id": "cost_demand_new_18_1",
        "object_type": "heat_network",
        "variant_id": "cost_demand",
        "start_node_id": "cost_demand_new_chamber_6",
        "end_node_id": "13",
        "flow_tph": 19.77,
        "diameter": 100,
        "length": 22.775,
        "laying_method": "base",
        "depth_start": 3.0,
        "depth_end": 3.0,
        "depth_factor": 1.0,
        "special_factor": 1.0,
        "crossing_object_ids": [],
        "bend_count": 0,
        "bend_penalty_cost": 0.0,
        "cost": 2044042.69
      }
    },
    {
      "type": "Feature",
      "geometry": {
        "type": "LineString",
        "coordinates": [
          [
            37.633780242013,
            55.697529739103
          ],
          [
            37.63375244097,
            55.697472333488
          ]
        ]
      },
      "properties": {
        "id": "cost_demand_new_19_1",
        "object_type": "heat_network",
        "variant_id": "cost_demand",
        "start_node_id": "cost_demand_new_chamber_6",
        "end_node_id": "14",
        "flow_tph": 19.73,
        "diameter": 100,
        "length": 6.624,
        "laying_method": "base",
        "depth_start": 3.0,
        "depth_end": 3.0,
        "depth_factor": 1.0,
        "special_factor": 1.0,
        "crossing_object_ids": [],
        "bend_count": 0,
        "bend_penalty_cost": 0.0,
        "cost": 594493.64
      }
    },
    {
      "type": "Feature",
      "geometry": {
        "type": "LineString",
        "coordinates": [
          [
            37.633780242013,
            55.697529739103
          ],
          [
            37.632939321102,
            55.697709960314
          ],
          [
            37.632663110329,
            55.697639788105
          ],
          [
            37.632262572659,
            55.697043644827
          ],
          [
            37.632034439325,
            55.697045694109
          ]
        ]
      },
      "properties": {
        "id": "cost_demand_new_20_1",
        "object_type": "heat_network",
        "variant_id": "cost_demand",
        "start_node_id": "cost_demand_new_chamber_6",
        "end_node_id": "15",
        "flow_tph": 31.89,
        "diameter": 125,
        "length": 160.887,
        "laying_method": "base",
        "depth_start": 3.0,
        "depth_end": 3.0,
        "depth_factor": 1.0,
        "special_factor": 1.0,
        "crossing_object_ids": [],
        "bend_count": 3,
        "bend_penalty_cost": 0.0,
        "cost": 15650265.43
      }
    },
    {
      "type": "Feature",
      "geometry": {
        "type": "LineString",
        "coordinates": [
          [
            37.640230493834,
            55.69754000859
          ],
          [
            37.640394086093,
            55.697553554258
          ],
          [
            37.640949929531,
            55.698323581244
          ],
          [
            37.640764466155,
            55.698407396101
          ]
        ]
      },
      "properties": {
        "id": "cost_demand_new_21_1",
        "object_type": "heat_network",
        "variant_id": "cost_demand",
        "start_node_id": "cost_demand_new_chamber_10",
        "end_node_id": "16",
        "flow_tph": 76.27,
        "diameter": 200,
        "length": 117.878,
        "laying_method": "base",
        "depth_start": 3.0,
        "depth_end": 3.0,
        "depth_factor": 1.0,
        "special_factor": 1.0,
        "crossing_object_ids": [],
        "bend_count": 2,
        "bend_penalty_cost": 0.0,
        "cost": 14177770.49
      }
    },
    {
      "type": "Feature",
      "geometry": {
        "type": "LineString",
        "coordinates": [
          [
            37.640230493834,
            55.69754000859
          ],
          [
            37.639901540648,
            55.696890339193
          ],
          [
            37.639538145943,
            55.696851832917
          ]
        ]
      },
      "properties": {
        "id": "cost_demand_new_22_1",
        "object_type": "heat_network",
        "variant_id": "cost_demand",
        "start_node_id": "cost_demand_new_chamber_10",
        "end_node_id": "17",
        "flow_tph": 20.63,
        "diameter": 100,
        "length": 98.45,
        "laying_method": "base",
        "depth_start": 3.0,
        "depth_end": 3.0,
        "depth_factor": 1.0,
        "special_factor": 1.0,
        "crossing_object_ids": [],
        "bend_count": 1,
        "bend_penalty_cost": 0.0,
        "cost": 8835663.24
      }
    },
    {
      "type": "Feature",
      "geometry": {
        "type": "LineString",
        "coordinates": [
          [
            37.63555517445,
            55.698398600259
          ],
          [
            37.633726011404,
            55.698790627437
          ],
          [
            37.633568908357,
            55.698987868443
          ],
          [
            37.63394088788,
            55.699556280734
          ]
        ]
      },
      "properties": {
        "id": "cost_demand_new_23_1",
        "object_type": "heat_network",
        "variant_id": "cost_demand",
        "start_node_id": "cost_demand_new_chamber_7",
        "end_node_id": "cost_demand_new_chamber_5",
        "flow_tph": 111.15,
        "diameter": 200,
        "length": 214.498,
        "laying_method": "base",
        "depth_start": 3.0,
        "depth_end": 3.0,
        "depth_factor": 1.0,
        "special_factor": 1.0,
        "crossing_object_ids": [],
        "bend_count": 2,
        "bend_penalty_cost": 0.0,
        "cost": 25798783.57
      }
    },
    {
      "type": "Feature",
      "geometry": {
        "type": "LineString",
        "coordinates": [
          [
            37.636855266149,
            55.697927744405
          ],
          [
            37.63555517445,
            55.698398600259
          ]
        ]
      },
      "properties": {
        "id": "cost_demand_new_24_1",
        "object_type": "heat_network",
        "variant_id": "cost_demand",
        "start_node_id": "cost_demand_new_chamber_8",
        "end_node_id": "cost_demand_new_chamber_7",
        "flow_tph": 137.24,
        "diameter": 200,
        "length": 97.082,
        "laying_method": "base",
        "depth_start": 3.0,
        "depth_end": 3.0,
        "depth_factor": 1.0,
        "special_factor": 1.0,
        "crossing_object_ids": [],
        "bend_count": 0,
        "bend_penalty_cost": 0.0,
        "cost": 11676590.37
      }
    },
    {
      "type": "Feature",
      "geometry": {
        "type": "LineString",
        "coordinates": [
          [
            37.63817563543,
            55.697809844379
          ],
          [
            37.636855266149,
            55.697927744405
          ]
        ]
      },
      "properties": {
        "id": "cost_demand_new_25_1",
        "object_type": "heat_network",
        "variant_id": "cost_demand",
        "start_node_id": "cost_demand_new_chamber_9",
        "end_node_id": "cost_demand_new_chamber_8",
        "flow_tph": 276.3,
        "diameter": 300,
        "length": 84.028,
        "laying_method": "base",
        "depth_start": 3.0,
        "depth_end": 3.0,
        "depth_factor": 1.0,
        "special_factor": 1.0,
        "crossing_object_ids": [],
        "bend_count": 0,
        "bend_penalty_cost": 0.0,
        "cost": 12606088.01
      }
    },
    {
      "type": "Feature",
      "geometry": {
        "type": "Point",
        "coordinates": [
          37.639132446285,
          55.698021663625
        ]
      },
      "properties": {
        "id": "cost_demand_tie_tie_chamber_110",
        "object_type": "tie_in",
        "variant_id": "cost_demand",
        "existing_object_id": "110",
        "existing_object_type": "heat_chamber",
        "existing_diameter": 300,
        "required_diameter": 200,
        "cost": 5000000
      }
    },
    {
      "type": "Feature",
      "geometry": {
        "type": "Point",
        "coordinates": [
          37.638461838842,
          55.697638536901
        ]
      },
      "properties": {
        "id": "cost_demand_tie_tie_chamber_106",
        "object_type": "tie_in",
        "variant_id": "cost_demand",
        "existing_object_id": "106",
        "existing_object_type": "heat_chamber",
        "existing_diameter": 300,
        "required_diameter": 300,
        "cost": 5000000
      }
    },
    {
      "type": "Feature",
      "geometry": {
        "type": "Point",
        "coordinates": [
          37.63452532492,
          55.697370051106
        ]
      },
      "properties": {
        "id": "cost_demand_new_chamber_1",
        "object_type": "heat_chamber",
        "variant_id": "cost_demand",
        "diameter": 200,
        "cost": 3000000
      }
    },
    {
      "type": "Feature",
      "geometry": {
        "type": "Point",
        "coordinates": [
          37.640230493834,
          55.69754000859
        ]
      },
      "properties": {
        "id": "cost_demand_new_chamber_10",
        "object_type": "heat_chamber",
        "variant_id": "cost_demand",
        "diameter": 200,
        "cost": 3000000
      }
    },
    {
      "type": "Feature",
      "geometry": {
        "type": "Point",
        "coordinates": [
          37.636388574993,
          55.697233270802
        ]
      },
      "properties": {
        "id": "cost_demand_new_chamber_2",
        "object_type": "heat_chamber",
        "variant_id": "cost_demand",
        "diameter": 200,
        "cost": 3000000
      }
    },
    {
      "type": "Feature",
      "geometry": {
        "type": "Point",
        "coordinates": [
          37.633289159824,
          55.699701073844
        ]
      },
      "properties": {
        "id": "cost_demand_new_chamber_3",
        "object_type": "heat_chamber",
        "variant_id": "cost_demand",
        "diameter": 200,
        "cost": 3000000
      }
    },
    {
      "type": "Feature",
      "geometry": {
        "type": "Point",
        "coordinates": [
          37.632857617916,
          55.700081843576
        ]
      },
      "properties": {
        "id": "cost_demand_new_chamber_4",
        "object_type": "heat_chamber",
        "variant_id": "cost_demand",
        "diameter": 150,
        "cost": 3000000
      }
    },
    {
      "type": "Feature",
      "geometry": {
        "type": "Point",
        "coordinates": [
          37.63394088788,
          55.699556280734
        ]
      },
      "properties": {
        "id": "cost_demand_new_chamber_5",
        "object_type": "heat_chamber",
        "variant_id": "cost_demand",
        "diameter": 200,
        "cost": 3000000
      }
    },
    {
      "type": "Feature",
      "geometry": {
        "type": "Point",
        "coordinates": [
          37.633780242013,
          55.697529739103
        ]
      },
      "properties": {
        "id": "cost_demand_new_chamber_6",
        "object_type": "heat_chamber",
        "variant_id": "cost_demand",
        "diameter": 200,
        "cost": 3000000
      }
    },
    {
      "type": "Feature",
      "geometry": {
        "type": "Point",
        "coordinates": [
          37.63555517445,
          55.698398600259
        ]
      },
      "properties": {
        "id": "cost_demand_new_chamber_7",
        "object_type": "heat_chamber",
        "variant_id": "cost_demand",
        "diameter": 200,
        "cost": 3000000
      }
    },
    {
      "type": "Feature",
      "geometry": {
        "type": "Point",
        "coordinates": [
          37.636855266149,
          55.697927744405
        ]
      },
      "properties": {
        "id": "cost_demand_new_chamber_8",
        "object_type": "heat_chamber",
        "variant_id": "cost_demand",
        "diameter": 300,
        "cost": 5000000
      }
    },
    {
      "type": "Feature",
      "geometry": {
        "type": "Point",
        "coordinates": [
          37.63817563543,
          55.697809844379
        ]
      },
      "properties": {
        "id": "cost_demand_new_chamber_9",
        "object_type": "heat_chamber",
        "variant_id": "cost_demand",
        "diameter": 300,
        "cost": 5000000
      }
    },
    {
      "type": "Feature",
      "geometry": null,
      "properties": {
        "id": "cost_demand_summary",
        "object_type": "variant_summary",
        "variant_id": "cost_demand",
        "rank": 2,
        "label": "cost-aware forest, demand insertion with branch reattachment",
        "construction_cost": 177844727.88,
        "chamber_construction_cost": 34000000.0,
        "tie_in_cost": 10000000.0,
        "reconstruction_cost": 0.0,
        "chamber_reconstruction_cost": 0.0,
        "bend_penalty_cost": 0.0,
        "unconnected_penalty": 243850000.0,
        "calculated_cost": 465694727.88,
        "new_network_length": 1594.226,
        "reconstruction_length": 0.0,
        "length": 1594.226,
        "score": 17.822129,
        "route_bend_count": 13,
        "route_right_angle_count": 0,
        "micro_bend_count": 1,
        "unconnected_oks_ids": [
          "4",
          "12"
        ],
        "connected_oks_count": 15,
        "tie_in_count": 2,
        "depth_routing": true,
        "special_passage_count": 0,
        "min_depth_m": 3.0,
        "max_depth_m": 3.0,
        "connection_adjustments": [],
        "building_entry_allowed": true,
        "optimization_objective": "official_score",
        "optimality": "best found by cost-aware growth and local branch reattachment; no global guarantee",
        "note": "Existing-network reconstruction is zero because heat_network flow_tph/upstream_object_id are absent in this dataset."
      }
    }
  ],
  "crs": {
    "type": "name",
    "properties": {
      "name": "urn:ogc:def:crs:OGC:1.3:CRS84"
    }
  }
}