{
  "type": "FeatureCollection",
  "features": [
    {
      "type": "Feature",
      "geometry": {
        "type": "LineString",
        "coordinates": [
          [
            37.634112638199,
            55.699543811886
          ],
          [
            37.634405403981,
            55.699481068732
          ]
        ]
      },
      "properties": {
        "id": "cost_cheapest_new_1",
        "object_type": "heat_network",
        "variant_id": "cost_cheapest",
        "start_node_id": "cost_cheapest_new_chamber_1",
        "end_node_id": "1",
        "flow_tph": 24.87,
        "diameter": 125,
        "length": 19.683,
        "laying_method": "base",
        "depth_start": null,
        "depth_end": null,
        "bend_count": 0,
        "bend_penalty_cost": 0.0,
        "cost": 1914639.98
      }
    },
    {
      "type": "Feature",
      "geometry": {
        "type": "LineString",
        "coordinates": [
          [
            37.633719199371,
            55.699464768687
          ],
          [
            37.634016683945,
            55.69940101519
          ],
          [
            37.634112638199,
            55.699543811886
          ]
        ]
      },
      "properties": {
        "id": "cost_cheapest_new_2",
        "object_type": "heat_network",
        "variant_id": "cost_cheapest",
        "start_node_id": "cost_cheapest_new_chamber_6",
        "end_node_id": "cost_cheapest_new_chamber_1",
        "flow_tph": 43.63,
        "diameter": 150,
        "length": 36.999,
        "laying_method": "base",
        "depth_start": null,
        "depth_end": null,
        "bend_count": 1,
        "bend_penalty_cost": 0.0,
        "cost": 3903702.95
      }
    },
    {
      "type": "Feature",
      "geometry": {
        "type": "LineString",
        "coordinates": [
          [
            37.634112638199,
            55.699543811886
          ],
          [
            37.634354313725,
            55.699903462394
          ],
          [
            37.634582926007,
            55.699854468118
          ]
        ]
      },
      "properties": {
        "id": "cost_cheapest_new_3",
        "object_type": "heat_network",
        "variant_id": "cost_cheapest",
        "start_node_id": "cost_cheapest_new_chamber_1",
        "end_node_id": "2",
        "flow_tph": 18.76,
        "diameter": 100,
        "length": 58.185,
        "laying_method": "base",
        "depth_start": null,
        "depth_end": null,
        "bend_count": 1,
        "bend_penalty_cost": 0.0,
        "cost": 5221968.75
      }
    },
    {
      "type": "Feature",
      "geometry": {
        "type": "LineString",
        "coordinates": [
          [
            37.632136507185,
            55.700021633574
          ],
          [
            37.632012226301,
            55.700048265534
          ]
        ]
      },
      "properties": {
        "id": "cost_cheapest_new_4",
        "object_type": "heat_network",
        "variant_id": "cost_cheapest",
        "start_node_id": "cost_cheapest_new_chamber_2",
        "end_node_id": "6",
        "flow_tph": 15.99,
        "diameter": 100,
        "length": 8.355,
        "laying_method": "base",
        "depth_start": null,
        "depth_end": null,
        "bend_count": 0,
        "bend_penalty_cost": 0.0,
        "cost": 749866.24
      }
    },
    {
      "type": "Feature",
      "geometry": {
        "type": "LineString",
        "coordinates": [
          [
            37.632567764415,
            55.699903715694
          ],
          [
            37.632121527995,
            55.699999340345
          ],
          [
            37.632136507185,
            55.700021633574
          ]
        ]
      },
      "properties": {
        "id": "cost_cheapest_new_5",
        "object_type": "heat_network",
        "variant_id": "cost_cheapest",
        "start_node_id": "cost_cheapest_new_chamber_4",
        "end_node_id": "cost_cheapest_new_chamber_2",
        "flow_tph": 34.02,
        "diameter": 125,
        "length": 32.654,
        "laying_method": "base",
        "depth_start": null,
        "depth_end": null,
        "bend_count": 1,
        "bend_penalty_cost": 0.0,
        "cost": 3176408.8
      }
    },
    {
      "type": "Feature",
      "geometry": {
        "type": "LineString",
        "coordinates": [
          [
            37.632136507185,
            55.700021633574
          ],
          [
            37.632316799686,
            55.700289957174
          ],
          [
            37.632202633433,
            55.700314421709
          ]
        ]
      },
      "properties": {
        "id": "cost_cheapest_new_6",
        "object_type": "heat_network",
        "variant_id": "cost_cheapest",
        "start_node_id": "cost_cheapest_new_chamber_2",
        "end_node_id": "8",
        "flow_tph": 18.03,
        "diameter": 100,
        "length": 39.618,
        "laying_method": "base",
        "depth_start": null,
        "depth_end": null,
        "bend_count": 1,
        "bend_penalty_cost": 0.0,
        "cost": 3555628.91
      }
    },
    {
      "type": "Feature",
      "geometry": {
        "type": "LineString",
        "coordinates": [
          [
            37.634057468269,
            55.697689089356
          ],
          [
            37.633901056125,
            55.697722611511
          ]
        ]
      },
      "properties": {
        "id": "cost_cheapest_new_7",
        "object_type": "heat_network",
        "variant_id": "cost_cheapest",
        "start_node_id": "cost_cheapest_new_chamber_3",
        "end_node_id": "13",
        "flow_tph": 19.77,
        "diameter": 100,
        "length": 10.516,
        "laying_method": "base",
        "depth_start": null,
        "depth_end": null,
        "bend_count": 0,
        "bend_penalty_cost": 0.0,
        "cost": 943800.64
      }
    },
    {
      "type": "Feature",
      "geometry": {
        "type": "LineString",
        "coordinates": [
          [
            37.634057468269,
            55.697689089356
          ],
          [
            37.633928976997,
            55.697497862323
          ]
        ]
      },
      "properties": {
        "id": "cost_cheapest_new_8",
        "object_type": "heat_network",
        "variant_id": "cost_cheapest",
        "start_node_id": "cost_cheapest_new_chamber_3",
        "end_node_id": "cost_cheapest_new_chamber_7",
        "flow_tph": 86.15,
        "diameter": 200,
        "length": 22.765,
        "laying_method": "base",
        "depth_start": null,
        "depth_end": null,
        "bend_count": 0,
        "bend_penalty_cost": 0.0,
        "cost": 2738051.56
      }
    },
    {
      "type": "Feature",
      "geometry": {
        "type": "LineString",
        "coordinates": [
          [
            37.634549857609,
            55.698421869051
          ],
          [
            37.634057468269,
            55.697689089356
          ]
        ]
      },
      "properties": {
        "id": "cost_cheapest_new_9",
        "object_type": "heat_network",
        "variant_id": "cost_cheapest",
        "start_node_id": "cost_cheapest_new_chamber_8",
        "end_node_id": "cost_cheapest_new_chamber_3",
        "flow_tph": 105.92,
        "diameter": 200,
        "length": 87.235,
        "laying_method": "base",
        "depth_start": null,
        "depth_end": null,
        "bend_count": 0,
        "bend_penalty_cost": 0.0,
        "cost": 10492198.44
      }
    },
    {
      "type": "Feature",
      "geometry": {
        "type": "LineString",
        "coordinates": [
          [
            37.632567764415,
            55.699903715694
          ],
          [
            37.632821387541,
            55.70028116785
          ],
          [
            37.632846602295,
            55.700275764475
          ]
        ]
      },
      "properties": {
        "id": "cost_cheapest_new_10",
        "object_type": "heat_network",
        "variant_id": "cost_cheapest",
        "start_node_id": "cost_cheapest_new_chamber_4",
        "end_node_id": "3",
        "flow_tph": 29.42,
        "diameter": 125,
        "length": 46.629,
        "laying_method": "base",
        "depth_start": null,
        "depth_end": null,
        "bend_count": 1,
        "bend_penalty_cost": 0.0,
        "cost": 4535859.39
      }
    },
    {
      "type": "Feature",
      "geometry": {
        "type": "LineString",
        "coordinates": [
          [
            37.63555517445,
            55.698398600259
          ],
          [
            37.634960224514,
            55.698526114105
          ],
          [
            37.636096132497,
            55.700216440367
          ],
          [
            37.636381851248,
            55.700155203293
          ]
        ]
      },
      "properties": {
        "id": "cost_cheapest_new_11",
        "object_type": "heat_network",
        "variant_id": "cost_cheapest",
        "start_node_id": "cost_cheapest_new_chamber_9",
        "end_node_id": "4",
        "flow_tph": 47.7,
        "diameter": 150,
        "length": 260.438,
        "laying_method": "base",
        "depth_start": null,
        "depth_end": null,
        "bend_count": 2,
        "bend_penalty_cost": 0.0,
        "cost": 27478043.51
      }
    },
    {
      "type": "Feature",
      "geometry": {
        "type": "LineString",
        "coordinates": [
          [
            37.63555517445,
            55.698398600259
          ],
          [
            37.635664742421,
            55.698561649631
          ],
          [
            37.635417055874,
            55.698614736028
          ]
        ]
      },
      "properties": {
        "id": "cost_cheapest_new_12",
        "object_type": "heat_network",
        "variant_id": "cost_cheapest",
        "start_node_id": "cost_cheapest_new_chamber_9",
        "end_node_id": "5",
        "flow_tph": 26.09,
        "diameter": 125,
        "length": 36.063,
        "laying_method": "base",
        "depth_start": null,
        "depth_end": null,
        "bend_count": 1,
        "bend_penalty_cost": 0.0,
        "cost": 3508048.76
      }
    },
    {
      "type": "Feature",
      "geometry": {
        "type": "LineString",
        "coordinates": [
          [
            37.638461838842,
            55.697638536901
          ],
          [
            37.638485884362,
            55.697674315601
          ],
          [
            37.638324682034,
            55.697708871046
          ],
          [
            37.638464730528,
            55.697917257089
          ],
          [
            37.638280304046,
            55.697956790567
          ]
        ]
      },
      "properties": {
        "id": "cost_cheapest_new_13",
        "object_type": "heat_network",
        "variant_id": "cost_cheapest",
        "start_node_id": "cost_cheapest_tie_tie_chamber_106",
        "end_node_id": "7",
        "flow_tph": 27.82,
        "diameter": 125,
        "length": 52.306,
        "laying_method": "base",
        "depth_start": null,
        "depth_end": null,
        "bend_count": 3,
        "bend_penalty_cost": 0.0,
        "cost": 5088060.42
      }
    },
    {
      "type": "Feature",
      "geometry": {
        "type": "LineString",
        "coordinates": [
          [
            37.633928976997,
            55.697497862323
          ],
          [
            37.63452532492,
            55.697370051106
          ],
          [
            37.634446267723,
            55.697252395986
          ]
        ]
      },
      "properties": {
        "id": "cost_cheapest_new_14",
        "object_type": "heat_network",
        "variant_id": "cost_cheapest",
        "start_node_id": "cost_cheapest_new_chamber_7",
        "end_node_id": "9",
        "flow_tph": 34.53,
        "diameter": 125,
        "length": 54.101,
        "laying_method": "base",
        "depth_start": null,
        "depth_end": null,
        "bend_count": 1,
        "bend_penalty_cost": 0.0,
        "cost": 5262704.34
      }
    },
    {
      "type": "Feature",
      "geometry": {
        "type": "LineString",
        "coordinates": [
          [
            37.63682704154,
            55.697885744683
          ],
          [
            37.636488350911,
            55.69738174751
          ],
          [
            37.63619301499,
            55.697445050711
          ],
          [
            37.636093240038,
            55.697296573769
          ]
        ]
      },
      "properties": {
        "id": "cost_cheapest_new_15",
        "object_type": "heat_network",
        "variant_id": "cost_cheapest",
        "start_node_id": "cost_cheapest_new_chamber_10",
        "end_node_id": "10",
        "flow_tph": 33.14,
        "diameter": 125,
        "length": 97.533,
        "laying_method": "base",
        "depth_start": null,
        "depth_end": null,
        "bend_count": 2,
        "bend_penalty_cost": 0.0,
        "cost": 9487494.52
      }
    },
    {
      "type": "Feature",
      "geometry": {
        "type": "LineString",
        "coordinates": [
          [
            37.633719199371,
            55.699464768687
          ],
          [
            37.633496085311,
            55.699512583332
          ],
          [
            37.633496090096,
            55.699512590452
          ],
          [
            37.633204498734,
            55.699575079394
          ]
        ]
      },
      "properties": {
        "id": "cost_cheapest_new_16",
        "object_type": "heat_network",
        "variant_id": "cost_cheapest",
        "start_node_id": "cost_cheapest_new_chamber_6",
        "end_node_id": "11",
        "flow_tph": 4.08,
        "diameter": 65,
        "length": 34.605,
        "laying_method": "base",
        "depth_start": null,
        "depth_end": null,
        "bend_count": 2,
        "bend_penalty_cost": 0.0,
        "cost": 2720989.18
      }
    },
    {
      "type": "Feature",
      "geometry": {
        "type": "LineString",
        "coordinates": [
          [
            37.633239428173,
            55.698750760647
          ],
          [
            37.63316945053,
            55.698646615782
          ],
          [
            37.633139321938,
            55.698653072531
          ]
        ]
      },
      "properties": {
        "id": "cost_cheapest_new_17",
        "object_type": "heat_network",
        "variant_id": "cost_cheapest",
        "start_node_id": "cost_cheapest_new_chamber_5",
        "end_node_id": "12",
        "flow_tph": 40.0,
        "diameter": 125,
        "length": 14.424,
        "laying_method": "base",
        "depth_start": null,
        "depth_end": null,
        "bend_count": 1,
        "bend_penalty_cost": 0.0,
        "cost": 1403058.58
      }
    },
    {
      "type": "Feature",
      "geometry": {
        "type": "LineString",
        "coordinates": [
          [
            37.633928976997,
            55.697497862323
          ],
          [
            37.633891760552,
            55.697442474608
          ],
          [
            37.63375244097,
            55.697472333488
          ]
        ]
      },
      "properties": {
        "id": "cost_cheapest_new_18",
        "object_type": "heat_network",
        "variant_id": "cost_cheapest",
        "start_node_id": "cost_cheapest_new_chamber_7",
        "end_node_id": "14",
        "flow_tph": 19.73,
        "diameter": 100,
        "length": 15.961,
        "laying_method": "base",
        "depth_start": null,
        "depth_end": null,
        "bend_count": 1,
        "bend_penalty_cost": 0.0,
        "cost": 1432440.5
      }
    },
    {
      "type": "Feature",
      "geometry": {
        "type": "LineString",
        "coordinates": [
          [
            37.633928976997,
            55.697497862323
          ],
          [
            37.632664721999,
            55.697768809161
          ],
          [
            37.632160695416,
            55.697018636714
          ],
          [
            37.632034439325,
            55.697045694109
          ]
        ]
      },
      "properties": {
        "id": "cost_cheapest_new_19",
        "object_type": "heat_network",
        "variant_id": "cost_cheapest",
        "start_node_id": "cost_cheapest_new_chamber_7",
        "end_node_id": "15",
        "flow_tph": 31.89,
        "diameter": 125,
        "length": 182.793,
        "laying_method": "base",
        "depth_start": null,
        "depth_end": null,
        "bend_count": 2,
        "bend_penalty_cost": 0.0,
        "cost": 17781228.5
      }
    },
    {
      "type": "Feature",
      "geometry": {
        "type": "LineString",
        "coordinates": [
          [
            37.640353183308,
            55.697562322989
          ],
          [
            37.640427548281,
            55.697546380627
          ],
          [
            37.640907436584,
            55.698260361316
          ],
          [
            37.640696091559,
            55.698305669397
          ],
          [
            37.640764466155,
            55.698407396101
          ]
        ]
      },
      "properties": {
        "id": "cost_cheapest_new_20",
        "object_type": "heat_network",
        "variant_id": "cost_cheapest",
        "start_node_id": "cost_cheapest_new_chamber_11",
        "end_node_id": "16",
        "flow_tph": 76.27,
        "diameter": 200,
        "length": 116.32,
        "laying_method": "base",
        "depth_start": null,
        "depth_end": null,
        "bend_count": 3,
        "bend_penalty_cost": 0.0,
        "cost": 13990436.65
      }
    },
    {
      "type": "Feature",
      "geometry": {
        "type": "LineString",
        "coordinates": [
          [
            37.640353183308,
            55.697562322989
          ],
          [
            37.639873313491,
            55.696848340151
          ],
          [
            37.639578303329,
            55.696911583722
          ],
          [
            37.639538145943,
            55.696851832917
          ]
        ]
      },
      "properties": {
        "id": "cost_cheapest_new_21",
        "object_type": "heat_network",
        "variant_id": "cost_cheapest",
        "start_node_id": "cost_cheapest_new_chamber_11",
        "end_node_id": "17",
        "flow_tph": 20.63,
        "diameter": 100,
        "length": 111.949,
        "laying_method": "base",
        "depth_start": null,
        "depth_end": null,
        "bend_count": 2,
        "bend_penalty_cost": 0.0,
        "cost": 10047190.16
      }
    },
    {
      "type": "Feature",
      "geometry": {
        "type": "LineString",
        "coordinates": [
          [
            37.638461838842,
            55.697638536901
          ],
          [
            37.638401205987,
            55.69754831751
          ],
          [
            37.63682704154,
            55.697885744683
          ]
        ]
      },
      "properties": {
        "id": "cost_cheapest_new_22",
        "object_type": "heat_network",
        "variant_id": "cost_cheapest",
        "start_node_id": "cost_cheapest_tie_tie_chamber_106",
        "end_node_id": "cost_cheapest_new_chamber_10",
        "flow_tph": 364.0,
        "diameter": 300,
        "length": 116.579,
        "laying_method": "base",
        "depth_start": null,
        "depth_end": null,
        "bend_count": 1,
        "bend_penalty_cost": 0.0,
        "cost": 17489415.51
      }
    },
    {
      "type": "Feature",
      "geometry": {
        "type": "LineString",
        "coordinates": [
          [
            37.639132446285,
            55.698021663625
          ],
          [
            37.639016338426,
            55.697848905833
          ],
          [
            37.640353183308,
            55.697562322989
          ]
        ]
      },
      "properties": {
        "id": "cost_cheapest_new_23",
        "object_type": "heat_network",
        "variant_id": "cost_cheapest",
        "start_node_id": "cost_cheapest_tie_tie_chamber_110",
        "end_node_id": "cost_cheapest_new_chamber_11",
        "flow_tph": 96.9,
        "diameter": 200,
        "length": 110.45,
        "laying_method": "base",
        "depth_start": null,
        "depth_end": null,
        "bend_count": 1,
        "bend_penalty_cost": 0.0,
        "cost": 13284390.64
      }
    },
    {
      "type": "Feature",
      "geometry": {
        "type": "LineString",
        "coordinates": [
          [
            37.633719199371,
            55.699464768687
          ],
          [
            37.633832089228,
            55.699632770307
          ],
          [
            37.632567764415,
            55.699903715694
          ]
        ]
      },
      "properties": {
        "id": "cost_cheapest_new_24",
        "object_type": "heat_network",
        "variant_id": "cost_cheapest",
        "start_node_id": "cost_cheapest_new_chamber_6",
        "end_node_id": "cost_cheapest_new_chamber_4",
        "flow_tph": 63.44,
        "diameter": 150,
        "length": 105.0,
        "laying_method": "base",
        "depth_start": null,
        "depth_end": null,
        "bend_count": 1,
        "bend_penalty_cost": 0.0,
        "cost": 11078235.0
      }
    },
    {
      "type": "Feature",
      "geometry": {
        "type": "LineString",
        "coordinates": [
          [
            37.633239428173,
            55.698750760647
          ],
          [
            37.633719199371,
            55.699464768687
          ]
        ]
      },
      "properties": {
        "id": "cost_cheapest_new_25",
        "object_type": "heat_network",
        "variant_id": "cost_cheapest",
        "start_node_id": "cost_cheapest_new_chamber_5",
        "end_node_id": "cost_cheapest_new_chamber_6",
        "flow_tph": 111.15,
        "diameter": 200,
        "length": 85.0,
        "laying_method": "base",
        "depth_start": null,
        "depth_end": null,
        "bend_count": 0,
        "bend_penalty_cost": 0.0,
        "cost": 10223375.0
      }
    },
    {
      "type": "Feature",
      "geometry": {
        "type": "LineString",
        "coordinates": [
          [
            37.634549857609,
            55.698421869051
          ],
          [
            37.634578080144,
            55.698463869283
          ],
          [
            37.633239428173,
            55.698750760647
          ]
        ]
      },
      "properties": {
        "id": "cost_cheapest_new_26",
        "object_type": "heat_network",
        "variant_id": "cost_cheapest",
        "start_node_id": "cost_cheapest_new_chamber_8",
        "end_node_id": "cost_cheapest_new_chamber_5",
        "flow_tph": 151.15,
        "diameter": 200,
        "length": 95.0,
        "laying_method": "base",
        "depth_start": null,
        "depth_end": null,
        "bend_count": 1,
        "bend_penalty_cost": 0.0,
        "cost": 11426125.0
      }
    },
    {
      "type": "Feature",
      "geometry": {
        "type": "LineString",
        "coordinates": [
          [
            37.63555517445,
            55.698398600259
          ],
          [
            37.635442280648,
            55.69823060017
          ],
          [
            37.634549857609,
            55.698421869051
          ]
        ]
      },
      "properties": {
        "id": "cost_cheapest_new_27",
        "object_type": "heat_network",
        "variant_id": "cost_cheapest",
        "start_node_id": "cost_cheapest_new_chamber_9",
        "end_node_id": "cost_cheapest_new_chamber_8",
        "flow_tph": 257.07,
        "diameter": 250,
        "length": 80.0,
        "laying_method": "base",
        "depth_start": null,
        "depth_end": null,
        "bend_count": 1,
        "bend_penalty_cost": 0.0,
        "cost": 10825840.0
      }
    },
    {
      "type": "Feature",
      "geometry": {
        "type": "LineString",
        "coordinates": [
          [
            37.63682704154,
            55.697885744683
          ],
          [
            37.636968165182,
            55.69809574323
          ],
          [
            37.63555517445,
            55.698398600259
          ]
        ]
      },
      "properties": {
        "id": "cost_cheapest_new_28",
        "object_type": "heat_network",
        "variant_id": "cost_cheapest",
        "start_node_id": "cost_cheapest_new_chamber_10",
        "end_node_id": "cost_cheapest_new_chamber_9",
        "flow_tph": 330.86,
        "diameter": 300,
        "length": 120.0,
        "laying_method": "base",
        "depth_start": null,
        "depth_end": null,
        "bend_count": 1,
        "bend_penalty_cost": 0.0,
        "cost": 18002640.0
      }
    },
    {
      "type": "Feature",
      "geometry": {
        "type": "Point",
        "coordinates": [
          37.638461838842,
          55.697638536901
        ]
      },
      "properties": {
        "id": "cost_cheapest_tie_tie_chamber_106",
        "object_type": "tie_in",
        "variant_id": "cost_cheapest",
        "existing_object_id": "106",
        "existing_object_type": "heat_chamber",
        "existing_diameter": 300,
        "required_diameter": 300,
        "cost": 5000000
      }
    },
    {
      "type": "Feature",
      "geometry": {
        "type": "Point",
        "coordinates": [
          37.639132446285,
          55.698021663625
        ]
      },
      "properties": {
        "id": "cost_cheapest_tie_tie_chamber_110",
        "object_type": "tie_in",
        "variant_id": "cost_cheapest",
        "existing_object_id": "110",
        "existing_object_type": "heat_chamber",
        "existing_diameter": 300,
        "required_diameter": 200,
        "cost": 5000000
      }
    },
    {
      "type": "Feature",
      "geometry": {
        "type": "Point",
        "coordinates": [
          37.634112638199,
          55.699543811886
        ]
      },
      "properties": {
        "id": "cost_cheapest_new_chamber_1",
        "object_type": "heat_chamber",
        "variant_id": "cost_cheapest",
        "diameter": 150,
        "cost": 3000000
      }
    },
    {
      "type": "Feature",
      "geometry": {
        "type": "Point",
        "coordinates": [
          37.63682704154,
          55.697885744683
        ]
      },
      "properties": {
        "id": "cost_cheapest_new_chamber_10",
        "object_type": "heat_chamber",
        "variant_id": "cost_cheapest",
        "diameter": 300,
        "cost": 5000000
      }
    },
    {
      "type": "Feature",
      "geometry": {
        "type": "Point",
        "coordinates": [
          37.640353183308,
          55.697562322989
        ]
      },
      "properties": {
        "id": "cost_cheapest_new_chamber_11",
        "object_type": "heat_chamber",
        "variant_id": "cost_cheapest",
        "diameter": 200,
        "cost": 3000000
      }
    },
    {
      "type": "Feature",
      "geometry": {
        "type": "Point",
        "coordinates": [
          37.632136507185,
          55.700021633574
        ]
      },
      "properties": {
        "id": "cost_cheapest_new_chamber_2",
        "object_type": "heat_chamber",
        "variant_id": "cost_cheapest",
        "diameter": 125,
        "cost": 3000000
      }
    },
    {
      "type": "Feature",
      "geometry": {
        "type": "Point",
        "coordinates": [
          37.634057468269,
          55.697689089356
        ]
      },
      "properties": {
        "id": "cost_cheapest_new_chamber_3",
        "object_type": "heat_chamber",
        "variant_id": "cost_cheapest",
        "diameter": 200,
        "cost": 3000000
      }
    },
    {
      "type": "Feature",
      "geometry": {
        "type": "Point",
        "coordinates": [
          37.632567764415,
          55.699903715694
        ]
      },
      "properties": {
        "id": "cost_cheapest_new_chamber_4",
        "object_type": "heat_chamber",
        "variant_id": "cost_cheapest",
        "diameter": 150,
        "cost": 3000000
      }
    },
    {
      "type": "Feature",
      "geometry": {
        "type": "Point",
        "coordinates": [
          37.633239428173,
          55.698750760647
        ]
      },
      "properties": {
        "id": "cost_cheapest_new_chamber_5",
        "object_type": "heat_chamber",
        "variant_id": "cost_cheapest",
        "diameter": 200,
        "cost": 3000000
      }
    },
    {
      "type": "Feature",
      "geometry": {
        "type": "Point",
        "coordinates": [
          37.633719199371,
          55.699464768687
        ]
      },
      "properties": {
        "id": "cost_cheapest_new_chamber_6",
        "object_type": "heat_chamber",
        "variant_id": "cost_cheapest",
        "diameter": 200,
        "cost": 3000000
      }
    },
    {
      "type": "Feature",
      "geometry": {
        "type": "Point",
        "coordinates": [
          37.633928976997,
          55.697497862323
        ]
      },
      "properties": {
        "id": "cost_cheapest_new_chamber_7",
        "object_type": "heat_chamber",
        "variant_id": "cost_cheapest",
        "diameter": 200,
        "cost": 3000000
      }
    },
    {
      "type": "Feature",
      "geometry": {
        "type": "Point",
        "coordinates": [
          37.634549857609,
          55.698421869051
        ]
      },
      "properties": {
        "id": "cost_cheapest_new_chamber_8",
        "object_type": "heat_chamber",
        "variant_id": "cost_cheapest",
        "diameter": 250,
        "cost": 5000000
      }
    },
    {
      "type": "Feature",
      "geometry": {
        "type": "Point",
        "coordinates": [
          37.63555517445,
          55.698398600259
        ]
      },
      "properties": {
        "id": "cost_cheapest_new_chamber_9",
        "object_type": "heat_chamber",
        "variant_id": "cost_cheapest",
        "diameter": 300,
        "cost": 5000000
      }
    },
    {
      "type": "Feature",
      "geometry": null,
      "properties": {
        "id": "cost_cheapest_summary",
        "object_type": "variant_summary",
        "variant_id": "cost_cheapest",
        "rank": 2,
        "label": "cost-aware forest, cheapest insertion with branch reattachment",
        "construction_cost": 227761841.93,
        "chamber_construction_cost": 39000000.0,
        "tie_in_cost": 10000000.0,
        "reconstruction_cost": 0.0,
        "chamber_reconstruction_cost": 0.0,
        "bend_penalty_cost": 0.0,
        "unconnected_penalty": 0.0,
        "calculated_cost": 276761841.93,
        "new_network_length": 2051.161,
        "reconstruction_length": 0.0,
        "length": 2051.161,
        "score": 13.902816,
        "route_bend_count": 31,
        "unconnected_oks_ids": [],
        "connected_oks_count": 17,
        "tie_in_count": 2,
        "optimization_objective": "calculated_cost",
        "optimality": "best found by cost-aware growth and local branch reattachment; no global guarantee",
        "note": "Existing-network reconstruction is zero because heat_network flow_tph/upstream_object_id are absent in this dataset."
      }
    }
  ],
  "crs": {
    "type": "name",
    "properties": {
      "name": "urn:ogc:def:crs:OGC:1.3:CRS84"
    }
  }
}