{
  "type": "FeatureCollection",
  "features": [
    {
      "type": "Feature",
      "geometry": {
        "type": "LineString",
        "coordinates": [
          [
            37.634038266911,
            55.699559750384
          ],
          [
            37.634405403981,
            55.699481068732
          ]
        ]
      },
      "properties": {
        "id": "cost_cheapest_new_1_1",
        "variant_id": "cost_cheapest",
        "diameter": 125,
        "length": 24.683
      }
    },
    {
      "type": "Feature",
      "geometry": {
        "type": "LineString",
        "coordinates": [
          [
            37.633553972642,
            55.699515088679
          ],
          [
            37.634038266911,
            55.699559750384
          ]
        ]
      },
      "properties": {
        "id": "cost_cheapest_new_2_1",
        "variant_id": "cost_cheapest",
        "diameter": 150,
        "length": 30.844
      }
    },
    {
      "type": "Feature",
      "geometry": {
        "type": "LineString",
        "coordinates": [
          [
            37.634038266911,
            55.699559750384
          ],
          [
            37.634349503097,
            55.699904493362
          ],
          [
            37.634582926007,
            55.699854468118
          ]
        ]
      },
      "properties": {
        "id": "cost_cheapest_new_3_1",
        "variant_id": "cost_cheapest",
        "diameter": 100,
        "length": 58.763
      }
    },
    {
      "type": "Feature",
      "geometry": {
        "type": "LineString",
        "coordinates": [
          [
            37.635307488793,
            55.698451686441
          ],
          [
            37.635417055874,
            55.698614736028
          ]
        ]
      },
      "properties": {
        "id": "cost_cheapest_new_4_1",
        "variant_id": "cost_cheapest",
        "diameter": 125,
        "length": 19.411
      }
    },
    {
      "type": "Feature",
      "geometry": {
        "type": "LineString",
        "coordinates": [
          [
            37.635307488793,
            55.698451686441
          ],
          [
            37.634960224514,
            55.698526114105
          ]
        ]
      },
      "properties": {
        "id": "cost_cheapest_new_5_1",
        "variant_id": "cost_cheapest",
        "diameter": 300,
        "length": 23.347
      }
    },
    {
      "type": "Feature",
      "geometry": {
        "type": "LineString",
        "coordinates": [
          [
            37.636831898623,
            55.697927930993
          ],
          [
            37.635307488793,
            55.698451686441
          ]
        ]
      },
      "properties": {
        "id": "cost_cheapest_new_6_1",
        "variant_id": "cost_cheapest",
        "diameter": 300,
        "length": 112.162
      }
    },
    {
      "type": "Feature",
      "geometry": {
        "type": "LineString",
        "coordinates": [
          [
            37.632210880108,
            55.700005696237
          ],
          [
            37.632012226301,
            55.700048265534
          ]
        ]
      },
      "properties": {
        "id": "cost_cheapest_new_7_1",
        "variant_id": "cost_cheapest",
        "diameter": 100,
        "length": 13.355
      }
    },
    {
      "type": "Feature",
      "geometry": {
        "type": "LineString",
        "coordinates": [
          [
            37.633553972642,
            55.699515088679
          ],
          [
            37.633561030471,
            55.699623869003
          ],
          [
            37.632210880108,
            55.700005696237
          ]
        ]
      },
      "properties": {
        "id": "cost_cheapest_new_8_1",
        "variant_id": "cost_cheapest",
        "diameter": 150,
        "length": 107.027
      }
    },
    {
      "type": "Feature",
      "geometry": {
        "type": "LineString",
        "coordinates": [
          [
            37.632210880108,
            55.700005696237
          ],
          [
            37.632391173049,
            55.70027401973
          ]
        ]
      },
      "properties": {
        "id": "cost_cheapest_new_9_1",
        "variant_id": "cost_cheapest",
        "diameter": 150,
        "length": 31.943
      }
    },
    {
      "type": "Feature",
      "geometry": {
        "type": "LineString",
        "coordinates": [
          [
            37.638196708309,
            55.69783240317
          ],
          [
            37.638280304046,
            55.697956790567
          ]
        ]
      },
      "properties": {
        "id": "cost_cheapest_new_10_1",
        "variant_id": "cost_cheapest",
        "diameter": 125,
        "length": 14.808
      }
    },
    {
      "type": "Feature",
      "geometry": {
        "type": "LineString",
        "coordinates": [
          [
            37.638196708309,
            55.69783240317
          ],
          [
            37.636831898623,
            55.697927930993
          ]
        ]
      },
      "properties": {
        "id": "cost_cheapest_new_11_1",
        "variant_id": "cost_cheapest",
        "diameter": 300,
        "length": 86.447
      }
    },
    {
      "type": "Feature",
      "geometry": {
        "type": "LineString",
        "coordinates": [
          [
            37.638461838842,
            55.697638536901
          ],
          [
            37.638196708309,
            55.69783240317
          ]
        ]
      },
      "properties": {
        "id": "cost_cheapest_new_12_1",
        "variant_id": "cost_cheapest",
        "diameter": 300,
        "length": 27.264
      }
    },
    {
      "type": "Feature",
      "geometry": {
        "type": "LineString",
        "coordinates": [
          [
            37.632391173049,
            55.70027401973
          ],
          [
            37.632202633433,
            55.700314421709
          ]
        ]
      },
      "properties": {
        "id": "cost_cheapest_new_13_1",
        "variant_id": "cost_cheapest",
        "diameter": 100,
        "length": 12.675
      }
    },
    {
      "type": "Feature",
      "geometry": {
        "type": "LineString",
        "coordinates": [
          [
            37.632391173049,
            55.70027401973
          ],
          [
            37.632457837231,
            55.70031165888
          ],
          [
            37.632818752375,
            55.700234317519
          ],
          [
            37.632846602295,
            55.700275764475
          ]
        ]
      },
      "properties": {
        "id": "cost_cheapest_new_14_1",
        "variant_id": "cost_cheapest",
        "diameter": 125,
        "length": 35.123
      }
    },
    {
      "type": "Feature",
      "geometry": {
        "type": "LineString",
        "coordinates": [
          [
            37.633209299511,
            55.698757217413
          ],
          [
            37.633139321938,
            55.698653072531
          ]
        ]
      },
      "properties": {
        "id": "cost_cheapest_new_15_1",
        "variant_id": "cost_cheapest",
        "diameter": 125,
        "length": 12.398
      }
    },
    {
      "type": "Feature",
      "geometry": {
        "type": "LineString",
        "coordinates": [
          [
            37.633209299511,
            55.698757217413
          ],
          [
            37.633553972642,
            55.699515088679
          ]
        ]
      },
      "properties": {
        "id": "cost_cheapest_new_16_1",
        "variant_id": "cost_cheapest",
        "diameter": 200,
        "length": 87.09
      }
    },
    {
      "type": "Feature",
      "geometry": {
        "type": "LineString",
        "coordinates": [
          [
            37.634575318689,
            55.698427891025
          ],
          [
            37.633209299511,
            55.698757217413
          ]
        ]
      },
      "properties": {
        "id": "cost_cheapest_new_17_1",
        "variant_id": "cost_cheapest",
        "diameter": 200,
        "length": 93.362
      }
    },
    {
      "type": "Feature",
      "geometry": {
        "type": "LineString",
        "coordinates": [
          [
            37.634131835984,
            55.697673150823
          ],
          [
            37.633901056125,
            55.697722611511
          ]
        ]
      },
      "properties": {
        "id": "cost_cheapest_new_18_1",
        "variant_id": "cost_cheapest",
        "diameter": 100,
        "length": 15.516
      }
    },
    {
      "type": "Feature",
      "geometry": {
        "type": "LineString",
        "coordinates": [
          [
            37.634131835984,
            55.697673150823
          ],
          [
            37.634003344399,
            55.697481923865
          ]
        ]
      },
      "properties": {
        "id": "cost_cheapest_new_19_1",
        "variant_id": "cost_cheapest",
        "diameter": 200,
        "length": 22.765
      }
    },
    {
      "type": "Feature",
      "geometry": {
        "type": "LineString",
        "coordinates": [
          [
            37.634575318689,
            55.698427891025
          ],
          [
            37.634131835984,
            55.697673150823
          ]
        ]
      },
      "properties": {
        "id": "cost_cheapest_new_20_1",
        "variant_id": "cost_cheapest",
        "diameter": 200,
        "length": 88.509
      }
    },
    {
      "type": "Feature",
      "geometry": {
        "type": "LineString",
        "coordinates": [
          [
            37.639132446285,
            55.698021663625
          ],
          [
            37.639153982329,
            55.697819399628
          ],
          [
            37.640230493834,
            55.69754000859
          ]
        ]
      },
      "properties": {
        "id": "cost_cheapest_new_21_1",
        "variant_id": "cost_cheapest",
        "diameter": 200,
        "length": 97.025
      }
    },
    {
      "type": "Feature",
      "geometry": {
        "type": "LineString",
        "coordinates": [
          [
            37.634960224514,
            55.698526114105
          ],
          [
            37.636173132253,
            55.700199937371
          ],
          [
            37.636381851248,
            55.700155203293
          ]
        ]
      },
      "properties": {
        "id": "cost_cheapest_new_22_1",
        "variant_id": "cost_cheapest",
        "diameter": 150,
        "length": 215.328
      }
    },
    {
      "type": "Feature",
      "geometry": {
        "type": "LineString",
        "coordinates": [
          [
            37.634003344399,
            55.697481923865
          ],
          [
            37.63452532492,
            55.697370051106
          ],
          [
            37.634446267723,
            55.697252395986
          ]
        ]
      },
      "properties": {
        "id": "cost_cheapest_new_23_1",
        "variant_id": "cost_cheapest",
        "diameter": 125,
        "length": 49.101
      }
    },
    {
      "type": "Feature",
      "geometry": {
        "type": "LineString",
        "coordinates": [
          [
            37.636831898623,
            55.697927930993
          ],
          [
            37.636460127081,
            55.697339747704
          ],
          [
            37.636093240038,
            55.697296573769
          ]
        ]
      },
      "properties": {
        "id": "cost_cheapest_new_24_1",
        "variant_id": "cost_cheapest",
        "diameter": 125,
        "length": 93.07
      }
    },
    {
      "type": "Feature",
      "geometry": {
        "type": "LineString",
        "coordinates": [
          [
            37.633553972642,
            55.699515088679
          ],
          [
            37.633204498734,
            55.699575079394
          ]
        ]
      },
      "properties": {
        "id": "cost_cheapest_new_25_1",
        "variant_id": "cost_cheapest",
        "diameter": 65,
        "length": 22.959
      }
    },
    {
      "type": "Feature",
      "geometry": {
        "type": "LineString",
        "coordinates": [
          [
            37.634003344399,
            55.697481923865
          ],
          [
            37.63375244097,
            55.697472333488
          ]
        ]
      },
      "properties": {
        "id": "cost_cheapest_new_26_1",
        "variant_id": "cost_cheapest",
        "diameter": 100,
        "length": 15.808
      }
    },
    {
      "type": "Feature",
      "geometry": {
        "type": "LineString",
        "coordinates": [
          [
            37.634003344399,
            55.697481923865
          ],
          [
            37.632939308846,
            55.69770996294
          ],
          [
            37.63266311498,
            55.697639795026
          ],
          [
            37.632262572659,
            55.697043644827
          ],
          [
            37.632034439325,
            55.697045694109
          ]
        ]
      },
      "properties": {
        "id": "cost_cheapest_new_27_1",
        "variant_id": "cost_cheapest",
        "diameter": 125,
        "length": 175.887
      }
    },
    {
      "type": "Feature",
      "geometry": {
        "type": "LineString",
        "coordinates": [
          [
            37.640230493834,
            55.69754000859
          ],
          [
            37.640394086093,
            55.697553554258
          ],
          [
            37.640949929531,
            55.698323581244
          ],
          [
            37.640764466155,
            55.698407396101
          ]
        ]
      },
      "properties": {
        "id": "cost_cheapest_new_28_1",
        "variant_id": "cost_cheapest",
        "diameter": 200,
        "length": 117.878
      }
    },
    {
      "type": "Feature",
      "geometry": {
        "type": "LineString",
        "coordinates": [
          [
            37.640230493834,
            55.69754000859
          ],
          [
            37.639901540648,
            55.696890339193
          ],
          [
            37.639538145943,
            55.696851832917
          ]
        ]
      },
      "properties": {
        "id": "cost_cheapest_new_29_1",
        "variant_id": "cost_cheapest",
        "diameter": 100,
        "length": 98.45
      }
    },
    {
      "type": "Feature",
      "geometry": {
        "type": "LineString",
        "coordinates": [
          [
            37.634960224514,
            55.698526114105
          ],
          [
            37.634575318689,
            55.698427891025
          ]
        ]
      },
      "properties": {
        "id": "cost_cheapest_new_30_1",
        "variant_id": "cost_cheapest",
        "diameter": 250,
        "length": 26.55
      }
    }
  ]
}